{"type":"FeatureCollection","features":[{"type":"Feature","geometry":{"type":"LineString","coordinates":[[4.772,33.9],[4.8,33.872],[4.966,33.9],[4.862,34.1],[5.0,34.16],[5.2,34.111],[5.342,34.1],[5.2,33.983],[5.135,33.9],[5.2,33.897],[5.4,33.86],[5.44,33.9],[5.6,34.084],[5.644,34.1],[5.8,34.19],[6.0,34.173],[6.064,34.1],[6.2,33.937],[6.4,33.932],[6.6,33.912],[6.648,33.9],[6.8,33.863],[7.0,33.842],[7.058,33.9],[7.2,34.067],[7.357,33.9],[7.4,33.857],[7.6,33.826],[7.8,33.878],[8.0,33.813],[8.2,33.883],[8.4,33.851],[8.6,33.84],[8.8,33.844],[8.941,33.9],[9.0,33.92],[9.2,33.979],[9.4,33.961],[9.6,34.074],[9.626,34.1],[9.8,34.262],[9.971,34.1],[10.0,34.071],[10.029,34.1],[10.2,34.287],[10.213,34.3],[10.4,34.387],[10.6,34.463],[10.8,34.454],[11.0,34.437],[11.2,34.434],[11.266,34.5],[11.314,34.7],[11.4,34.783],[11.517,34.9],[11.526,35.1],[11.6,35.174],[11.8,35.186],[12.0,35.186],[12.114,35.3],[12.2,35.368],[12.4,35.356],[12.6,35.336],[12.633,35.3],[12.8,35.133],[13.0,35.148],[13.035,35.1],[13.2,34.935],[13.4,35.094],[13.48,34.9],[13.6,34.78],[13.72,34.9],[13.8,35.034],[14.0,35.003],[14.097,35.1],[14.2,35.266],[14.234,35.3],[14.2,35.417],[14.099,35.5],[14.0,35.554],[13.825,35.7],[14.0,35.749],[14.2,35.716],[14.22,35.7],[14.227,35.5],[14.4,35.404],[14.496,35.5],[14.6,35.567],[14.8,35.66],[14.84,35.7],[15.0,35.843],[15.2,35.853],[15.247,35.9],[15.276,36.1],[15.4,36.268],[15.6,36.29],[15.61,36.3],[15.8,36.463],[16.0,36.484],[16.016,36.5],[16.0,36.516],[15.888,36.7],[16.0,36.851],[16.196,36.9],[16.186,37.1],[16.2,37.121],[16.215,37.1],[16.4,36.993],[16.547,37.1],[16.6,37.199],[16.756,37.3],[16.661,37.5],[16.8,37.628],[17.0,37.66],[17.04,37.7],[17.2,37.848],[17.252,37.9],[17.4,38.064],[17.6,38.035],[17.665,38.1],[17.8,38.291],[17.809,38.3],[17.838,38.5],[17.814,38.7],[17.8,38.714],[17.786,38.7],[17.6,38.563],[17.537,38.5],[17.4,38.37],[17.33,38.3],[17.2,38.166],[17.0,38.241],[16.918,38.3],[17.0,38.388],[17.112,38.5],[17.029,38.7],[17.0,38.729],[16.971,38.7],[16.809,38.5],[16.8,38.492],[16.759,38.5],[16.624,38.7],[16.6,38.724],[16.4,38.72],[16.241,38.9],[16.239,39.1],[16.2,39.139],[16.161,39.1],[16.159,38.9],[16.0,38.774],[15.926,38.7],[15.8,38.595],[15.733,38.7],[15.8,38.88],[15.82,38.9],[15.8,38.92],[15.78,38.9],[15.6,38.833],[15.4,38.835],[15.227,38.9],[15.227,39.1],[15.2,39.127],[15.0,39.156],[14.8,39.146],[14.6,39.144],[14.4,39.144],[14.2,39.135],[14.071,39.1],[14.0,39.073],[13.916,38.9],[13.8,38.764],[13.721,38.9],[13.6,39.09],[13.438,38.9],[13.4,38.864],[13.223,38.7],[13.2,38.618],[13.176,38.7],[13.085,38.9],[13.0,38.985],[12.915,38.9],[12.8,38.801],[12.6,38.784],[12.503,38.7],[12.4,38.521],[12.384,38.5],[12.2,38.399],[12.101,38.3],[12.0,38.151],[11.906,38.1],[11.8,38.035],[11.71,37.9],[11.6,37.754],[11.546,37.7],[11.586,37.5],[11.483,37.3],[11.4,37.185],[11.2,37.125],[11.034,37.3],[11.0,37.334],[10.966,37.3],[10.991,37.1],[11.0,37.091],[11.2,37.075],[11.351,36.9],[11.2,36.801],[11.0,36.799],[10.901,36.7],[10.8,36.623],[10.6,36.6],[10.5,36.5],[10.4,36.438],[10.2,36.352],[10.0,36.409],[9.838,36.5],[9.8,36.538],[9.762,36.5],[9.727,36.3],[9.6,36.212],[9.4,36.149],[9.351,36.1],[9.2,36.001],[9.0,35.999],[8.8,35.986],[8.629,35.9],[8.8,35.761],[9.0,35.801],[9.2,35.728],[9.4,35.755],[9.515,35.9],[9.6,35.988],[9.8,36.005],[10.0,36.082],[10.2,36.016],[10.4,35.968],[10.597,35.9],[10.4,35.724],[10.2,35.704],[10.196,35.7],[10.0,35.545],[9.916,35.5],[9.965,35.3],[10.0,35.265],[10.169,35.1],[10.0,34.924],[9.808,35.1],[9.8,35.108],[9.778,35.1],[9.76,34.9],[9.6,34.791],[9.446,34.9],[9.4,34.946],[9.354,34.9],[9.2,34.822],[9.0,34.772],[8.8,34.771],[8.6,34.745],[8.422,34.9],[8.4,34.922],[8.378,34.9],[8.2,34.716],[8.0,34.737],[7.963,34.7],[7.8,34.572],[7.653,34.7],[7.6,34.753],[7.427,34.9],[7.4,34.927],[7.373,34.9],[7.2,34.8],[7.049,34.9],[7.0,34.949],[6.8,34.999],[6.6,35.001],[6.4,34.96],[6.2,34.96],[6.14,34.9],[6.2,34.811],[6.4,34.84],[6.599,34.7],[6.6,34.695],[6.647,34.5],[6.6,34.438],[6.551,34.5],[6.4,34.584],[6.2,34.596],[6.0,34.564],[5.8,34.516],[5.6,34.53],[5.57,34.5],[5.4,34.346],[5.2,34.355],[5.0,34.338],[4.8,34.348],[4.6,34.331],[4.4,34.322],[4.378,34.3],[4.4,34.239],[4.57,34.1],[4.6,34.091],[4.772,33.9]]},"properties":{"probabilityThreshold":0.0715,"lengthKm":4571.6,"diagnosticOnly":true}},{"type":"Feature","geometry":{"type":"LineString","coordinates":[[3.0,34.626],[3.2,34.654],[3.4,34.638],[3.514,34.5],[3.6,34.414],[3.686,34.5],[3.606,34.7],[3.621,34.9],[3.6,34.921],[3.579,34.9],[3.4,34.762],[3.2,34.746],[3.0,34.774]]},"properties":{"probabilityThreshold":0.0715,"lengthKm":191.0,"diagnosticOnly":true}},{"type":"Feature","geometry":{"type":"LineString","coordinates":[[7.851,36.1],[8.0,36.063],[8.2,36.087],[8.4,35.919],[8.591,36.1],[8.4,36.218],[8.2,36.12],[8.0,36.142],[7.851,36.1]]},"properties":{"probabilityThreshold":0.0715,"lengthKm":159.4,"diagnosticOnly":true}},{"type":"Feature","geometry":{"type":"LineString","coordinates":[[10.502,38.9],[10.6,38.802],[10.698,38.9],[10.705,39.1],[10.6,39.205],[10.563,39.3],[10.549,39.5],[10.4,39.583],[10.317,39.5],[10.2,39.42],[10.038,39.5],[10.0,39.538],[9.962,39.5],[9.8,39.421],[9.612,39.5],[9.6,39.512],[9.4,39.531],[9.369,39.5],[9.289,39.3],[9.367,39.1],[9.4,39.067],[9.6,38.962],[9.738,39.1],[9.8,39.179],[10.0,39.186],[10.2,39.18],[10.4,39.137],[10.495,39.1],[10.502,38.9]]},"properties":{"probabilityThreshold":0.0715,"lengthKm":408.8,"diagnosticOnly":true}},{"type":"Feature","geometry":{"type":"LineString","coordinates":[[10.731,39.3],[10.8,39.231],[11.0,39.167],[11.2,39.243],[11.257,39.3],[11.4,39.364],[11.6,39.475],[11.625,39.5],[11.6,39.525],[11.4,39.636],[11.264,39.5],[11.2,39.357],[11.145,39.5],[11.098,39.7],[11.0,39.798],[10.902,39.7],[10.8,39.538],[10.701,39.5],[10.731,39.3]]},"properties":{"probabilityThreshold":0.0715,"lengthKm":272.7,"diagnosticOnly":true}},{"type":"Feature","geometry":{"type":"LineString","coordinates":[[9.689,39.7],[9.8,39.589],[9.911,39.7],[10.0,39.818],[10.2,39.854],[10.4,39.875],[10.6,39.861],[10.8,39.876],[10.824,39.9],[10.8,39.924],[10.605,40.1],[10.6,40.105],[10.595,40.1],[10.4,39.925],[10.298,40.1],[10.4,40.257],[10.443,40.3],[10.6,40.452],[10.648,40.5],[10.674,40.7],[10.633,40.9],[10.8,41.053],[10.847,41.1],[10.8,41.183],[10.607,41.3],[10.6,41.5],[10.6,41.5],[10.4,41.538],[10.2,41.51],[10.19,41.5],[10.091,41.3],[10.2,41.191],[10.275,41.1],[10.2,40.946],[10.0,40.995],[9.905,40.9],[10.0,40.805],[10.2,40.854],[10.4,40.838],[10.526,40.7],[10.4,40.567],[10.2,40.531],[10.169,40.5],[10.0,40.388],[9.912,40.3],[9.848,40.1],[9.8,39.901],[9.799,39.9],[9.689,39.7]]},"properties":{"probabilityThreshold":0.0715,"lengthKm":717.4,"diagnosticOnly":true}},{"type":"Feature","geometry":{"type":"LineString","coordinates":[[5.684,40.3],[5.8,40.184],[5.916,40.3],[5.8,40.416],[5.694,40.5],[5.6,40.594],[5.506,40.5],[5.6,40.406],[5.684,40.3]]},"properties":{"probabilityThreshold":0.0715,"lengthKm":114.3,"diagnosticOnly":true}},{"type":"Feature","geometry":{"type":"LineString","coordinates":[[7.301,41.1],[7.4,41.001],[7.499,41.1],[7.492,41.3],[7.456,41.5],[7.4,41.556],[7.247,41.7],[7.2,41.747],[7.153,41.7],[7.11,41.5],[7.147,41.3],[7.2,41.247],[7.301,41.1]]},"properties":{"probabilityThreshold":0.0715,"lengthKm":183.6,"diagnosticOnly":true}},{"type":"Feature","geometry":{"type":"LineString","coordinates":[[12.469,41.1],[12.6,40.969],[12.731,41.1],[12.624,41.3],[12.63,41.5],[12.6,41.53],[12.57,41.5],[12.576,41.3],[12.469,41.1]]},"properties":{"probabilityThreshold":0.0715,"lengthKm":136.7,"diagnosticOnly":true}},{"type":"Feature","geometry":{"type":"LineString","coordinates":[[20.987,44.5],[21.0,44.487],[21.2,44.494],[21.206,44.5],[21.4,44.69],[21.41,44.7],[21.6,44.813],[21.732,44.7],[21.736,44.5],[21.8,44.436],[21.864,44.5],[21.868,44.7],[21.869,44.9],[21.907,45.1],[21.899,45.3],[21.93,45.5],[21.94,45.7],[21.938,45.9],[21.941,46.1],[21.943,46.3],[21.945,46.5],[21.942,46.7],[21.934,46.9],[21.938,47.1],[21.926,47.3],[21.891,47.5],[21.874,47.7],[21.812,47.9],[21.8,47.912],[21.788,47.9],[21.726,47.7],[21.709,47.5],[21.674,47.3],[21.662,47.1],[21.6,46.909],[21.537,46.9],[21.6,46.853],[21.612,46.7],[21.615,46.5],[21.6,46.359],[21.52,46.3],[21.4,46.275],[21.214,46.3],[21.2,46.307],[21.0,46.366],[20.8,46.301],[20.6,46.364],[20.51,46.3],[20.4,46.256],[20.2,46.219],[20.0,46.153],[19.8,46.109],[19.6,46.115],[19.585,46.1],[19.4,45.946],[19.2,45.973],[19.045,46.1],[19.0,46.145],[18.8,46.159],[18.741,46.1],[18.6,45.949],[18.4,45.937],[18.216,46.1],[18.2,46.116],[18.184,46.1],[18.177,45.9],[18.2,45.877],[18.4,45.863],[18.525,45.7],[18.552,45.5],[18.6,45.452],[18.757,45.3],[18.782,45.1],[18.8,45.082],[18.99,44.9],[19.0,44.89],[19.01,44.9],[19.2,45.008],[19.4,45.013],[19.487,45.1],[19.6,45.203],[19.768,45.1],[19.8,45.068],[19.832,45.1],[20.0,45.216],[20.152,45.1],[20.2,45.052],[20.4,44.959],[20.469,44.9],[20.6,44.796],[20.672,44.7],[20.8,44.63],[20.987,44.5]]},"properties":{"probabilityThreshold":0.0715,"lengthKm":1378.7,"diagnosticOnly":true}},{"type":"Feature","geometry":{"type":"LineString","coordinates":[[19.2,45.192],[19.021,45.3],[19.0,45.321],[18.809,45.5],[19.0,45.646],[19.054,45.7],[19.2,45.827],[19.4,45.7],[19.4,45.7],[19.4,45.7],[19.6,45.843],[19.798,45.7],[19.6,45.516],[19.584,45.5],[19.4,45.398],[19.302,45.3],[19.2,45.192]]},"properties":{"probabilityThreshold":0.0715,"lengthKm":232.1,"diagnosticOnly":true}},{"type":"Feature","geometry":{"type":"LineString","coordinates":[[20.4,45.158],[20.216,45.3],[20.228,45.5],[20.4,45.677],[20.567,45.5],[20.6,45.467],[20.8,45.3],[20.6,45.216],[20.4,45.158]]},"properties":{"probabilityThreshold":0.0715,"lengthKm":154.6,"diagnosticOnly":true}},{"type":"Feature","geometry":{"type":"LineString","coordinates":[[7.728,45.5],[7.8,45.351],[8.0,45.46],[8.2,45.421],[8.279,45.5],[8.4,45.605],[8.495,45.7],[8.518,45.9],[8.4,45.969],[8.331,45.9],[8.2,45.732],[8.0,45.796],[7.8,45.74],[7.76,45.7],[7.728,45.5]]},"properties":{"probabilityThreshold":0.0715,"lengthKm":217.8,"diagnosticOnly":true}},{"type":"Feature","geometry":{"type":"LineString","coordinates":[[21.4,45.422],[21.362,45.5],[21.2,45.646],[21.022,45.7],[21.0,45.717],[20.906,45.9],[21.0,45.987],[21.2,45.927],[21.318,45.9],[21.4,45.854],[21.454,45.9],[21.6,45.955],[21.613,45.9],[21.622,45.7],[21.6,45.547],[21.505,45.5],[21.4,45.422]]},"properties":{"probabilityThreshold":0.0715,"lengthKm":201.3,"diagnosticOnly":true}},{"type":"Feature","geometry":{"type":"LineString","coordinates":[[3.0,45.873],[3.027,45.9],[3.2,46.031],[3.269,46.1],[3.4,46.163],[3.53,46.1],[3.6,46.03],[3.67,46.1],[3.6,46.17],[3.537,46.3],[3.6,46.372],[3.8,46.356],[3.982,46.3],[4.0,46.282],[4.2,46.211],[4.4,46.237],[4.463,46.3],[4.6,46.4],[4.8,46.407],[4.893,46.5],[5.0,46.64],[5.2,46.631],[5.4,46.636],[5.536,46.5],[5.4,46.33],[5.37,46.3],[5.316,46.1],[5.4,46.016],[5.59,45.9],[5.558,45.7],[5.538,45.5],[5.4,45.354],[5.2,45.343],[5.012,45.5],[5.0,45.512],[4.988,45.5],[4.985,45.3],[4.927,45.1],[4.8,44.969],[4.738,45.1],[4.6,45.238],[4.462,45.1],[4.4,45.006],[4.294,44.9],[4.2,44.799],[4.101,44.7],[4.0,44.545],[3.937,44.5],[3.956,44.3],[3.809,44.1],[3.8,44.078],[3.6,43.916],[3.584,43.9],[3.6,43.884],[3.8,43.805],[3.963,43.7],[4.0,43.663],[4.037,43.7],[4.2,43.763],[4.355,43.7],[4.4,43.655],[4.6,43.613],[4.8,43.631],[5.0,43.692],[5.008,43.7],[5.2,43.845],[5.4,43.867],[5.6,43.842],[5.658,43.9],[5.6,43.958],[5.4,43.933],[5.31,44.1],[5.307,44.3],[5.4,44.427],[5.473,44.5],[5.6,44.562],[5.8,44.662],[5.838,44.7],[5.815,44.9],[5.951,45.1],[6.0,45.211],[6.2,45.24],[6.26,45.3],[6.4,45.427],[6.473,45.5],[6.454,45.7],[6.6,45.863],[6.637,45.9],[6.8,46.016],[6.885,45.9],[7.0,45.785],[7.2,45.85],[7.4,45.867],[7.433,45.9],[7.4,45.933],[7.2,45.95],[7.0,46.015],[6.884,46.1],[7.0,46.282],[7.2,46.175],[7.4,46.25],[7.493,46.3],[7.6,46.455],[7.8,46.424],[8.0,46.442],[8.2,46.313],[8.317,46.5],[8.4,46.69],[8.6,46.696],[8.603,46.7],[8.8,46.853],[9.0,46.857],[9.2,46.788],[9.4,46.773],[9.6,46.729],[9.605,46.7],[9.8,46.581],[9.964,46.5],[9.8,46.404],[9.6,46.375],[9.494,46.3],[9.4,46.21],[9.2,46.118],[9.0,46.22],[8.8,46.219],[8.6,46.142],[8.558,46.1],[8.6,46.016],[8.8,45.98],[9.0,46.002],[9.058,45.9],[9.2,45.836],[9.4,45.836],[9.6,45.833],[9.667,45.9],[9.6,46.011],[9.524,46.1],[9.6,46.18],[9.8,46.244],[10.0,46.267],[10.017,46.3],[10.2,46.476],[10.311,46.5],[10.4,46.512],[10.6,46.517],[10.8,46.641],[11.0,46.541],[11.196,46.7],[11.2,46.703],[11.29,46.7],[11.4,46.69],[11.41,46.7],[11.4,46.71],[11.345,46.9],[11.4,47.028],[11.472,47.1],[11.6,47.245],[11.655,47.3],[11.6,47.355],[11.4,47.38],[11.32,47.3],[11.2,47.219],[11.077,47.3],[11.0,47.377],[10.854,47.5],[11.0,47.683],[11.017,47.7],[11.041,47.9],[11.2,48.001],[11.4,47.989],[11.6,48.03],[11.67,48.1],[11.605,48.3],[11.8,48.426],[11.874,48.5],[12.0,48.559],[12.2,48.5],[12.191,48.3],[12.2,48.291],[12.209,48.3],[12.2,48.5],[12.4,48.585],[12.528,48.5],[12.6,48.428],[12.751,48.3],[12.8,48.251],[13.0,48.218],[13.2,48.223],[13.277,48.3],[13.2,48.377],[13.029,48.5],[13.2,48.577],[13.4,48.563],[13.6,48.571],[13.8,48.55],[14.0,48.579],[14.2,48.589],[14.4,48.587],[14.6,48.595],[14.8,48.689],[15.0,48.598],[15.2,48.598],[15.358,48.5],[15.4,48.458],[15.6,48.461],[15.639,48.5],[15.8,48.602],[16.0,48.656],[16.2,48.626],[16.4,48.637],[16.6,48.66],[16.8,48.682],[17.0,48.676],[17.2,48.692],[17.4,48.665],[17.6,48.665],[17.8,48.682],[18.0,48.646],[18.2,48.671],[18.4,48.659],[18.6,48.66],[18.8,48.661],[19.0,48.648],[19.2,48.641],[19.4,48.646],[19.6,48.658],[19.8,48.637],[20.0,48.655],[20.2,48.672],[20.4,48.646],[20.454,48.7],[20.4,48.754],[20.2,48.728],[20.0,48.745],[19.8,48.763],[19.6,48.742],[19.4,48.754],[19.2,48.759],[19.0,48.752],[18.8,48.739],[18.6,48.74],[18.4,48.741],[18.2,48.729],[18.0,48.754],[17.8,48.718],[17.6,48.735],[17.4,48.735],[17.2,48.708],[17.0,48.724],[16.8,48.718],[16.6,48.74],[16.4,48.763],[16.2,48.774],[16.0,48.744],[15.8,48.798],[15.6,48.809],[15.4,48.803],[15.2,48.802],[15.0,48.802],[14.8,48.711],[14.6,48.805],[14.4,48.813],[14.2,48.811],[14.0,48.821],[13.8,48.85],[13.6,48.829],[13.4,48.837],[13.2,48.823],[13.0,48.817],[12.8,48.832],[12.6,48.813],[12.4,48.815],[12.2,48.829],[12.0,48.841],[11.8,48.854],[11.6,48.849],[11.4,48.831],[11.2,48.819],[11.0,48.82],[10.8,48.832],[10.6,48.835],[10.4,48.812],[10.2,48.821],[10.0,48.823],[9.8,48.822],[9.6,48.81],[9.4,48.829],[9.2,48.811],[9.0,48.805],[8.8,48.794],[8.6,48.821],[8.4,48.763],[8.2,48.806],[8.0,48.803],[7.8,48.751],[7.6,48.778],[7.4,48.812],[7.2,48.811],[7.0,48.735],[6.8,48.758],[6.742,48.7],[6.6,48.638],[6.4,48.643],[6.2,48.535],[6.0,48.565],[5.935,48.5],[5.8,48.446],[5.654,48.3],[5.6,48.262],[5.408,48.3],[5.4,48.308],[5.392,48.3],[5.4,48.292],[5.438,48.1],[5.433,47.9],[5.4,47.854],[5.302,47.9],[5.2,48.002],[5.098,47.9],[5.0,47.837],[4.876,47.9],[4.8,47.976],[4.724,47.9],[4.6,47.814],[4.4,47.75],[4.35,47.7],[4.2,47.644],[4.0,47.657],[3.8,47.653],[3.6,47.659],[3.4,47.609],[3.2,47.516],[3.184,47.5],[3.043,47.3],[3.0,47.18]]},"properties":{"probabilityThreshold":0.0715,"lengthKm":4720.7,"diagnosticOnly":true}},{"type":"Feature","geometry":{"type":"LineString","coordinates":[[5.8,45.713],[5.61,45.9],[5.602,46.1],[5.681,46.3],[5.8,46.436],[5.983,46.3],[6.0,46.283],[6.164,46.1],[6.0,45.906],[5.994,45.9],[5.8,45.713]]},"properties":{"probabilityThreshold":0.0715,"lengthKm":186.1,"diagnosticOnly":true}},{"type":"Feature","geometry":{"type":"LineString","coordinates":[[17.767,46.7],[17.8,46.667],[17.863,46.7],[18.0,46.787],[18.2,46.759],[18.29,46.9],[18.2,47.022],[18.0,46.971],[17.805,46.9],[17.8,46.887],[17.767,46.7]]},"properties":{"probabilityThreshold":0.0715,"lengthKm":127.7,"diagnosticOnly":true}},{"type":"Feature","geometry":{"type":"LineString","coordinates":[[11.544,46.9],[11.6,46.844],[11.8,46.857],[11.826,46.9],[12.0,47.031],[12.2,47.098],[12.202,47.1],[12.2,47.107],[12.059,47.3],[12.0,47.321],[11.979,47.3],[11.8,47.107],[11.793,47.1],[11.6,46.956],[11.544,46.9]]},"properties":{"probabilityThreshold":0.0715,"lengthKm":152.4,"diagnosticOnly":true}},{"type":"Feature","geometry":{"type":"LineString","coordinates":[[3.8,47.065],[3.747,47.1],[3.8,47.14],[4.0,47.152],[4.148,47.3],[4.2,47.356],[4.4,47.353],[4.547,47.5],[4.6,47.586],[4.644,47.5],[4.8,47.344],[4.852,47.3],[4.8,47.259],[4.641,47.1],[4.6,47.047],[4.4,47.058],[4.2,47.075],[4.0,47.072],[3.8,47.065]]},"properties":{"probabilityThreshold":0.0715,"lengthKm":230.6,"diagnosticOnly":true}},{"type":"Feature","geometry":{"type":"LineString","coordinates":[[12.471,47.1],[12.6,46.971],[12.729,47.1],[12.8,47.226],[12.874,47.3],[12.8,47.458],[12.6,47.403],[12.4,47.398],[12.244,47.3],[12.4,47.202],[12.471,47.1]]},"properties":{"probabilityThreshold":0.0715,"lengthKm":153.5,"diagnosticOnly":true}},{"type":"Feature","geometry":{"type":"LineString","coordinates":[[5.8,48.06],[5.762,48.1],[5.8,48.154],[6.0,48.171],[6.129,48.3],[6.2,48.465],[6.251,48.3],[6.4,48.151],[6.465,48.1],[6.4,48.069],[6.2,48.058],[6.0,48.036],[5.8,48.06]]},"properties":{"probabilityThreshold":0.0715,"lengthKm":159.8,"diagnosticOnly":true}},{"type":"Feature","geometry":{"type":"LineString","coordinates":[[10.4,48.478],[10.37,48.5],[10.4,48.508],[10.6,48.565],[10.8,48.568],[10.969,48.5],[10.8,48.404],[10.6,48.344],[10.4,48.478]]},"properties":{"probabilityThreshold":0.0715,"lengthKm":104.5,"diagnosticOnly":true}}],"properties":{"forecastHour":9,"method":"xgboost-dwd-era5-icon2i-v1","threshold":0.07145121517771291,"temporalConfirmation":"2-of-3 adjacent hours","diagnosticOnly":true}}