{"type":"FeatureCollection","features":[{"type":"Feature","geometry":{"type":"LineString","coordinates":[[3.0,41.052],[3.17,40.9],[3.2,40.87],[3.23,40.9],[3.316,41.1],[3.4,41.209],[3.6,41.172],[3.728,41.3],[3.8,41.37],[3.93,41.5],[3.918,41.7],[3.8,41.818],[3.6,41.759],[3.4,41.75],[3.231,41.7],[3.278,41.5],[3.2,41.432],[3.111,41.5],[3.16,41.7],[3.0,41.74]]},"properties":{"probabilityThreshold":0.0715,"lengthKm":298.1,"diagnosticOnly":true}}],"properties":{"forecastHour":27,"method":"xgboost-dwd-era5-icon2i-v1","threshold":0.07145121517771291,"temporalConfirmation":"2-of-3 adjacent hours","diagnosticOnly":true}}