{"type":"FeatureCollection","features":[{"type":"Feature","geometry":{"type":"LineString","coordinates":[[11.358,35.3],[11.4,35.258],[11.442,35.3],[11.446,35.5],[11.6,35.653],[11.647,35.7],[11.8,35.869],[11.831,35.9],[12.0,36.063],[12.037,36.1],[12.052,36.3],[12.055,36.5],[12.0,36.555],[11.945,36.5],[11.8,36.352],[11.748,36.3],[11.6,36.191],[11.458,36.3],[11.459,36.5],[11.4,36.559],[11.341,36.5],[11.342,36.3],[11.2,36.162],[11.138,36.1],[11.2,36.038],[11.366,35.9],[11.2,35.722],[11.017,35.9],[11.0,35.917],[10.983,35.9],[10.978,35.7],[11.0,35.678],[11.167,35.5],[11.2,35.467],[11.358,35.3]]},"properties":{"probabilityThreshold":0.0715,"lengthKm":496.0,"diagnosticOnly":true}},{"type":"Feature","geometry":{"type":"LineString","coordinates":[[9.0,39.71],[8.812,39.9],[9.0,40.065],[9.131,40.1],[9.0,40.135],[8.835,40.3],[9.0,40.445],[9.155,40.3],[9.2,40.155],[9.4,40.135],[9.41,40.1],[9.4,40.092],[9.288,39.9],[9.2,39.766],[9.0,39.71]]},"properties":{"probabilityThreshold":0.0715,"lengthKm":236.3,"diagnosticOnly":true}},{"type":"Feature","geometry":{"type":"LineString","coordinates":[[9.2,41.179],[9.025,41.3],[9.146,41.5],[9.2,41.565],[9.248,41.5],[9.394,41.3],[9.2,41.179]]},"properties":{"probabilityThreshold":0.0715,"lengthKm":107.0,"diagnosticOnly":true}},{"type":"Feature","geometry":{"type":"LineString","coordinates":[[3.0,41.444],[3.2,41.402],[3.347,41.3],[3.4,41.247],[3.6,41.247],[3.8,41.217],[4.0,41.201],[4.2,41.182],[4.318,41.3],[4.4,41.438],[4.541,41.3],[4.559,41.1],[4.577,40.9],[4.6,40.877],[4.623,40.9],[4.641,41.1],[4.8,41.236],[4.891,41.1],[4.93,40.9],[4.975,40.7],[5.0,40.675],[5.2,40.634],[5.266,40.7],[5.2,40.766],[5.07,40.9],[5.2,40.973],[5.3,40.9],[5.4,40.8],[5.511,40.7],[5.4,40.539],[5.361,40.5],[5.4,40.461],[5.6,40.424],[5.8,40.438],[6.0,40.433],[6.2,40.402],[6.4,40.401],[6.6,40.459],[6.641,40.5],[6.6,40.541],[6.445,40.7],[6.6,40.885],[6.751,40.7],[6.8,40.651],[6.911,40.5],[7.0,40.411],[7.107,40.3],[7.176,40.1],[7.2,40.076],[7.4,40.035],[7.6,40.058],[7.8,40.019],[7.974,39.9],[8.0,39.874],[8.026,39.9],[8.2,40.001],[8.383,39.9],[8.4,39.883],[8.57,39.7],[8.548,39.5],[8.6,39.448],[8.771,39.3],[8.8,39.271],[8.829,39.3],[8.836,39.5],[9.0,39.69],[9.146,39.5],[9.2,39.446],[9.303,39.3],[9.2,39.192],[9.108,39.1],[9.2,39.008],[9.4,39.002],[9.482,38.9],[9.51,38.7],[9.6,38.61],[9.749,38.5],[9.8,38.449],[9.851,38.5],[10.0,38.57],[10.084,38.5],[10.0,38.398],[9.902,38.3],[9.958,38.1],[10.0,38.058],[10.2,38.0],[10.331,37.9],[10.361,37.7],[10.4,37.661],[10.6,37.627],[10.737,37.5],[10.744,37.3],[10.8,37.244],[10.856,37.3],[11.0,37.378],[11.127,37.3],[11.13,37.1],[11.0,36.956],[10.944,36.9],[10.906,36.7],[10.952,36.5],[11.0,36.452],[11.048,36.5],[11.2,36.604],[11.296,36.7],[11.4,36.83],[11.47,36.9],[11.6,37.007],[11.693,37.1],[11.8,37.186],[11.92,37.1],[12.0,37.02],[12.11,36.9],[12.2,36.81],[12.4,36.857],[12.443,36.9],[12.451,37.1],[12.463,37.3],[12.466,37.5],[12.4,37.566],[12.268,37.7],[12.288,37.9],[12.319,38.1],[12.2,38.219],[12.048,38.3],[12.019,38.5],[12.0,38.519],[11.8,38.544],[11.696,38.7],[11.648,38.9],[11.6,38.948],[11.51,39.1],[11.4,39.21],[11.276,39.3],[11.23,39.5],[11.2,39.53],[11.0,39.57],[10.918,39.7],[10.831,39.9],[10.8,39.931],[10.629,40.1],[10.663,40.3],[10.8,40.496],[10.804,40.5],[10.876,40.7],[10.8,40.776],[10.724,40.7],[10.6,40.535],[10.469,40.7],[10.433,40.9],[10.401,41.1],[10.4,41.101],[10.2,41.166],[10.063,41.3],[10.0,41.363],[9.8,41.3],[9.6,41.375],[9.495,41.5],[9.4,41.698],[9.397,41.7],[9.4,41.702],[9.495,41.9],[9.4,41.995],[9.305,41.9],[9.2,41.774],[9.126,41.7],[9.0,41.587],[8.913,41.5],[8.975,41.3],[8.8,41.143],[8.663,41.3],[8.6,41.5],[8.6,41.5],[8.401,41.7],[8.4,41.701],[8.399,41.7],[8.2,41.613],[8.087,41.5],[8.0,41.404],[7.89,41.5],[8.0,41.627],[8.073,41.7],[8.0,41.773],[7.882,41.9],[7.8,41.982],[7.601,42.1],[7.6,42.101],[7.533,42.1],[7.4,42.096],[7.397,42.1],[7.4,42.109],[7.445,42.3],[7.4,42.345],[7.23,42.5],[7.2,42.53],[7.17,42.5],[7.0,42.367],[6.869,42.5],[6.8,42.569],[6.6,42.563],[6.537,42.5],[6.4,42.303],[6.2,42.325],[6.175,42.3],[6.0,42.195],[5.824,42.3],[5.8,42.324],[5.6,42.322],[5.578,42.3],[5.538,42.1],[5.4,41.927],[5.2,41.971],[5.0,42.018],[4.888,42.1],[4.8,42.128],[4.656,42.1],[4.68,41.9],[4.6,41.885],[4.565,41.9],[4.534,42.1],[4.4,42.123],[4.377,42.1],[4.283,41.9],[4.4,41.797],[4.454,41.7],[4.4,41.641],[4.245,41.7],[4.2,41.756],[4.145,41.9],[4.034,42.1],[4.0,42.134],[3.812,42.1],[3.8,42.089],[3.795,42.1],[3.8,42.105],[3.865,42.3],[3.8,42.365],[3.6,42.39],[3.4,42.306],[3.358,42.3],[3.2,42.24],[3.182,42.3],[3.065,42.5],[3.0,42.565]]},"properties":{"probabilityThreshold":0.0715,"lengthKm":3503.5,"diagnosticOnly":true}},{"type":"Feature","geometry":{"type":"LineString","coordinates":[[7.0,41.838],[6.903,41.9],[6.8,42.003],[6.6,41.989],[6.459,42.1],[6.6,42.265],[6.8,42.278],[6.967,42.1],[7.0,42.067],[7.135,41.9],[7.0,41.838]]},"properties":{"probabilityThreshold":0.0715,"lengthKm":159.8,"diagnosticOnly":true}},{"type":"Feature","geometry":{"type":"LineString","coordinates":[[6.515,45.5],[6.6,45.415],[6.685,45.5],[6.701,45.7],[6.74,45.9],[6.8,46.02],[7.0,46.037],[7.063,46.1],[7.0,46.163],[6.8,46.18],[6.72,46.1],[6.6,46.04],[6.468,46.1],[6.4,46.168],[6.332,46.1],[6.4,46.032],[6.46,45.9],[6.4,45.803],[6.297,45.7],[6.4,45.597],[6.515,45.5]]},"properties":{"probabilityThreshold":0.0715,"lengthKm":260.4,"diagnosticOnly":true}},{"type":"Feature","geometry":{"type":"LineString","coordinates":[[7.18,46.3],[7.2,46.28],[7.4,46.194],[7.506,46.3],[7.4,46.406],[7.241,46.5],[7.2,46.541],[7.0,46.549],[6.951,46.5],[7.0,46.451],[7.18,46.3]]},"properties":{"probabilityThreshold":0.0715,"lengthKm":121.1,"diagnosticOnly":true}}],"properties":{"forecastHour":63,"method":"xgboost-dwd-era5-icon2i-v1","threshold":0.07145121517771291,"temporalConfirmation":"2-of-3 adjacent hours","diagnosticOnly":true}}