{"type":"FeatureCollection","features":[{"type":"Feature","geometry":{"type":"LineString","coordinates":[[7.746,34.1],[7.8,34.046],[8.0,34.084],[8.2,34.008],[8.292,34.1],[8.4,34.208],[8.56,34.1],[8.6,34.06],[8.8,34.062],[8.838,34.1],[9.0,34.217],[9.083,34.3],[9.2,34.395],[9.4,34.387],[9.513,34.5],[9.6,34.58],[9.72,34.7],[9.771,34.9],[9.8,34.974],[9.943,34.9],[10.0,34.843],[10.057,34.9],[10.095,35.1],[10.0,35.195],[9.891,35.3],[10.0,35.417],[10.099,35.3],[10.2,35.199],[10.4,35.22],[10.564,35.1],[10.6,35.064],[10.636,35.1],[10.8,35.19],[11.0,35.259],[11.041,35.3],[11.2,35.393],[11.307,35.5],[11.4,35.561],[11.6,35.58],[11.8,35.565],[12.0,35.579],[12.2,35.687],[12.4,35.598],[12.6,35.63],[12.67,35.7],[12.6,35.77],[12.4,35.802],[12.323,35.9],[12.296,36.1],[12.4,36.282],[12.418,36.3],[12.6,36.37],[12.73,36.5],[12.8,36.574],[12.932,36.5],[12.974,36.3],[13.0,36.274],[13.026,36.3],[13.068,36.5],[13.2,36.565],[13.335,36.7],[13.366,36.9],[13.4,36.951],[13.6,37.07],[13.8,37.011],[13.861,36.9],[14.0,36.761],[14.2,36.856],[14.244,36.9],[14.4,36.971],[14.529,37.1],[14.6,37.226],[14.674,37.3],[14.8,37.474],[15.0,37.383],[15.117,37.5],[15.2,37.564],[15.336,37.7],[15.4,37.809],[15.554,37.7],[15.6,37.654],[15.646,37.7],[15.8,37.826],[15.874,37.9],[15.813,38.1],[15.8,38.113],[15.6,38.203],[15.5,38.3],[15.486,38.5],[15.4,38.586],[15.314,38.5],[15.3,38.3],[15.4,38.2],[15.497,38.1],[15.4,37.991],[15.2,38.054],[15.0,38.036],[14.864,37.9],[14.8,37.802],[14.709,37.9],[14.6,38.009],[14.491,37.9],[14.51,37.7],[14.451,37.5],[14.526,37.3],[14.4,37.229],[14.334,37.3],[14.287,37.5],[14.355,37.7],[14.2,37.855],[14.106,37.9],[14.2,38.002],[14.298,38.1],[14.332,38.3],[14.276,38.5],[14.4,38.656],[14.6,38.662],[14.638,38.7],[14.6,38.738],[14.4,38.744],[14.259,38.9],[14.2,38.959],[14.0,38.936],[13.8,38.98],[13.6,38.987],[13.462,39.1],[13.4,39.162],[13.2,39.121],[13.08,39.3],[13.044,39.5],[13.0,39.544],[12.956,39.5],[12.8,39.364],[12.736,39.3],[12.6,39.218],[12.46,39.3],[12.6,39.393],[12.707,39.5],[12.6,39.607],[12.509,39.7],[12.51,39.9],[12.473,40.1],[12.4,40.173],[12.263,40.3],[12.2,40.363],[12.012,40.5],[12.0,40.512],[11.8,40.527],[11.6,40.586],[11.514,40.5],[11.6,40.414],[11.724,40.3],[11.669,40.1],[11.662,39.9],[11.6,39.85],[11.45,39.7],[11.457,39.5],[11.489,39.3],[11.4,39.22],[11.28,39.1],[11.2,38.998],[11.102,38.9],[11.0,38.821],[10.899,38.9],[10.8,38.999],[10.679,39.1],[10.6,39.179],[10.4,39.114],[10.386,39.1],[10.4,39.086],[10.543,38.9],[10.4,38.83],[10.2,38.813],[10.087,38.7],[10.064,38.5],[10.0,38.45],[9.8,38.435],[9.665,38.3],[9.6,38.201],[9.499,38.1],[9.529,37.9],[9.4,37.805],[9.2,37.81],[9.0,37.799],[8.901,37.7],[8.8,37.562],[8.6,37.577],[8.523,37.5],[8.4,37.406],[8.2,37.388],[8.0,37.409],[7.891,37.3],[7.8,37.228],[7.672,37.1],[7.6,37.009],[7.504,37.1],[7.4,37.204],[7.269,37.3],[7.2,37.369],[7.131,37.3],[7.104,37.1],[7.0,37.009],[6.8,36.994],[6.6,36.97],[6.53,36.9],[6.535,36.7],[6.593,36.5],[6.6,36.493],[6.607,36.5],[6.8,36.622],[6.937,36.5],[7.0,36.437],[7.2,36.424],[7.4,36.442],[7.467,36.3],[7.6,36.167],[7.733,36.3],[7.8,36.434],[7.889,36.3],[8.0,36.189],[8.184,36.1],[8.2,36.084],[8.216,36.1],[8.4,36.187],[8.52,36.1],[8.6,36.02],[8.652,35.9],[8.8,35.752],[9.0,35.78],[9.07,35.7],[9.0,35.623],[8.877,35.5],[8.8,35.442],[8.6,35.452],[8.4,35.444],[8.2,35.425],[8.075,35.3],[8.0,35.267],[7.8,35.23],[7.6,35.226],[7.4,35.189],[7.2,35.204],[7.127,35.3],[7.0,35.427],[6.873,35.3],[6.8,35.215],[6.6,35.215],[6.4,35.203],[6.297,35.1],[6.2,34.977],[6.0,35.02],[5.909,35.1],[5.902,35.3],[5.8,35.402],[5.64,35.5],[5.6,35.54],[5.56,35.5],[5.4,35.403],[5.2,35.373],[5.127,35.3],[5.108,35.1],[5.0,34.935],[4.907,35.1],[4.8,35.207],[4.709,35.3],[4.8,35.405],[4.895,35.5],[4.8,35.595],[4.705,35.5],[4.6,35.409],[4.491,35.3],[4.494,35.1],[4.6,34.994],[4.708,34.9],[4.8,34.808],[5.0,34.865],[5.117,34.7],[5.0,34.614],[4.8,34.592],[4.6,34.603],[4.4,34.565],[4.335,34.5],[4.2,34.411],[4.089,34.3],[4.2,34.189],[4.4,34.196],[4.6,34.249],[4.651,34.3],[4.8,34.408],[5.0,34.386],[5.2,34.392],[5.298,34.3],[5.4,34.198],[5.6,34.191],[5.8,34.199],[6.0,34.163],[6.2,34.162],[6.338,34.3],[6.4,34.444],[6.553,34.3],[6.6,34.253],[6.8,34.239],[6.861,34.3],[6.8,34.361],[6.64,34.5],[6.8,34.627],[6.998,34.5],[7.0,34.498],[7.2,34.453],[7.288,34.3],[7.4,34.188],[7.6,34.217],[7.746,34.1]]},"properties":{"probabilityThreshold":0.0715,"lengthKm":4819.8,"diagnosticOnly":true}},{"type":"Feature","geometry":{"type":"LineString","coordinates":[[3.0,34.414],[3.174,34.3],[3.2,34.274],[3.226,34.3],[3.25,34.5],[3.4,34.577],[3.6,34.608],[3.692,34.7],[3.731,34.9],[3.8,34.957],[3.943,35.1],[3.928,35.3],[3.8,35.428],[3.719,35.5],[3.6,35.619],[3.454,35.7],[3.4,35.754],[3.346,35.7],[3.2,35.614],[3.0,35.607]]},"properties":{"probabilityThreshold":0.0715,"lengthKm":284.1,"diagnosticOnly":true}},{"type":"Feature","geometry":{"type":"LineString","coordinates":[[8.0,34.619],[7.866,34.7],[7.8,34.766],[7.6,34.798],[7.4,34.811],[7.222,34.9],[7.4,35.011],[7.6,34.974],[7.8,34.97],[8.0,34.933],[8.05,34.9],[8.076,34.7],[8.0,34.619]]},"properties":{"probabilityThreshold":0.0715,"lengthKm":196.1,"diagnosticOnly":true}},{"type":"Feature","geometry":{"type":"LineString","coordinates":[[16.129,37.9],[16.2,37.829],[16.4,37.811],[16.6,37.805],[16.695,37.9],[16.8,38.032],[17.0,38.034],[17.066,38.1],[17.0,38.166],[16.8,38.168],[16.6,38.126],[16.4,38.16],[16.34,38.1],[16.2,37.971],[16.129,37.9]]},"properties":{"probabilityThreshold":0.0715,"lengthKm":202.9,"diagnosticOnly":true}},{"type":"Feature","geometry":{"type":"LineString","coordinates":[[11.4,38.573],[11.257,38.7],[11.4,38.81],[11.49,38.9],[11.6,38.985],[11.71,38.9],[11.718,38.7],[11.6,38.603],[11.4,38.573]]},"properties":{"probabilityThreshold":0.0715,"lengthKm":130.2,"diagnosticOnly":true}},{"type":"Feature","geometry":{"type":"LineString","coordinates":[[7.719,39.1],[7.8,39.019],[8.0,38.999],[8.2,39.02],[8.28,39.1],[8.4,39.2],[8.6,39.199],[8.701,39.3],[8.8,39.383],[8.934,39.3],[8.958,39.1],[9.0,39.058],[9.2,38.965],[9.335,39.1],[9.2,39.235],[9.066,39.3],[9.053,39.5],[9.2,39.573],[9.327,39.7],[9.328,39.9],[9.4,39.973],[9.527,40.1],[9.4,40.227],[9.227,40.3],[9.2,40.327],[9.108,40.5],[9.077,40.7],[9.0,40.777],[8.923,40.7],[8.8,40.616],[8.6,40.631],[8.4,40.597],[8.2,40.642],[8.058,40.5],[8.0,40.403],[7.897,40.3],[8.0,40.197],[8.091,40.1],[8.2,39.991],[8.309,40.1],[8.4,40.174],[8.501,40.1],[8.462,39.9],[8.4,39.798],[8.302,39.7],[8.306,39.5],[8.2,39.421],[8.079,39.3],[8.0,39.201],[7.8,39.181],[7.719,39.1]]},"properties":{"probabilityThreshold":0.0715,"lengthKm":773.5,"diagnosticOnly":true}},{"type":"Feature","geometry":{"type":"LineString","coordinates":[[9.927,39.7],[10.0,39.627],[10.073,39.7],[10.091,39.9],[10.046,40.1],[10.0,40.146],[9.954,40.1],[9.8,39.923],[9.777,39.9],[9.8,39.877],[9.927,39.7]]},"properties":{"probabilityThreshold":0.0715,"lengthKm":130.1,"diagnosticOnly":true}},{"type":"Feature","geometry":{"type":"LineString","coordinates":[[7.272,39.9],[7.4,39.772],[7.6,39.872],[7.8,39.829],[7.871,39.9],[7.8,39.971],[7.6,39.928],[7.4,40.028],[7.308,40.1],[7.4,40.169],[7.6,40.189],[7.711,40.3],[7.8,40.405],[7.895,40.5],[7.8,40.595],[7.705,40.5],[7.6,40.411],[7.4,40.431],[7.287,40.5],[7.2,40.587],[7.087,40.7],[7.0,40.787],[6.913,40.7],[6.961,40.5],[6.881,40.3],[7.0,40.181],[7.092,40.1],[7.2,39.992],[7.272,39.9]]},"properties":{"probabilityThreshold":0.0715,"lengthKm":417.6,"diagnosticOnly":true}},{"type":"Feature","geometry":{"type":"LineString","coordinates":[[10.657,40.5],[10.8,40.357],[10.943,40.5],[10.935,40.7],[11.0,40.782],[11.076,40.7],[11.2,40.576],[11.324,40.7],[11.2,40.824],[11.118,40.9],[11.138,41.1],[11.0,41.238],[10.8,41.101],[10.6,41.201],[10.4,41.208],[10.292,41.1],[10.4,40.992],[10.6,40.999],[10.651,40.9],[10.6,40.817],[10.4,40.851],[10.249,40.7],[10.4,40.549],[10.6,40.583],[10.657,40.5]]},"properties":{"probabilityThreshold":0.0715,"lengthKm":402.9,"diagnosticOnly":true}},{"type":"Feature","geometry":{"type":"LineString","coordinates":[[7.741,40.9],[7.8,40.841],[8.0,40.856],[8.2,40.892],[8.4,40.781],[8.6,40.827],[8.673,40.9],[8.6,40.973],[8.46,41.1],[8.4,41.16],[8.34,41.1],[8.2,40.908],[8.0,40.944],[7.8,40.959],[7.741,40.9]]},"properties":{"probabilityThreshold":0.0715,"lengthKm":202.8,"diagnosticOnly":true}},{"type":"Feature","geometry":{"type":"LineString","coordinates":[[9.111,41.1],[9.2,41.011],[9.4,40.98],[9.52,41.1],[9.6,41.174],[9.8,41.176],[9.869,41.1],[10.0,40.969],[10.131,41.1],[10.0,41.231],[9.924,41.3],[9.8,41.424],[9.683,41.5],[9.6,41.583],[9.517,41.5],[9.474,41.3],[9.4,41.22],[9.2,41.189],[9.111,41.1]]},"properties":{"probabilityThreshold":0.0715,"lengthKm":263.9,"diagnosticOnly":true}},{"type":"Feature","geometry":{"type":"LineString","coordinates":[[10.274,41.5],[10.4,41.374],[10.526,41.5],[10.4,41.626],[10.28,41.7],[10.2,41.78],[10.12,41.7],[10.2,41.62],[10.274,41.5]]},"properties":{"probabilityThreshold":0.0715,"lengthKm":113.2,"diagnosticOnly":true}},{"type":"Feature","geometry":{"type":"LineString","coordinates":[[4.867,44.9],[5.0,44.767],[5.133,44.9],[5.2,44.998],[5.322,44.9],[5.4,44.822],[5.6,44.875],[5.8,44.818],[5.882,44.9],[5.8,44.982],[5.692,45.1],[5.649,45.3],[5.6,45.349],[5.551,45.3],[5.4,45.155],[5.2,45.202],[5.098,45.1],[5.0,45.033],[4.867,44.9]]},"properties":{"probabilityThreshold":0.0715,"lengthKm":259.7,"diagnosticOnly":true}},{"type":"Feature","geometry":{"type":"LineString","coordinates":[[21.335,45.1],[21.4,45.035],[21.6,45.073],[21.8,45.022],[21.878,45.1],[21.876,45.3],[21.852,45.5],[21.866,45.7],[21.878,45.9],[21.881,46.1],[21.889,46.3],[21.904,46.5],[21.911,46.7],[21.888,46.9],[21.906,47.1],[21.917,47.3],[21.896,47.5],[21.902,47.7],[21.8,47.802],[21.698,47.7],[21.704,47.5],[21.683,47.3],[21.6,47.123],[21.4,47.181],[21.2,47.194],[21.065,47.3],[21.0,47.365],[20.8,47.381],[20.646,47.5],[20.708,47.7],[20.6,47.808],[20.4,47.772],[20.2,47.817],[20.154,47.9],[20.0,48.054],[19.8,48.005],[19.6,48.022],[19.4,48.044],[19.256,47.9],[19.2,47.844],[19.056,47.7],[19.0,47.629],[18.8,47.63],[18.729,47.7],[18.6,47.829],[18.471,47.7],[18.453,47.5],[18.4,47.402],[18.2,47.413],[18.087,47.3],[18.0,47.229],[17.8,47.172],[17.6,47.187],[17.513,47.1],[17.4,46.953],[17.347,46.9],[17.2,46.752],[17.0,46.785],[16.915,46.7],[17.0,46.615],[17.112,46.5],[17.2,46.412],[17.279,46.3],[17.4,46.179],[17.489,46.1],[17.6,45.989],[17.711,46.1],[17.8,46.162],[18.0,46.164],[18.068,46.1],[18.139,45.9],[18.2,45.839],[18.261,45.9],[18.4,45.974],[18.516,45.9],[18.6,45.816],[18.8,45.837],[19.0,45.803],[19.14,45.7],[19.2,45.64],[19.4,45.679],[19.6,45.622],[19.8,45.633],[19.973,45.5],[20.0,45.473],[20.2,45.472],[20.4,45.466],[20.6,45.436],[20.8,45.424],[20.989,45.3],[21.0,45.289],[21.2,45.249],[21.335,45.1]]},"properties":{"probabilityThreshold":0.0715,"lengthKm":1436.4,"diagnosticOnly":true}},{"type":"Feature","geometry":{"type":"LineString","coordinates":[[9.16,46.5],[9.2,46.46],[9.24,46.5],[9.4,46.569],[9.551,46.5],[9.6,46.451],[9.649,46.5],[9.8,46.561],[9.919,46.5],[10.0,46.419],[10.081,46.5],[10.0,46.581],[9.939,46.7],[9.8,46.839],[9.731,46.9],[9.6,47.031],[9.469,46.9],[9.4,46.831],[9.269,46.7],[9.2,46.54],[9.16,46.5]]},"properties":{"probabilityThreshold":0.0715,"lengthKm":236.7,"diagnosticOnly":true}},{"type":"Feature","geometry":{"type":"LineString","coordinates":[[18.8,46.425],[18.602,46.5],[18.638,46.7],[18.653,46.9],[18.6,46.953],[18.483,47.1],[18.6,47.175],[18.758,47.1],[18.8,47.058],[18.975,46.9],[19.0,46.875],[19.2,46.889],[19.385,46.7],[19.4,46.685],[19.596,46.5],[19.4,46.336],[19.2,46.348],[19.0,46.365],[18.8,46.425]]},"properties":{"probabilityThreshold":0.0715,"lengthKm":284.0,"diagnosticOnly":true}},{"type":"Feature","geometry":{"type":"LineString","coordinates":[[12.571,46.7],[12.6,46.671],[12.8,46.582],[13.0,46.633],[13.2,46.567],[13.4,46.581],[13.6,46.567],[13.8,46.594],[14.0,46.662],[14.038,46.7],[14.2,46.825],[14.4,46.837],[14.6,46.798],[14.733,46.7],[14.8,46.633],[15.0,46.625],[15.075,46.7],[15.02,46.9],[15.018,47.1],[15.0,47.118],[14.982,47.1],[14.8,46.937],[14.6,47.002],[14.494,47.1],[14.4,47.194],[14.2,47.16],[14.14,47.1],[14.0,46.942],[13.958,46.9],[13.8,46.806],[13.684,46.9],[13.6,46.984],[13.516,46.9],[13.4,46.819],[13.259,46.9],[13.2,46.959],[13.123,47.1],[13.2,47.214],[13.4,47.178],[13.522,47.3],[13.513,47.5],[13.4,47.613],[13.287,47.5],[13.2,47.386],[13.0,47.415],[12.8,47.396],[12.6,47.398],[12.4,47.438],[12.2,47.43],[12.07,47.3],[12.2,47.17],[12.4,47.162],[12.585,47.1],[12.6,47.085],[12.615,47.1],[12.8,47.204],[12.877,47.1],[13.0,46.977],[13.141,46.9],[13.0,46.767],[12.8,46.818],[12.6,46.729],[12.571,46.7]]},"properties":{"probabilityThreshold":0.0715,"lengthKm":866.8,"diagnosticOnly":true}},{"type":"Feature","geometry":{"type":"LineString","coordinates":[[17.3,47.7],[17.4,47.6],[17.6,47.605],[17.8,47.602],[18.0,47.564],[18.2,47.561],[18.339,47.7],[18.325,47.9],[18.2,48.025],[18.0,48.066],[17.837,48.1],[17.8,48.137],[17.763,48.1],[17.8,48.063],[17.834,47.9],[17.8,47.798],[17.6,47.795],[17.4,47.8],[17.3,47.7]]},"properties":{"probabilityThreshold":0.0715,"lengthKm":247.1,"diagnosticOnly":true}},{"type":"Feature","geometry":{"type":"LineString","coordinates":[[7.947,48.5],[8.0,48.447],[8.053,48.5],[8.2,48.623],[8.4,48.644],[8.6,48.634],[8.8,48.609],[9.0,48.634],[9.2,48.663],[9.4,48.65],[9.6,48.647],[9.8,48.651],[10.0,48.645],[10.2,48.677],[10.4,48.675],[10.6,48.624],[10.8,48.613],[11.0,48.61],[11.2,48.639],[11.4,48.613],[11.6,48.618],[11.8,48.63],[12.0,48.644],[12.2,48.67],[12.4,48.66],[12.6,48.646],[12.8,48.647],[13.0,48.646],[13.2,48.625],[13.4,48.651],[13.6,48.681],[13.619,48.7],[13.6,48.719],[13.4,48.749],[13.2,48.775],[13.0,48.754],[12.8,48.753],[12.6,48.754],[12.4,48.74],[12.2,48.73],[12.0,48.756],[11.8,48.77],[11.6,48.782],[11.4,48.787],[11.2,48.761],[11.0,48.79],[10.8,48.787],[10.6,48.776],[10.4,48.725],[10.2,48.723],[10.0,48.755],[9.8,48.749],[9.6,48.753],[9.4,48.75],[9.2,48.737],[9.0,48.766],[8.8,48.791],[8.6,48.766],[8.4,48.756],[8.2,48.777],[8.0,48.784],[7.8,48.793],[7.6,48.767],[7.4,48.72],[7.38,48.7],[7.4,48.68],[7.6,48.633],[7.8,48.607],[7.947,48.5]]},"properties":{"probabilityThreshold":0.0715,"lengthKm":951.5,"diagnosticOnly":true}},{"type":"Feature","geometry":{"type":"LineString","coordinates":[[3.082,48.7],[3.2,48.582],[3.4,48.603],[3.6,48.662],[3.8,48.681],[4.0,48.654],[4.2,48.645],[4.4,48.644],[4.6,48.636],[4.8,48.621],[5.0,48.607],[5.2,48.598],[5.4,48.638],[5.462,48.7],[5.4,48.762],[5.2,48.802],[5.0,48.793],[4.8,48.779],[4.6,48.764],[4.4,48.756],[4.2,48.755],[4.0,48.746],[3.8,48.719],[3.6,48.738],[3.4,48.797],[3.2,48.818],[3.082,48.7]]},"properties":{"probabilityThreshold":0.0715,"lengthKm":377.2,"diagnosticOnly":true}},{"type":"Feature","geometry":{"type":"LineString","coordinates":[[5.728,48.7],[5.8,48.628],[6.0,48.612],[6.2,48.628],[6.4,48.602],[6.6,48.651],[6.8,48.679],[7.0,48.687],[7.013,48.7],[7.0,48.713],[6.8,48.721],[6.6,48.749],[6.4,48.798],[6.2,48.772],[6.0,48.788],[5.8,48.772],[5.728,48.7]]},"properties":{"probabilityThreshold":0.0715,"lengthKm":202.4,"diagnosticOnly":true}}],"properties":{"forecastHour":0,"method":"xgboost-dwd-era5-icon2i-v1","threshold":0.07145121517771291,"temporalConfirmation":"2-of-3 adjacent hours","diagnosticOnly":true}}