{"type":"FeatureCollection","features":[{"type":"Feature","geometry":{"type":"LineString","coordinates":[[5.138,33.9],[5.2,33.838],[5.4,33.814],[5.486,33.9],[5.6,34.033],[5.667,34.1],[5.6,34.167],[5.4,34.157],[5.343,34.1],[5.2,33.962],[5.138,33.9]]},"properties":{"probabilityThreshold":0.0715,"lengthKm":133.1,"diagnosticOnly":true}},{"type":"Feature","geometry":{"type":"LineString","coordinates":[[6.718,33.9],[6.8,33.818],[7.0,33.862],[7.038,33.9],[7.115,34.1],[7.2,34.291],[7.4,34.19],[7.54,34.1],[7.6,34.04],[7.66,34.1],[7.8,34.254],[7.913,34.1],[8.0,34.013],[8.167,33.9],[8.2,33.867],[8.233,33.9],[8.4,34.008],[8.492,34.1],[8.4,34.192],[8.2,34.138],[8.001,34.3],[8.0,34.301],[7.8,34.346],[7.6,34.347],[7.4,34.41],[7.2,34.309],[7.049,34.5],[7.0,34.549],[6.951,34.5],[6.97,34.3],[6.8,34.247],[6.6,34.251],[6.41,34.3],[6.4,34.31],[6.2,34.355],[6.0,34.347],[5.953,34.3],[6.0,34.253],[6.096,34.1],[6.2,33.996],[6.4,33.953],[6.6,33.949],[6.718,33.9]]},"properties":{"probabilityThreshold":0.0715,"lengthKm":640.8,"diagnosticOnly":true}},{"type":"Feature","geometry":{"type":"LineString","coordinates":[[4.535,34.1],[4.6,34.035],[4.665,34.1],[4.8,34.247],[4.853,34.3],[4.8,34.353],[4.6,34.344],[4.556,34.3],[4.535,34.1]]},"properties":{"probabilityThreshold":0.0715,"lengthKm":101.4,"diagnosticOnly":true}},{"type":"Feature","geometry":{"type":"LineString","coordinates":[[8.983,34.1],[9.0,34.083],[9.2,34.045],[9.4,34.095],[9.6,34.034],[9.666,34.1],[9.6,34.166],[9.518,34.3],[9.4,34.418],[9.203,34.5],[9.2,34.503],[9.197,34.5],[9.122,34.3],[9.0,34.117],[8.983,34.1]]},"properties":{"probabilityThreshold":0.0715,"lengthKm":182.6,"diagnosticOnly":true}},{"type":"Feature","geometry":{"type":"LineString","coordinates":[[13.553,34.9],[13.6,34.853],[13.647,34.9],[13.8,34.987],[14.0,35.05],[14.05,35.1],[14.2,35.176],[14.324,35.3],[14.4,35.395],[14.505,35.5],[14.6,35.564],[14.75,35.5],[14.8,35.45],[14.85,35.5],[14.889,35.7],[15.0,35.85],[15.2,35.774],[15.4,35.883],[15.417,35.9],[15.6,35.986],[15.692,35.9],[15.786,35.7],[15.8,35.686],[15.814,35.7],[16.0,35.83],[16.07,35.9],[16.102,36.1],[16.2,36.27],[16.395,36.1],[16.321,35.9],[16.325,35.7],[16.4,35.625],[16.475,35.7],[16.479,35.9],[16.6,36.027],[16.673,36.1],[16.626,36.3],[16.673,36.5],[16.6,36.573],[16.477,36.7],[16.464,36.9],[16.444,37.1],[16.6,37.246],[16.8,37.267],[17.0,37.295],[17.2,37.295],[17.205,37.3],[17.252,37.5],[17.2,37.552],[17.148,37.5],[17.0,37.305],[16.8,37.333],[16.642,37.5],[16.8,37.573],[17.0,37.695],[17.005,37.7],[17.2,37.786],[17.392,37.9],[17.4,37.907],[17.475,37.9],[17.6,37.883],[17.617,37.9],[17.693,38.1],[17.8,38.204],[17.896,38.3],[17.913,38.5],[17.885,38.7],[17.8,38.785],[17.715,38.7],[17.6,38.602],[17.498,38.5],[17.4,38.396],[17.304,38.3],[17.2,38.23],[17.0,38.146],[16.883,38.3],[16.8,38.383],[16.717,38.3],[16.628,38.1],[16.6,38.074],[16.563,38.1],[16.509,38.3],[16.6,38.492],[16.608,38.5],[16.607,38.7],[16.6,38.707],[16.4,38.78],[16.2,38.89],[16.0,38.876],[15.951,38.9],[15.861,39.1],[15.8,39.161],[15.6,39.167],[15.533,39.1],[15.4,38.975],[15.234,39.1],[15.2,39.134],[15.007,39.1],[15.0,39.095],[14.953,39.1],[14.8,39.105],[14.602,39.3],[14.614,39.5],[14.668,39.7],[14.6,39.768],[14.4,39.72],[14.2,39.779],[14.0,39.754],[13.946,39.7],[14.0,39.646],[14.2,39.621],[14.387,39.5],[14.4,39.348],[14.53,39.3],[14.4,39.286],[14.2,39.208],[14.058,39.3],[14.0,39.358],[13.8,39.365],[13.735,39.3],[13.728,39.1],[13.8,39.028],[13.865,38.9],[13.8,38.797],[13.662,38.9],[13.6,38.962],[13.538,38.9],[13.4,38.719],[13.381,38.7],[13.294,38.5],[13.2,38.333],[13.188,38.3],[13.0,38.161],[12.939,38.1],[12.843,37.9],[12.869,37.7],[12.8,37.603],[12.697,37.5],[12.681,37.3],[12.6,37.204],[12.496,37.1],[12.4,36.983],[12.2,36.974],[12.126,36.9],[12.0,36.705],[11.995,36.7],[12.0,36.683],[12.2,36.502],[12.201,36.5],[12.2,36.495],[12.142,36.3],[12.0,36.166],[11.8,36.159],[11.67,36.3],[11.6,36.341],[11.4,36.308],[11.392,36.3],[11.2,36.196],[11.104,36.1],[11.0,36.004],[10.8,35.915],[10.785,35.9],[10.6,35.757],[10.525,35.7],[10.6,35.643],[10.8,35.677],[10.823,35.7],[11.0,35.796],[11.2,35.84],[11.225,35.9],[11.4,36.027],[11.6,35.973],[11.8,36.066],[11.922,35.9],[12.0,35.822],[12.161,35.7],[12.2,35.661],[12.4,35.665],[12.6,35.621],[12.8,35.646],[12.98,35.5],[13.0,35.48],[13.124,35.3],[13.168,35.1],[13.2,35.068],[13.4,35.062],[13.553,34.9]]},"properties":{"probabilityThreshold":0.0715,"lengthKm":2766.9,"diagnosticOnly":true}},{"type":"Feature","geometry":{"type":"LineString","coordinates":[[9.161,35.3],[9.2,35.261],[9.4,35.205],[9.6,35.296],[9.604,35.3],[9.6,35.304],[9.409,35.5],[9.6,35.643],[9.657,35.7],[9.6,35.757],[9.4,35.862],[9.2,35.765],[9.162,35.7],[9.0,35.534],[8.966,35.5],[9.0,35.466],[9.161,35.3]]},"properties":{"probabilityThreshold":0.0715,"lengthKm":221.3,"diagnosticOnly":true}},{"type":"Feature","geometry":{"type":"LineString","coordinates":[[8.54,35.9],[8.6,35.84],[8.724,35.9],[8.658,36.1],[8.6,36.158],[8.432,36.3],[8.4,36.332],[8.2,36.304],[8.196,36.3],[8.0,36.18],[7.92,36.1],[8.0,36.02],[8.2,35.974],[8.4,35.989],[8.54,35.9]]},"properties":{"probabilityThreshold":0.0715,"lengthKm":195.5,"diagnosticOnly":true}},{"type":"Feature","geometry":{"type":"LineString","coordinates":[[12.357,37.7],[12.4,37.657],[12.6,37.686],[12.614,37.7],[12.755,37.9],[12.675,38.1],[12.6,38.175],[12.525,38.1],[12.504,37.9],[12.4,37.743],[12.357,37.7]]},"properties":{"probabilityThreshold":0.0715,"lengthKm":143.5,"diagnosticOnly":true}},{"type":"Feature","geometry":{"type":"LineString","coordinates":[[12.777,38.3],[12.8,38.277],[12.823,38.3],[12.93,38.5],[12.8,38.587],[12.6,38.615],[12.485,38.5],[12.6,38.385],[12.777,38.3]]},"properties":{"probabilityThreshold":0.0715,"lengthKm":113.6,"diagnosticOnly":true}},{"type":"Feature","geometry":{"type":"LineString","coordinates":[[11.457,39.1],[11.6,38.957],[11.8,39.038],[11.862,39.1],[11.8,39.162],[11.6,39.243],[11.476,39.3],[11.6,39.448],[11.652,39.5],[11.667,39.7],[11.6,39.767],[11.533,39.7],[11.4,39.547],[11.353,39.5],[11.2,39.442],[11.018,39.5],[11.026,39.7],[11.0,39.726],[10.974,39.7],[10.982,39.5],[10.97,39.3],[11.0,39.27],[11.2,39.158],[11.4,39.224],[11.457,39.1]]},"properties":{"probabilityThreshold":0.0715,"lengthKm":347.3,"diagnosticOnly":true}},{"type":"Feature","geometry":{"type":"LineString","coordinates":[[12.377,39.3],[12.4,39.277],[12.6,39.265],[12.635,39.3],[12.6,39.335],[12.496,39.5],[12.4,39.596],[12.2,39.535],[12.165,39.5],[12.2,39.465],[12.377,39.3]]},"properties":{"probabilityThreshold":0.0715,"lengthKm":116.0,"diagnosticOnly":true}},{"type":"Feature","geometry":{"type":"LineString","coordinates":[[10.298,40.3],[10.4,40.198],[10.502,40.3],[10.6,40.382],[10.718,40.5],[10.789,40.7],[10.6,40.839],[10.461,40.7],[10.482,40.5],[10.4,40.402],[10.298,40.3]]},"properties":{"probabilityThreshold":0.0715,"lengthKm":170.9,"diagnosticOnly":true}},{"type":"Feature","geometry":{"type":"LineString","coordinates":[[10.894,40.3],[11.0,40.194],[11.106,40.3],[11.094,40.5],[11.0,40.594],[10.906,40.5],[10.894,40.3]]},"properties":{"probabilityThreshold":0.0715,"lengthKm":100.1,"diagnosticOnly":true}},{"type":"Feature","geometry":{"type":"LineString","coordinates":[[14.135,40.3],[14.2,40.235],[14.4,40.232],[14.6,40.235],[14.665,40.3],[14.6,40.365],[14.4,40.368],[14.206,40.5],[14.2,40.506],[14.148,40.7],[14.0,40.848],[13.809,40.9],[13.845,41.1],[13.8,41.145],[13.755,41.1],[13.791,40.9],[13.8,40.891],[13.852,40.7],[14.0,40.552],[14.194,40.5],[14.135,40.3]]},"properties":{"probabilityThreshold":0.0715,"lengthKm":300.9,"diagnosticOnly":true}},{"type":"Feature","geometry":{"type":"LineString","coordinates":[[9.903,40.9],[10.0,40.803],[10.2,40.876],[10.224,40.9],[10.4,40.943],[10.6,41.025],[10.8,40.987],[10.913,41.1],[10.8,41.213],[10.6,41.175],[10.4,41.257],[10.249,41.3],[10.23,41.5],[10.2,41.53],[10.17,41.5],[10.151,41.3],[10.2,41.251],[10.243,41.1],[10.2,40.924],[10.0,40.997],[9.903,40.9]]},"properties":{"probabilityThreshold":0.0715,"lengthKm":297.2,"diagnosticOnly":true}},{"type":"Feature","geometry":{"type":"LineString","coordinates":[[3.0,43.189],[3.2,43.261],[3.239,43.3],[3.4,43.364],[3.6,43.423],[3.8,43.443],[4.0,43.426],[4.2,43.441],[4.4,43.437],[4.6,43.452],[4.8,43.444],[4.856,43.5],[5.0,43.659],[5.041,43.7],[5.2,43.782],[5.364,43.7],[5.4,43.664],[5.6,43.671],[5.629,43.7],[5.689,43.9],[5.6,43.989],[5.4,44.049],[5.34,44.1],[5.303,44.3],[5.32,44.5],[5.4,44.59],[5.51,44.7],[5.6,44.882],[5.618,44.9],[5.8,45.089],[5.811,45.1],[6.0,45.246],[6.054,45.3],[6.2,45.412],[6.4,45.488],[6.412,45.5],[6.502,45.7],[6.6,45.855],[6.645,45.9],[6.8,46.019],[6.876,45.9],[7.0,45.776],[7.2,45.787],[7.4,45.881],[7.419,45.9],[7.4,45.919],[7.2,46.013],[7.056,46.1],[7.2,46.242],[7.4,46.217],[7.6,46.271],[7.629,46.3],[7.8,46.476],[8.0,46.345],[8.158,46.3],[8.2,46.258],[8.37,46.1],[8.2,46.037],[8.092,46.1],[8.0,46.192],[7.908,46.1],[7.907,45.9],[7.8,45.818],[7.682,45.7],[7.6,45.571],[7.4,45.533],[7.2,45.558],[7.142,45.5],[7.2,45.442],[7.4,45.467],[7.494,45.3],[7.545,45.1],[7.6,45.045],[7.8,45.081],[7.819,45.1],[8.0,45.269],[8.031,45.3],[8.2,45.415],[8.4,45.442],[8.458,45.5],[8.515,45.7],[8.6,45.787],[8.797,45.7],[8.8,45.697],[8.803,45.7],[9.0,45.835],[9.2,45.822],[9.4,45.776],[9.6,45.885],[9.615,45.9],[9.8,45.992],[10.0,45.949],[10.2,45.997],[10.362,46.1],[10.4,46.122],[10.6,46.22],[10.68,46.3],[10.8,46.438],[10.896,46.3],[11.0,46.196],[11.104,46.3],[11.2,46.381],[11.4,46.468],[11.6,46.413],[11.687,46.5],[11.8,46.612],[12.0,46.671],[12.029,46.7],[12.0,46.792],[11.8,46.839],[11.615,46.9],[11.6,46.906],[11.53,46.9],[11.4,46.892],[11.392,46.9],[11.382,47.1],[11.4,47.126],[11.6,47.276],[11.8,47.298],[11.802,47.3],[12.0,47.36],[12.056,47.3],[12.2,47.18],[12.4,47.27],[12.43,47.3],[12.4,47.33],[12.237,47.5],[12.4,47.615],[12.6,47.51],[12.682,47.5],[12.8,47.493],[13.0,47.463],[13.037,47.5],[13.0,47.537],[12.867,47.7],[13.0,47.846],[13.054,47.9],[13.2,48.0],[13.4,48.013],[13.6,48.059],[13.641,48.1],[13.8,48.157],[13.943,48.3],[14.0,48.441],[14.059,48.5],[14.2,48.597],[14.4,48.615],[14.6,48.589],[14.8,48.683],[14.951,48.5],[15.0,48.451],[15.2,48.493],[15.4,48.404],[15.6,48.453],[15.8,48.422],[15.878,48.5],[16.0,48.572],[16.2,48.586],[16.4,48.587],[16.6,48.57],[16.8,48.599],[17.0,48.697],[17.2,48.67],[17.4,48.64],[17.6,48.668],[17.8,48.655],[18.0,48.618],[18.2,48.615],[18.4,48.598],[18.6,48.603],[18.8,48.617],[19.0,48.616],[19.2,48.63],[19.4,48.626],[19.6,48.623],[19.8,48.668],[20.0,48.676],[20.05,48.7],[20.0,48.724],[19.8,48.732],[19.6,48.777],[19.4,48.774],[19.2,48.77],[19.0,48.784],[18.8,48.783],[18.6,48.797],[18.4,48.802],[18.2,48.785],[18.0,48.782],[17.8,48.745],[17.6,48.732],[17.4,48.76],[17.2,48.73],[17.0,48.703],[16.8,48.801],[16.6,48.83],[16.4,48.813],[16.2,48.814],[16.0,48.828],[15.8,48.83],[15.6,48.788],[15.4,48.825],[15.2,48.808],[15.0,48.805],[14.8,48.717],[14.6,48.811],[14.4,48.785],[14.2,48.803],[14.0,48.809],[13.8,48.825],[13.6,48.837],[13.4,48.852],[13.2,48.854],[13.0,48.857],[12.8,48.857],[12.6,48.86],[12.4,48.865],[12.2,48.858],[12.0,48.859],[11.8,48.849],[11.6,48.85],[11.4,48.857],[11.2,48.849],[11.0,48.85],[10.8,48.842],[10.6,48.843],[10.4,48.837],[10.2,48.832],[10.0,48.842],[9.8,48.817],[9.6,48.834],[9.4,48.822],[9.2,48.819],[9.0,48.751],[8.8,48.808],[8.6,48.8],[8.4,48.769],[8.2,48.729],[8.0,48.714],[7.8,48.713],[7.6,48.709],[7.4,48.728],[7.2,48.773],[7.127,48.7],[7.2,48.627],[7.316,48.5],[7.327,48.3],[7.2,48.124],[7.087,48.3],[7.053,48.5],[7.0,48.553],[6.947,48.5],[6.8,48.402],[6.6,48.32],[6.58,48.3],[6.568,48.1],[6.4,47.981],[6.319,47.9],[6.2,47.802],[6.0,47.744],[5.8,47.778],[5.722,47.7],[5.713,47.5],[5.6,47.435],[5.435,47.5],[5.4,47.535],[5.365,47.5],[5.2,47.378],[5.081,47.5],[5.0,47.581],[4.8,47.548],[4.752,47.5],[4.8,47.452],[4.889,47.3],[4.8,47.12],[4.78,47.1],[4.6,46.945],[4.4,46.988],[4.312,46.9],[4.2,46.749],[4.088,46.9],[4.0,46.988],[3.8,46.956],[3.744,46.9],[3.6,46.8],[3.4,46.726],[3.374,46.7],[3.2,46.634],[3.0,46.647]]},"properties":{"probabilityThreshold":0.0715,"lengthKm":4059.6,"diagnosticOnly":true}},{"type":"Feature","geometry":{"type":"LineString","coordinates":[[20.986,44.5],[21.0,44.486],[21.2,44.462],[21.238,44.5],[21.4,44.645],[21.455,44.7],[21.6,44.845],[21.707,44.7],[21.8,44.607],[21.893,44.7],[21.92,44.9],[21.932,45.1],[21.916,45.3],[21.891,45.5],[21.909,45.7],[21.936,45.9],[21.953,46.1],[21.943,46.3],[21.943,46.5],[21.928,46.7],[21.937,46.9],[21.935,47.1],[21.93,47.3],[21.931,47.5],[21.943,47.7],[21.908,47.9],[21.863,48.1],[21.8,48.163],[21.737,48.1],[21.692,47.9],[21.657,47.7],[21.669,47.5],[21.67,47.3],[21.665,47.1],[21.626,46.9],[21.6,46.851],[21.407,46.9],[21.4,46.902],[21.392,46.9],[21.2,46.853],[21.0,46.877],[20.853,46.9],[20.8,46.912],[20.619,47.1],[20.624,47.3],[20.6,47.324],[20.4,47.307],[20.393,47.3],[20.4,47.293],[20.581,47.1],[20.4,46.909],[20.2,46.912],[20.052,47.1],[20.0,47.152],[19.812,47.3],[19.8,47.312],[19.788,47.3],[19.6,47.187],[19.513,47.1],[19.4,46.94],[19.217,47.1],[19.203,47.3],[19.2,47.303],[19.197,47.3],[19.0,47.12],[18.8,47.139],[18.6,47.159],[18.541,47.1],[18.4,46.967],[18.2,46.954],[18.0,46.927],[17.973,46.9],[17.8,46.736],[17.764,46.7],[17.8,46.664],[18.0,46.69],[18.01,46.7],[18.2,46.846],[18.337,46.7],[18.368,46.5],[18.2,46.333],[18.167,46.3],[18.064,46.1],[18.0,46.04],[17.8,45.938],[17.762,45.9],[17.8,45.862],[17.902,45.7],[18.0,45.602],[18.089,45.5],[18.2,45.389],[18.4,45.404],[18.585,45.3],[18.536,45.1],[18.582,44.9],[18.6,44.882],[18.8,44.858],[18.891,44.9],[19.0,45.064],[19.2,45.049],[19.322,44.9],[19.4,44.822],[19.478,44.9],[19.6,45.07],[19.8,44.995],[19.905,45.1],[20.0,45.163],[20.135,45.1],[20.2,45.035],[20.4,45.042],[20.511,44.9],[20.6,44.811],[20.712,44.7],[20.8,44.612],[20.986,44.5]]},"properties":{"probabilityThreshold":0.0715,"lengthKm":1730.4,"diagnosticOnly":true}},{"type":"Feature","geometry":{"type":"LineString","coordinates":[[3.0,44.989],[3.111,45.1],[3.2,45.199],[3.4,45.21],[3.482,45.1],[3.6,44.982],[3.699,44.9],[3.6,44.708],[3.4,44.729],[3.371,44.7],[3.277,44.5],[3.2,44.386],[3.0,44.398]]},"properties":{"probabilityThreshold":0.0715,"lengthKm":181.3,"diagnosticOnly":true}},{"type":"Feature","geometry":{"type":"LineString","coordinates":[[8.6,46.215],[8.455,46.3],[8.4,46.355],[8.313,46.5],[8.4,46.664],[8.529,46.5],[8.6,46.429],[8.671,46.5],[8.627,46.7],[8.8,46.766],[8.962,46.7],[8.982,46.5],[8.8,46.34],[8.76,46.3],[8.6,46.215]]},"properties":{"probabilityThreshold":0.0715,"lengthKm":215.9,"diagnosticOnly":true}},{"type":"Feature","geometry":{"type":"LineString","coordinates":[[18.6,46.584],[18.463,46.7],[18.6,46.895],[18.605,46.9],[18.8,47.061],[18.985,46.9],[18.8,46.727],[18.773,46.7],[18.6,46.584]]},"properties":{"probabilityThreshold":0.0715,"lengthKm":133.0,"diagnosticOnly":true}},{"type":"Feature","geometry":{"type":"LineString","coordinates":[[7.6,48.317],[7.484,48.5],[7.6,48.691],[7.8,48.687],[8.0,48.686],[8.2,48.599],[8.277,48.5],[8.2,48.477],[8.0,48.363],[7.8,48.333],[7.6,48.317]]},"properties":{"probabilityThreshold":0.0715,"lengthKm":159.8,"diagnosticOnly":true}}],"properties":{"forecastHour":12,"method":"xgboost-dwd-era5-icon2i-v1","threshold":0.07145121517771291,"temporalConfirmation":"2-of-3 adjacent hours","diagnosticOnly":true}}