{"type":"FeatureCollection","features":[{"type":"Feature","geometry":{"type":"LineString","coordinates":[[18.946,34.1],[19.0,34.046],[19.2,34.056],[19.4,33.987],[19.513,34.1],[19.485,34.3],[19.6,34.364],[19.736,34.5],[19.74,34.7],[19.8,34.764],[19.936,34.9],[19.927,35.1],[19.919,35.3],[20.0,35.39],[20.11,35.5],[20.0,35.61],[19.901,35.7],[19.8,35.801],[19.731,35.9],[19.6,36.031],[19.4,36.096],[19.291,35.9],[19.294,35.7],[19.2,35.524],[19.176,35.5],[19.153,35.3],[19.138,35.1],[19.2,35.038],[19.27,34.9],[19.2,34.799],[19.101,34.7],[19.134,34.5],[19.0,34.343],[18.957,34.3],[18.946,34.1]]},"properties":{"probabilityThreshold":0.0715,"lengthKm":573.5,"diagnosticOnly":true}},{"type":"Feature","geometry":{"type":"LineString","coordinates":[[21.76,36.7],[21.8,36.66],[21.84,36.7],[21.885,36.9],[21.838,37.1],[21.8,37.138],[21.762,37.1],[21.715,36.9],[21.76,36.7]]},"properties":{"probabilityThreshold":0.0715,"lengthKm":112.1,"diagnosticOnly":true}},{"type":"Feature","geometry":{"type":"LineString","coordinates":[[15.689,38.3],[15.8,38.189],[15.911,38.3],[15.813,38.5],[16.0,38.565],[16.2,38.674],[16.226,38.7],[16.2,38.726],[16.0,38.835],[15.865,38.7],[15.8,38.513],[15.787,38.5],[15.689,38.3]]},"properties":{"probabilityThreshold":0.0715,"lengthKm":188.6,"diagnosticOnly":true}},{"type":"Feature","geometry":{"type":"LineString","coordinates":[[21.76,39.1],[21.8,38.977],[21.84,39.1],[21.832,39.3],[21.825,39.5],[21.839,39.7],[21.852,39.9],[21.841,40.1],[21.833,40.3],[21.803,40.5],[21.8,40.503],[21.797,40.5],[21.767,40.3],[21.759,40.1],[21.748,39.9],[21.761,39.7],[21.775,39.5],[21.768,39.3],[21.76,39.1]]},"properties":{"probabilityThreshold":0.0715,"lengthKm":339.2,"diagnosticOnly":true}},{"type":"Feature","geometry":{"type":"LineString","coordinates":[[15.86,39.3],[16.0,39.16],[16.14,39.3],[16.1,39.5],[16.0,39.6],[15.9,39.5],[15.86,39.3]]},"properties":{"probabilityThreshold":0.0715,"lengthKm":111.7,"diagnosticOnly":true}},{"type":"Feature","geometry":{"type":"LineString","coordinates":[[15.703,40.7],[15.8,40.603],[15.897,40.7],[16.0,40.802],[16.098,40.9],[16.039,41.1],[16.0,41.139],[15.921,41.1],[15.8,40.965],[15.77,40.9],[15.703,40.7]]},"properties":{"probabilityThreshold":0.0715,"lengthKm":139.4,"diagnosticOnly":true}},{"type":"Feature","geometry":{"type":"LineString","coordinates":[[16.574,40.7],[16.6,40.674],[16.787,40.7],[16.717,40.9],[16.6,41.017],[16.4,41.006],[16.294,40.9],[16.4,40.794],[16.574,40.7]]},"properties":{"probabilityThreshold":0.0715,"lengthKm":123.0,"diagnosticOnly":true}},{"type":"Feature","geometry":{"type":"LineString","coordinates":[[17.147,40.9],[17.2,40.847],[17.253,40.9],[17.346,41.1],[17.4,41.135],[17.565,41.3],[17.4,41.465],[17.235,41.3],[17.2,41.246],[17.118,41.3],[17.0,41.418],[16.882,41.3],[16.893,41.1],[17.0,40.993],[17.147,40.9]]},"properties":{"probabilityThreshold":0.0715,"lengthKm":214.2,"diagnosticOnly":true}},{"type":"Feature","geometry":{"type":"LineString","coordinates":[[14.561,41.7],[14.6,41.661],[14.8,41.654],[14.846,41.7],[14.8,41.746],[14.631,41.9],[14.6,41.931],[14.4,41.978],[14.351,41.9],[14.4,41.851],[14.561,41.7]]},"properties":{"probabilityThreshold":0.0715,"lengthKm":116.1,"diagnosticOnly":true}},{"type":"Feature","geometry":{"type":"LineString","coordinates":[[15.58,41.7],[15.6,41.68],[15.62,41.7],[15.8,41.845],[15.855,41.9],[15.8,42.1],[16.0,42.207],[16.2,42.235],[16.4,42.146],[16.492,42.1],[16.418,41.9],[16.6,41.76],[16.8,41.764],[16.936,41.9],[17.0,42.013],[17.087,42.1],[17.0,42.187],[16.913,42.1],[16.8,42.036],[16.708,42.1],[16.6,42.208],[16.554,42.3],[16.4,42.454],[16.2,42.365],[16.15,42.5],[16.0,42.65],[15.834,42.7],[15.8,42.755],[15.6,42.787],[15.513,42.7],[15.4,42.613],[15.309,42.7],[15.2,42.809],[15.091,42.7],[15.2,42.591],[15.287,42.5],[15.4,42.387],[15.517,42.3],[15.6,42.217],[15.8,42.1],[15.6,41.955],[15.535,41.9],[15.58,41.7]]},"properties":{"probabilityThreshold":0.0715,"lengthKm":625.0,"diagnosticOnly":true}},{"type":"Feature","geometry":{"type":"LineString","coordinates":[[13.553,41.9],[13.6,41.853],[13.8,41.878],[14.0,41.765],[14.135,41.9],[14.025,42.1],[14.0,42.125],[13.8,42.153],[13.647,42.3],[13.617,42.5],[13.624,42.7],[13.6,42.724],[13.415,42.9],[13.462,43.1],[13.427,43.3],[13.4,43.32],[13.38,43.3],[13.2,43.2],[13.086,43.3],[13.0,43.386],[12.912,43.5],[13.0,43.675],[13.147,43.5],[13.2,43.447],[13.253,43.5],[13.239,43.7],[13.4,43.856],[13.495,43.7],[13.6,43.595],[13.8,43.669],[13.936,43.5],[14.0,43.436],[14.083,43.3],[14.2,43.183],[14.303,43.1],[14.4,43.003],[14.451,42.9],[14.4,42.783],[14.317,42.7],[14.4,42.617],[14.483,42.7],[14.6,42.751],[14.749,42.9],[14.8,42.995],[15.0,43.046],[15.054,43.1],[15.002,43.3],[15.2,43.406],[15.4,43.343],[15.6,43.386],[15.76,43.3],[15.8,43.26],[16.0,43.151],[16.2,43.159],[16.247,43.1],[16.4,42.947],[16.525,42.9],[16.6,42.825],[16.8,42.825],[16.933,42.7],[17.0,42.633],[17.067,42.7],[17.2,42.809],[17.291,42.9],[17.2,42.991],[17.0,43.004],[16.91,43.1],[17.0,43.174],[17.2,43.17],[17.4,43.157],[17.541,43.1],[17.6,43.041],[17.8,43.037],[18.0,43.039],[18.046,42.9],[18.0,42.83],[17.8,42.846],[17.6,42.861],[17.4,42.801],[17.299,42.7],[17.3,42.5],[17.4,42.4],[17.5,42.5],[17.6,42.539],[17.652,42.5],[17.8,42.352],[18.0,42.386],[18.127,42.3],[18.2,42.227],[18.253,42.1],[18.267,41.9],[18.4,41.767],[18.533,41.9],[18.547,42.1],[18.415,42.3],[18.6,42.338],[18.8,42.419],[19.0,42.363],[19.098,42.3],[19.2,42.186],[19.4,42.236],[19.464,42.3],[19.4,42.364],[19.2,42.402],[19.137,42.5],[19.2,42.572],[19.4,42.575],[19.6,42.615],[19.685,42.7],[19.6,42.785],[19.554,42.9],[19.4,43.054],[19.232,43.1],[19.4,43.249],[19.6,43.251],[19.8,43.298],[20.0,43.262],[20.038,43.3],[20.035,43.5],[20.2,43.674],[20.37,43.5],[20.382,43.3],[20.2,43.196],[20.104,43.1],[20.2,43.004],[20.343,42.9],[20.4,42.843],[20.457,42.9],[20.6,43.047],[20.653,43.1],[20.8,43.186],[20.914,43.3],[20.81,43.5],[20.8,43.51],[20.6,43.505],[20.422,43.7],[20.457,43.9],[20.4,43.957],[20.302,44.1],[20.4,44.226],[20.54,44.1],[20.6,44.04],[20.66,44.1],[20.702,44.3],[20.8,44.419],[20.963,44.3],[21.0,44.263],[21.2,44.298],[21.202,44.3],[21.228,44.5],[21.235,44.7],[21.2,44.735],[21.165,44.7],[21.0,44.53],[20.827,44.7],[21.0,44.891],[21.009,44.9],[21.2,45.082],[21.218,45.1],[21.217,45.3],[21.2,45.338],[21.0,45.469],[20.942,45.5],[20.8,45.571],[20.653,45.5],[20.6,45.416],[20.4,45.389],[20.273,45.5],[20.368,45.7],[20.4,45.802],[20.51,45.9],[20.6,45.949],[20.8,45.999],[20.965,46.1],[21.0,46.111],[21.2,46.23],[21.31,46.3],[21.304,46.5],[21.4,46.588],[21.532,46.7],[21.4,46.776],[21.2,46.777],[21.073,46.9],[21.2,46.994],[21.4,47.087],[21.6,47.009],[21.725,46.9],[21.72,46.7],[21.74,46.5],[21.775,46.3],[21.745,46.1],[21.728,45.9],[21.711,45.7],[21.721,45.5],[21.711,45.3],[21.732,45.1],[21.669,44.9],[21.67,44.7],[21.678,44.5],[21.687,44.3],[21.698,44.1],[21.747,43.9],[21.8,43.847],[21.853,43.9],[21.902,44.1],[21.913,44.3],[21.922,44.5],[21.93,44.7],[21.931,44.9],[21.868,45.1],[21.889,45.3],[21.879,45.5],[21.889,45.7],[21.872,45.9],[21.855,46.1],[21.825,46.3],[21.842,46.5],[21.835,46.7],[21.855,46.9],[21.901,47.1],[21.876,47.3],[21.907,47.5],[21.952,47.7],[21.961,47.9],[21.962,48.1],[21.965,48.3],[21.958,48.5],[21.943,48.7],[21.8,48.843],[21.6,48.831],[21.4,48.853],[21.2,48.842],[21.0,48.827],[20.8,48.846],[20.6,48.854],[20.4,48.86],[20.2,48.867],[20.0,48.866],[19.8,48.863],[19.6,48.865],[19.4,48.853],[19.2,48.823],[19.077,48.7],[19.135,48.5],[19.099,48.3],[19.144,48.1],[19.085,47.9],[19.037,47.7],[19.0,47.638],[18.862,47.5],[18.8,47.39],[18.71,47.3],[18.763,47.1],[18.8,47.063],[18.9,46.9],[18.8,46.7],[18.8,46.7],[18.8,46.7],[18.947,46.5],[18.8,46.334],[18.6,46.5],[18.6,46.5],[18.6,46.5],[18.59,46.3],[18.4,46.148],[18.2,46.203],[18.097,46.1],[18.0,45.913],[17.987,45.9],[17.8,45.735],[17.765,45.7],[17.8,45.665],[17.991,45.5],[17.8,45.335],[17.661,45.3],[17.6,45.176],[17.589,45.1],[17.569,44.9],[17.4,44.755],[17.2,44.854],[17.08,44.9],[17.0,44.913],[16.8,44.933],[16.609,45.1],[16.621,45.3],[16.8,45.474],[16.826,45.5],[17.0,45.674],[17.026,45.7],[17.2,45.894],[17.206,45.9],[17.4,46.039],[17.461,46.1],[17.4,46.161],[17.229,46.3],[17.2,46.329],[17.171,46.3],[17.111,46.1],[17.0,45.97],[16.8,46.002],[16.6,45.965],[16.535,45.9],[16.4,45.778],[16.322,45.7],[16.331,45.5],[16.4,45.431],[16.579,45.3],[16.4,45.136],[16.287,45.3],[16.2,45.387],[16.0,45.408],[15.903,45.5],[15.902,45.7],[15.8,45.802],[15.75,45.9],[15.724,46.1],[15.8,46.21],[15.89,46.3],[15.897,46.5],[15.892,46.7],[15.915,46.9],[15.821,47.1],[15.8,47.121],[15.6,47.237],[15.517,47.1],[15.4,47.028],[15.247,47.1],[15.2,47.147],[15.153,47.1],[15.0,46.969],[14.817,47.1],[14.8,47.117],[14.675,47.3],[14.6,47.375],[14.525,47.3],[14.498,47.1],[14.4,46.957],[14.2,46.994],[14.0,47.024],[13.8,46.977],[13.723,46.9],[13.6,46.805],[13.546,46.9],[13.426,47.1],[13.6,47.247],[13.8,47.218],[13.882,47.3],[13.834,47.5],[14.0,47.554],[14.146,47.7],[14.153,47.9],[14.2,47.972],[14.237,47.9],[14.4,47.764],[14.6,47.842],[14.658,47.9],[14.6,47.958],[14.4,48.036],[14.292,48.1],[14.2,48.192],[14.058,48.3],[14.0,48.358],[13.8,48.356],[13.6,48.414],[13.455,48.5],[13.6,48.598],[13.702,48.7],[13.6,48.802],[13.4,48.803],[13.2,48.79],[13.0,48.804],[12.8,48.777],[12.6,48.752],[12.548,48.7],[12.528,48.5],[12.6,48.428],[12.8,48.405],[12.945,48.3],[12.8,48.209],[12.6,48.194],[12.4,48.184],[12.2,48.117],[12.183,48.1],[12.0,48.025],[11.8,48.028],[11.672,47.9],[11.6,47.809],[11.491,47.7],[11.6,47.591],[11.709,47.7],[11.8,47.772],[11.96,47.7],[12.0,47.66],[12.116,47.5],[12.0,47.4],[11.8,47.388],[11.6,47.36],[11.414,47.5],[11.4,47.514],[11.386,47.5],[11.2,47.357],[11.0,47.386],[10.914,47.3],[10.8,47.161],[10.623,47.3],[10.6,47.323],[10.577,47.3],[10.4,47.249],[10.2,47.159],[10.0,47.226],[9.8,47.233],[9.6,47.216],[9.484,47.1],[9.4,46.997],[9.2,47.013],[9.087,46.9],[9.0,46.809],[8.931,46.9],[8.8,47.031],[8.669,46.9],[8.6,46.857],[8.443,46.7],[8.6,46.543],[8.757,46.7],[8.8,46.769],[8.891,46.7],[9.0,46.591],[9.2,46.557],[9.4,46.607],[9.6,46.55],[9.8,46.611],[9.883,46.7],[10.0,46.795],[10.164,46.7],[10.177,46.5],[10.084,46.3],[10.2,46.184],[10.4,46.252],[10.448,46.3],[10.495,46.5],[10.4,46.595],[10.236,46.7],[10.258,46.9],[10.4,46.951],[10.572,46.9],[10.588,46.7],[10.6,46.688],[10.612,46.7],[10.628,46.9],[10.8,47.039],[11.0,46.979],[11.188,46.9],[11.098,46.7],[11.0,46.602],[10.898,46.5],[10.988,46.3],[10.8,46.262],[10.638,46.1],[10.8,45.938],[10.962,46.1],[11.0,46.288],[11.012,46.3],[11.2,46.483],[11.268,46.3],[11.284,46.1],[11.2,45.972],[11.128,45.9],[11.0,45.85],[10.8,45.774],[10.6,45.752],[10.548,45.7],[10.4,45.589],[10.2,45.598],[10.0,45.61],[9.89,45.5],[10.0,45.39],[10.2,45.402],[10.274,45.3],[10.4,45.174],[10.6,45.187],[10.686,45.1],[10.8,44.986],[10.85,44.9],[11.0,44.75],[11.06,44.7],[11.0,44.601],[10.899,44.5],[11.0,44.399],[11.142,44.3],[11.2,44.242],[11.308,44.1],[11.4,44.008],[11.48,43.9],[11.4,43.787],[11.313,43.7],[11.4,43.613],[11.6,43.558],[11.742,43.7],[11.72,43.9],[11.8,43.972],[11.863,43.9],[11.899,43.7],[12.0,43.599],[12.101,43.7],[12.2,43.807],[12.305,43.7],[12.2,43.583],[12.117,43.5],[12.0,43.387],[11.8,43.389],[11.711,43.3],[11.6,43.187],[11.513,43.1],[11.519,42.9],[11.6,42.819],[11.681,42.9],[11.8,43.068],[11.962,42.9],[12.0,42.862],[12.038,42.9],[12.2,43.036],[12.34,42.9],[12.34,42.7],[12.357,42.5],[12.4,42.457],[12.443,42.5],[12.6,42.688],[12.8,42.555],[12.853,42.5],[13.0,42.353],[13.108,42.3],[13.2,42.208],[13.356,42.1],[13.4,42.056],[13.553,41.9]]},"properties":{"probabilityThreshold":0.0715,"lengthKm":8267.8,"diagnosticOnly":true}},{"type":"Feature","geometry":{"type":"LineString","coordinates":[[14.87,42.3],[15.0,42.17],[15.13,42.3],[15.0,42.43],[14.921,42.5],[14.8,42.621],[14.679,42.5],[14.8,42.379],[14.87,42.3]]},"properties":{"probabilityThreshold":0.0715,"lengthKm":124.3,"diagnosticOnly":true}},{"type":"Feature","geometry":{"type":"LineString","coordinates":[[12.8,42.845],[12.739,42.9],[12.744,43.1],[12.703,43.3],[12.8,43.388],[12.914,43.3],[12.921,43.1],[12.846,42.9],[12.8,42.845]]},"properties":{"probabilityThreshold":0.0715,"lengthKm":130.5,"diagnosticOnly":true}},{"type":"Feature","geometry":{"type":"LineString","coordinates":[[14.6,43.077],[14.541,43.1],[14.502,43.3],[14.456,43.5],[14.4,43.556],[14.2,43.541],[14.131,43.7],[14.0,43.873],[13.921,43.9],[13.948,44.1],[14.0,44.145],[14.047,44.1],[14.2,43.978],[14.356,43.9],[14.4,43.856],[14.6,43.848],[14.729,43.7],[14.8,43.629],[14.892,43.5],[14.8,43.395],[14.705,43.3],[14.652,43.1],[14.6,43.077]]},"properties":{"probabilityThreshold":0.0715,"lengthKm":311.5,"diagnosticOnly":true}},{"type":"Feature","geometry":{"type":"LineString","coordinates":[[17.2,43.43],[17.16,43.5],[17.0,43.66],[16.8,43.693],[16.781,43.7],[16.6,43.81],[16.463,43.9],[16.4,43.963],[16.2,43.988],[16.0,44.046],[15.8,44.051],[15.681,44.1],[15.6,44.181],[15.4,44.214],[15.2,44.246],[15.0,44.253],[14.948,44.3],[14.892,44.5],[14.808,44.7],[14.8,44.708],[14.637,44.9],[14.705,45.1],[14.6,45.205],[14.485,45.3],[14.4,45.385],[14.264,45.5],[14.4,45.577],[14.509,45.5],[14.6,45.409],[14.8,45.407],[14.935,45.3],[15.0,45.235],[15.105,45.1],[15.2,45.005],[15.275,44.9],[15.302,44.7],[15.4,44.582],[15.6,44.571],[15.8,44.549],[15.858,44.5],[16.0,44.358],[16.169,44.3],[16.2,44.269],[16.4,44.158],[16.542,44.3],[16.6,44.359],[16.675,44.3],[16.777,44.1],[16.8,44.046],[16.823,44.1],[17.0,44.145],[17.117,44.1],[17.2,44.017],[17.4,43.99],[17.533,43.9],[17.4,43.811],[17.289,43.7],[17.4,43.589],[17.544,43.5],[17.4,43.443],[17.2,43.43]]},"properties":{"probabilityThreshold":0.0715,"lengthKm":853.9,"diagnosticOnly":true}},{"type":"Feature","geometry":{"type":"LineString","coordinates":[[6.903,43.7],[7.0,43.603],[7.2,43.513],[7.4,43.609],[7.6,43.66],[7.8,43.665],[7.835,43.7],[8.0,43.806],[8.2,43.835],[8.4,43.795],[8.505,43.9],[8.514,44.1],[8.6,44.173],[8.8,44.208],[9.0,44.247],[9.053,44.3],[9.11,44.5],[9.064,44.7],[9.2,44.857],[9.243,44.9],[9.2,44.943],[9.118,45.1],[9.0,45.218],[8.8,45.221],[8.679,45.1],[8.6,44.924],[8.576,44.9],[8.559,44.7],[8.4,44.521],[8.2,44.601],[8.0,44.538],[7.8,44.553],[7.747,44.5],[7.6,44.447],[7.438,44.5],[7.537,44.7],[7.4,44.837],[7.263,44.7],[7.362,44.5],[7.4,44.462],[7.453,44.3],[7.6,44.132],[7.633,44.1],[7.6,44.065],[7.4,43.912],[7.2,44.047],[7.053,43.9],[7.0,43.797],[6.903,43.7]]},"properties":{"probabilityThreshold":0.0715,"lengthKm":755.6,"diagnosticOnly":true}},{"type":"Feature","geometry":{"type":"LineString","coordinates":[[18.0,44.771],[17.85,44.9],[18.0,45.046],[18.054,45.1],[18.2,45.188],[18.4,45.279],[18.49,45.1],[18.4,44.973],[18.327,44.9],[18.2,44.796],[18.0,44.771]]},"properties":{"probabilityThreshold":0.0715,"lengthKm":157.6,"diagnosticOnly":true}},{"type":"Feature","geometry":{"type":"LineString","coordinates":[[6.29,45.3],[6.4,45.19],[6.51,45.3],[6.6,45.398],[6.702,45.5],[6.6,45.602],[6.504,45.7],[6.467,45.9],[6.4,45.967],[6.333,45.9],[6.2,45.843],[6.057,45.7],[6.125,45.5],[6.2,45.425],[6.275,45.5],[6.4,45.596],[6.498,45.5],[6.4,45.41],[6.29,45.3]]},"properties":{"probabilityThreshold":0.0715,"lengthKm":253.0,"diagnosticOnly":true}},{"type":"Feature","geometry":{"type":"LineString","coordinates":[[17.16,45.3],[17.2,45.1],[17.4,45.217],[17.577,45.3],[17.6,45.321],[17.688,45.5],[17.6,45.588],[17.421,45.7],[17.4,45.721],[17.379,45.7],[17.2,45.548],[17.152,45.5],[17.16,45.3]]},"properties":{"probabilityThreshold":0.0715,"lengthKm":169.8,"diagnosticOnly":true}},{"type":"Feature","geometry":{"type":"LineString","coordinates":[[7.883,45.9],[8.0,45.783],[8.2,45.892],[8.208,45.9],[8.297,46.1],[8.2,46.197],[8.0,46.122],[7.978,46.1],[7.883,45.9]]},"properties":{"probabilityThreshold":0.0715,"lengthKm":116.7,"diagnosticOnly":true}},{"type":"Feature","geometry":{"type":"LineString","coordinates":[[7.036,46.1],[7.2,45.936],[7.364,46.1],[7.4,46.175],[7.525,46.3],[7.4,46.425],[7.275,46.3],[7.2,46.264],[7.036,46.1]]},"properties":{"probabilityThreshold":0.0715,"lengthKm":132.7,"diagnosticOnly":true}},{"type":"Feature","geometry":{"type":"LineString","coordinates":[[11.6,46.153],[11.532,46.3],[11.6,46.367],[11.8,46.415],[12.0,46.403],[12.138,46.3],[12.0,46.217],[11.8,46.229],[11.6,46.153]]},"properties":{"probabilityThreshold":0.0715,"lengthKm":120.5,"diagnosticOnly":true}},{"type":"Feature","geometry":{"type":"LineString","coordinates":[[12.6,46.829],[12.458,46.9],[12.4,46.958],[12.256,47.1],[12.4,47.193],[12.509,47.1],[12.6,47.009],[12.703,46.9],[12.6,46.829]]},"properties":{"probabilityThreshold":0.0715,"lengthKm":106.2,"diagnosticOnly":true}},{"type":"Feature","geometry":{"type":"LineString","coordinates":[[20.8,47.473],[20.761,47.5],[20.8,47.518],[20.958,47.7],[21.0,47.736],[21.173,47.9],[21.2,48.04],[21.245,47.9],[21.2,47.7],[21.2,47.7],[21.014,47.5],[21.0,47.302],[20.8,47.473]]},"properties":{"probabilityThreshold":0.0715,"lengthKm":184.5,"diagnosticOnly":true}},{"type":"Feature","geometry":{"type":"LineString","coordinates":[[10.733,48.5],[10.8,48.433],[11.0,48.49],[11.2,48.429],[11.4,48.479],[11.421,48.5],[11.4,48.521],[11.2,48.571],[11.0,48.51],[10.8,48.567],[10.733,48.5]]},"properties":{"probabilityThreshold":0.0715,"lengthKm":119.4,"diagnosticOnly":true}}],"properties":{"forecastHour":30,"method":"xgboost-dwd-era5-icon2i-v1","threshold":0.07145121517771291,"temporalConfirmation":"2-of-3 adjacent hours","diagnosticOnly":true}}