{"type":"FeatureCollection","features":[{"type":"Feature","geometry":{"type":"LineString","coordinates":[[9.2,34.9],[9.2,34.9],[9.2,34.9],[9.4,35.035],[9.6,35.02],[9.8,35.062],[9.838,35.1],[10.0,35.207],[10.149,35.1],[10.2,35.049],[10.4,35.061],[10.439,35.1],[10.433,35.3],[10.6,35.44],[10.66,35.5],[10.604,35.7],[10.6,35.704],[10.4,35.766],[10.2,35.753],[10.037,35.9],[10.0,35.937],[9.911,35.9],[9.8,35.774],[9.6,35.781],[9.508,35.9],[9.4,35.984],[9.2,35.93],[9.0,35.983],[8.8,35.954],[8.746,35.9],[8.6,35.754],[8.4,35.797],[8.2,35.825],[8.0,35.84],[7.8,35.819],[7.6,35.819],[7.477,35.9],[7.4,35.977],[7.2,35.966],[7.0,35.927],[6.819,36.1],[6.8,36.119],[6.781,36.1],[6.727,35.9],[6.8,35.827],[7.0,35.873],[7.2,35.834],[7.275,35.7],[7.2,35.625],[7.0,35.57],[6.8,35.62],[6.691,35.7],[6.6,35.791],[6.509,35.7],[6.4,35.579],[6.321,35.5],[6.4,35.421],[6.6,35.435],[6.8,35.3],[6.8,35.3],[6.8,35.3],[7.0,35.43],[7.164,35.3],[7.2,35.264],[7.236,35.3],[7.4,35.383],[7.517,35.5],[7.6,35.581],[7.659,35.5],[7.8,35.359],[7.941,35.5],[8.0,35.612],[8.2,35.62],[8.4,35.603],[8.501,35.5],[8.6,35.401],[8.699,35.5],[8.8,35.649],[8.851,35.7],[9.0,35.817],[9.2,35.87],[9.4,35.784],[9.512,35.7],[9.6,35.641],[9.722,35.5],[9.6,35.4],[9.4,35.393],[9.307,35.3],[9.2,35.19],[9.11,35.1],[9.2,34.9]]},"properties":{"probabilityThreshold":0.0715,"lengthKm":1342.6,"diagnosticOnly":true}},{"type":"Feature","geometry":{"type":"LineString","coordinates":[[13.988,35.7],[14.0,35.688],[14.012,35.7],[14.084,35.9],[14.0,35.984],[13.832,36.1],[13.8,36.132],[13.768,36.1],[13.715,35.9],[13.8,35.815],[13.988,35.7]]},"properties":{"probabilityThreshold":0.0715,"lengthKm":123.3,"diagnosticOnly":true}},{"type":"Feature","geometry":{"type":"LineString","coordinates":[[13.901,39.5],[14.0,39.401],[14.2,39.363],[14.337,39.5],[14.2,39.637],[14.004,39.7],[14.2,39.848],[14.252,39.9],[14.2,39.952],[14.0,39.944],[13.956,39.9],[13.996,39.7],[13.901,39.5]]},"properties":{"probabilityThreshold":0.0715,"lengthKm":195.1,"diagnosticOnly":true}},{"type":"Feature","geometry":{"type":"LineString","coordinates":[[21.735,39.9],[21.8,39.835],[21.865,39.9],[21.924,40.1],[21.921,40.3],[21.954,40.5],[21.931,40.7],[21.867,40.9],[21.94,41.1],[21.958,41.3],[21.96,41.5],[21.958,41.7],[21.972,41.9],[21.962,42.1],[21.964,42.3],[21.957,42.5],[21.918,42.7],[21.918,42.9],[21.8,43.018],[21.6,42.991],[21.495,43.1],[21.4,43.195],[21.236,43.3],[21.2,43.336],[21.0,43.309],[20.8,43.346],[20.685,43.3],[20.6,43.29],[20.4,43.25],[20.2,43.157],[20.126,43.3],[20.0,43.426],[19.874,43.3],[19.8,43.253],[19.6,43.281],[19.4,43.118],[19.382,43.1],[19.4,43.082],[19.6,43.033],[19.661,42.9],[19.766,42.7],[19.745,42.5],[19.8,42.445],[19.887,42.5],[19.834,42.7],[20.0,42.773],[20.2,42.759],[20.311,42.7],[20.257,42.5],[20.2,42.405],[20.102,42.3],[20.2,42.249],[20.277,42.3],[20.4,42.382],[20.453,42.3],[20.559,42.1],[20.6,42.071],[20.665,41.9],[20.6,41.832],[20.4,41.829],[20.313,41.7],[20.2,41.526],[20.174,41.5],[20.133,41.3],[20.0,41.257],[19.964,41.3],[19.8,41.464],[19.6,41.405],[19.495,41.3],[19.4,41.242],[19.258,41.1],[19.367,40.9],[19.4,40.867],[19.505,40.7],[19.6,40.605],[19.776,40.5],[19.8,40.476],[20.0,40.422],[20.118,40.3],[20.2,40.218],[20.282,40.3],[20.274,40.5],[20.317,40.7],[20.4,40.761],[20.468,40.7],[20.6,40.568],[20.8,40.56],[20.953,40.5],[21.0,40.453],[21.2,40.439],[21.261,40.5],[21.4,40.604],[21.498,40.5],[21.6,40.398],[21.679,40.3],[21.676,40.1],[21.735,39.9]]},"properties":{"probabilityThreshold":0.0715,"lengthKm":1511.1,"diagnosticOnly":true}},{"type":"Feature","geometry":{"type":"LineString","coordinates":[[15.588,40.3],[15.6,40.288],[15.8,40.218],[15.882,40.3],[15.877,40.5],[15.8,40.577],[15.6,40.548],[15.4,40.577],[15.323,40.5],[15.4,40.423],[15.588,40.3]]},"properties":{"probabilityThreshold":0.0715,"lengthKm":141.4,"diagnosticOnly":true}},{"type":"Feature","geometry":{"type":"LineString","coordinates":[[16.1,40.7],[16.2,40.6],[16.4,40.67],[16.43,40.7],[16.4,40.73],[16.294,40.9],[16.4,41.012],[16.6,41.063],[16.637,41.1],[16.6,41.137],[16.434,41.3],[16.4,41.334],[16.2,41.36],[16.0,41.415],[15.885,41.3],[15.934,41.1],[15.889,40.9],[16.0,40.789],[16.1,40.7]]},"properties":{"probabilityThreshold":0.0715,"lengthKm":256.6,"diagnosticOnly":true}},{"type":"Feature","geometry":{"type":"LineString","coordinates":[[14.754,40.9],[14.8,40.854],[15.0,40.895],[15.005,40.9],[15.2,40.979],[15.4,41.055],[15.445,41.1],[15.492,41.3],[15.4,41.392],[15.308,41.3],[15.2,41.221],[15.0,41.142],[14.882,41.1],[14.8,41.023],[14.754,40.9]]},"properties":{"probabilityThreshold":0.0715,"lengthKm":183.4,"diagnosticOnly":true}},{"type":"Feature","geometry":{"type":"LineString","coordinates":[[12.913,41.1],[13.0,41.013],[13.2,41.081],[13.251,41.1],[13.4,41.153],[13.6,41.205],[13.8,41.224],[14.0,41.243],[14.111,41.1],[14.2,41.011],[14.4,41.069],[14.431,41.1],[14.4,41.131],[14.316,41.3],[14.4,41.375],[14.6,41.426],[14.8,41.36],[15.0,41.373],[15.2,41.481],[15.219,41.5],[15.26,41.7],[15.4,41.829],[15.6,41.878],[15.622,41.9],[15.6,41.922],[15.429,42.1],[15.6,42.264],[15.636,42.3],[15.8,42.414],[16.0,42.336],[16.02,42.3],[16.2,42.215],[16.4,42.208],[16.492,42.3],[16.4,42.392],[16.213,42.5],[16.4,42.551],[16.506,42.5],[16.6,42.406],[16.8,42.395],[16.955,42.3],[16.984,42.1],[17.0,42.084],[17.2,42.046],[17.339,41.9],[17.4,41.826],[17.461,41.9],[17.6,42.066],[17.703,41.9],[17.8,41.803],[18.0,41.747],[18.154,41.7],[18.2,41.654],[18.252,41.5],[18.4,41.352],[18.6,41.353],[18.74,41.3],[18.8,41.24],[18.961,41.3],[19.0,41.317],[19.2,41.412],[19.288,41.5],[19.4,41.573],[19.6,41.642],[19.658,41.7],[19.708,41.9],[19.728,42.1],[19.674,42.3],[19.6,42.374],[19.474,42.5],[19.4,42.574],[19.326,42.5],[19.2,42.327],[19.0,42.346],[18.954,42.3],[19.0,42.254],[19.062,42.1],[19.0,42.024],[18.853,42.1],[18.8,42.153],[18.618,42.3],[18.6,42.318],[18.4,42.399],[18.306,42.5],[18.231,42.7],[18.2,42.731],[18.169,42.7],[18.0,42.62],[17.8,42.627],[17.6,42.56],[17.54,42.5],[17.4,42.445],[17.346,42.5],[17.2,42.646],[17.151,42.7],[17.127,42.9],[17.132,43.1],[17.0,43.232],[16.897,43.3],[16.888,43.5],[16.8,43.666],[16.667,43.5],[16.6,43.445],[16.4,43.393],[16.291,43.5],[16.2,43.591],[16.014,43.7],[16.0,43.714],[15.986,43.7],[15.8,43.579],[15.721,43.5],[15.757,43.3],[15.688,43.1],[15.6,43.003],[15.497,42.9],[15.4,42.833],[15.332,42.9],[15.4,43.086],[15.414,43.1],[15.4,43.114],[15.294,43.3],[15.4,43.383],[15.517,43.5],[15.6,43.673],[15.627,43.7],[15.8,43.815],[15.885,43.9],[15.8,43.985],[15.6,43.936],[15.564,43.9],[15.4,43.723],[15.23,43.9],[15.2,43.93],[15.002,44.1],[15.0,44.102],[14.998,44.1],[14.8,43.952],[14.748,43.9],[14.6,43.773],[14.527,43.7],[14.4,43.565],[14.2,43.59],[14.023,43.7],[14.0,43.723],[13.977,43.7],[13.8,43.584],[13.665,43.7],[13.6,43.765],[13.4,43.741],[13.2,43.748],[13.152,43.7],[13.0,43.51],[12.8,43.624],[12.635,43.7],[12.649,43.9],[12.6,43.949],[12.514,44.1],[12.4,44.214],[12.286,44.1],[12.367,43.9],[12.2,43.839],[12.171,43.9],[12.0,43.992],[11.874,44.1],[11.8,44.174],[11.6,44.275],[11.495,44.3],[11.4,44.319],[11.2,44.385],[11.106,44.5],[11.2,44.622],[11.4,44.699],[11.57,44.5],[11.6,44.381],[11.63,44.5],[11.651,44.7],[11.685,44.9],[11.8,45.097],[11.803,45.1],[11.8,45.103],[11.621,45.3],[11.694,45.5],[11.8,45.626],[11.942,45.5],[12.0,45.442],[12.139,45.5],[12.197,45.7],[12.2,45.703],[12.201,45.7],[12.23,45.5],[12.373,45.3],[12.4,45.273],[12.427,45.3],[12.6,45.39],[12.71,45.5],[12.8,45.655],[13.0,45.501],[13.2,45.568],[13.287,45.7],[13.4,45.802],[13.498,45.9],[13.516,46.1],[13.454,46.3],[13.4,46.354],[13.346,46.3],[13.2,46.229],[13.082,46.3],[13.0,46.382],[12.9,46.5],[12.8,46.6],[12.6,46.544],[12.556,46.5],[12.4,46.449],[12.2,46.428],[12.0,46.448],[11.852,46.3],[11.8,46.144],[11.6,46.174],[11.4,46.2],[11.2,46.175],[11.0,46.134],[10.8,46.261],[10.639,46.1],[10.6,46.006],[10.422,46.1],[10.4,46.122],[10.378,46.1],[10.2,45.998],[10.0,45.921],[9.856,46.1],[9.8,46.156],[9.6,46.161],[9.539,46.1],[9.4,45.995],[9.2,45.99],[9.0,46.023],[8.877,45.9],[9.0,45.777],[9.072,45.7],[9.2,45.572],[9.282,45.5],[9.4,45.382],[9.6,45.42],[9.731,45.3],[9.795,45.1],[9.8,45.095],[10.0,45.025],[10.146,44.9],[10.2,44.846],[10.353,44.7],[10.4,44.557],[10.441,44.5],[10.4,44.457],[10.339,44.3],[10.4,44.239],[10.487,44.3],[10.6,44.41],[10.685,44.3],[10.8,44.213],[10.891,44.1],[11.0,43.991],[11.2,43.972],[11.4,43.942],[11.6,44.009],[11.778,43.9],[11.8,43.878],[12.0,43.808],[12.15,43.7],[12.2,43.65],[12.345,43.5],[12.4,43.445],[12.6,43.392],[12.665,43.3],[12.8,43.165],[12.887,43.1],[12.901,42.9],[12.955,42.7],[13.0,42.655],[13.2,42.553],[13.272,42.5],[13.316,42.3],[13.4,42.216],[13.484,42.3],[13.6,42.364],[13.668,42.3],[13.695,42.1],[13.6,41.933],[13.567,41.9],[13.6,41.867],[13.8,41.875],[13.825,41.9],[14.0,41.95],[14.074,41.9],[14.2,41.731],[14.222,41.7],[14.275,41.5],[14.2,41.416],[14.072,41.5],[14.0,41.572],[13.928,41.5],[13.8,41.319],[13.641,41.5],[13.6,41.541],[13.559,41.5],[13.4,41.392],[13.212,41.5],[13.2,41.512],[13.004,41.7],[13.0,41.704],[12.842,41.9],[12.8,41.942],[12.621,42.1],[12.6,42.121],[12.579,42.1],[12.4,41.968],[12.332,41.9],[12.4,41.7],[12.4,41.7],[12.6,41.582],[12.742,41.5],[12.748,41.3],[12.8,41.248],[12.913,41.1]]},"properties":{"probabilityThreshold":0.0715,"lengthKm":4570.9,"diagnosticOnly":true}},{"type":"Feature","geometry":{"type":"LineString","coordinates":[[15.0,41.627],[14.938,41.7],[14.923,41.9],[15.0,42.029],[15.093,41.9],[15.14,41.7],[15.0,41.627]]},"properties":{"probabilityThreshold":0.0715,"lengthKm":100.2,"diagnosticOnly":true}},{"type":"Feature","geometry":{"type":"LineString","coordinates":[[15.2,42.144],[15.062,42.3],[15.0,42.362],[14.91,42.5],[15.0,42.572],[15.187,42.5],[15.2,42.487],[15.381,42.3],[15.2,42.144]]},"properties":{"probabilityThreshold":0.0715,"lengthKm":124.3,"diagnosticOnly":true}},{"type":"Feature","geometry":{"type":"LineString","coordinates":[[11.994,42.7],[12.0,42.694],[12.006,42.7],[12.2,42.859],[12.4,42.855],[12.6,42.899],[12.601,42.9],[12.6,42.901],[12.4,42.945],[12.2,42.941],[12.004,43.1],[12.0,43.104],[11.8,43.138],[11.762,43.1],[11.6,42.969],[11.531,42.9],[11.6,42.831],[11.8,42.875],[11.994,42.7]]},"properties":{"probabilityThreshold":0.0715,"lengthKm":219.0,"diagnosticOnly":true}},{"type":"Feature","geometry":{"type":"LineString","coordinates":[[21.2,42.76],[21.06,42.9],[21.0,43.026],[20.982,43.1],[21.0,43.268],[21.194,43.1],[21.2,43.098],[21.333,42.9],[21.2,42.76]]},"properties":{"probabilityThreshold":0.0715,"lengthKm":129.3,"diagnosticOnly":true}},{"type":"Feature","geometry":{"type":"LineString","coordinates":[[17.316,43.9],[17.4,43.816],[17.6,43.752],[17.748,43.9],[17.8,43.965],[17.87,43.9],[18.0,43.77],[18.2,43.763],[18.337,43.9],[18.4,43.976],[18.582,43.9],[18.6,43.882],[18.618,43.9],[18.8,44.055],[18.845,44.1],[18.8,44.145],[18.6,44.189],[18.433,44.3],[18.4,44.333],[18.2,44.399],[18.029,44.5],[18.0,44.529],[17.8,44.6],[17.6,44.614],[17.4,44.618],[17.268,44.7],[17.2,44.768],[17.0,44.74],[16.8,44.805],[16.695,44.7],[16.6,44.521],[16.579,44.5],[16.6,44.479],[16.688,44.3],[16.717,44.1],[16.8,44.017],[17.0,44.066],[17.2,43.947],[17.316,43.9]]},"properties":{"probabilityThreshold":0.0715,"lengthKm":514.0,"diagnosticOnly":true}},{"type":"Feature","geometry":{"type":"LineString","coordinates":[[12.353,44.5],[12.4,44.453],[12.447,44.5],[12.455,44.7],[12.498,44.9],[12.4,44.998],[12.302,44.9],[12.345,44.7],[12.353,44.5]]},"properties":{"probabilityThreshold":0.0715,"lengthKm":128.5,"diagnosticOnly":true}},{"type":"Feature","geometry":{"type":"LineString","coordinates":[[15.736,45.9],[15.8,45.836],[16.0,45.837],[16.2,45.844],[16.256,45.9],[16.4,46.098],[16.402,46.1],[16.4,46.102],[16.204,46.3],[16.2,46.304],[16.196,46.3],[16.086,46.1],[16.0,45.963],[15.865,46.1],[15.8,46.165],[15.749,46.3],[15.8,46.386],[15.914,46.5],[15.8,46.614],[15.66,46.7],[15.6,46.76],[15.54,46.7],[15.4,46.663],[15.247,46.7],[15.2,46.747],[15.153,46.7],[15.037,46.5],[15.0,46.395],[14.905,46.3],[15.0,46.205],[15.034,46.1],[15.2,45.934],[15.4,45.934],[15.6,45.939],[15.736,45.9]]},"properties":{"probabilityThreshold":0.0715,"lengthKm":428.4,"diagnosticOnly":true}}],"properties":{"forecastHour":69,"method":"xgboost-dwd-era5-icon2i-v1","threshold":0.07145121517771291,"temporalConfirmation":"2-of-3 adjacent hours","diagnosticOnly":true}}