{"type":"FeatureCollection","features":[{"type":"Feature","geometry":{"type":"LineString","coordinates":[[21.748,36.7],[21.8,36.648],[21.852,36.7],[21.903,36.9],[21.81,37.1],[21.845,37.3],[21.8,37.345],[21.755,37.3],[21.79,37.1],[21.697,36.9],[21.748,36.7]]},"properties":{"probabilityThreshold":0.0715,"lengthKm":164.7,"diagnosticOnly":true}},{"type":"Feature","geometry":{"type":"LineString","coordinates":[[15.765,40.7],[15.8,40.665],[15.835,40.7],[16.0,40.818],[16.082,40.9],[16.018,41.1],[16.0,41.118],[15.982,41.1],[15.8,40.92],[15.78,40.9],[15.765,40.7]]},"properties":{"probabilityThreshold":0.0715,"lengthKm":118.1,"diagnosticOnly":true}},{"type":"Feature","geometry":{"type":"LineString","coordinates":[[17.101,40.9],[17.2,40.801],[17.299,40.9],[17.319,41.1],[17.4,41.212],[17.488,41.3],[17.4,41.388],[17.218,41.3],[17.2,41.29],[17.168,41.3],[17.0,41.359],[16.941,41.3],[16.966,41.1],[17.0,41.066],[17.101,40.9]]},"properties":{"probabilityThreshold":0.0715,"lengthKm":182.0,"diagnosticOnly":true}},{"type":"Feature","geometry":{"type":"LineString","coordinates":[[13.723,41.5],[13.8,41.423],[14.0,41.47],[14.03,41.5],[14.2,41.592],[14.308,41.7],[14.4,41.815],[14.588,41.7],[14.6,41.681],[14.689,41.5],[14.8,41.416],[14.884,41.5],[14.881,41.7],[15.0,41.82],[15.08,41.9],[15.0,42.02],[14.839,42.1],[15.0,42.235],[15.035,42.3],[15.0,42.335],[14.899,42.5],[14.941,42.7],[14.85,42.9],[15.0,43.053],[15.047,43.1],[15.2,43.228],[15.4,43.211],[15.516,43.1],[15.6,43.016],[15.687,42.9],[15.8,42.787],[16.0,42.881],[16.019,42.9],[16.2,43.027],[16.289,42.9],[16.4,42.735],[16.445,42.7],[16.6,42.604],[16.753,42.7],[16.8,42.726],[16.919,42.7],[17.0,42.637],[17.033,42.7],[17.2,42.754],[17.305,42.7],[17.27,42.5],[17.4,42.37],[17.53,42.5],[17.6,42.556],[17.728,42.5],[17.8,42.428],[18.0,42.345],[18.149,42.3],[18.2,42.249],[18.251,42.3],[18.4,42.369],[18.6,42.309],[18.8,42.36],[19.0,42.35],[19.168,42.5],[19.2,42.534],[19.4,42.548],[19.6,42.648],[19.8,42.569],[19.931,42.7],[20.0,42.761],[20.181,42.7],[20.187,42.5],[20.2,42.493],[20.207,42.5],[20.219,42.7],[20.4,42.822],[20.593,42.7],[20.6,42.693],[20.607,42.7],[20.8,42.881],[20.819,42.9],[21.0,42.997],[21.2,43.021],[21.279,43.1],[21.4,43.229],[21.471,43.3],[21.531,43.5],[21.511,43.7],[21.466,43.9],[21.6,44.099],[21.663,43.9],[21.704,43.7],[21.746,43.5],[21.732,43.3],[21.712,43.1],[21.721,42.9],[21.741,42.7],[21.71,42.5],[21.71,42.3],[21.8,42.21],[21.89,42.3],[21.89,42.5],[21.859,42.7],[21.879,42.9],[21.888,43.1],[21.868,43.3],[21.854,43.5],[21.896,43.7],[21.937,43.9],[21.945,44.1],[21.877,44.3],[21.909,44.5],[21.885,44.7],[21.855,44.9],[21.837,45.1],[21.83,45.3],[21.8,45.452],[21.753,45.3],[21.763,45.1],[21.745,44.9],[21.6,44.776],[21.423,44.9],[21.4,44.961],[21.365,45.1],[21.335,45.3],[21.4,45.437],[21.431,45.5],[21.4,45.531],[21.2,45.534],[21.166,45.5],[21.0,45.326],[20.885,45.5],[20.8,45.585],[20.715,45.5],[20.6,45.401],[20.52,45.5],[20.4,45.62],[20.21,45.7],[20.2,45.71],[20.073,45.9],[20.2,46.013],[20.371,46.1],[20.4,46.125],[20.6,46.213],[20.654,46.1],[20.8,46.025],[20.875,46.1],[21.0,46.241],[21.2,46.203],[21.297,46.3],[21.4,46.48],[21.42,46.5],[21.6,46.656],[21.7,46.5],[21.701,46.3],[21.695,46.1],[21.8,45.954],[21.905,46.1],[21.899,46.3],[21.9,46.5],[21.933,46.7],[21.935,46.9],[21.924,47.1],[21.906,47.3],[21.874,47.5],[21.878,47.7],[21.837,47.9],[21.814,48.1],[21.926,48.3],[21.916,48.5],[21.924,48.7],[21.8,48.824],[21.6,48.794],[21.407,48.7],[21.4,48.691],[21.395,48.7],[21.2,48.81],[21.0,48.841],[20.8,48.8],[20.6,48.841],[20.4,48.849],[20.2,48.861],[20.0,48.871],[19.8,48.875],[19.6,48.872],[19.4,48.849],[19.251,48.7],[19.4,48.551],[19.431,48.5],[19.479,48.3],[19.6,48.179],[19.649,48.1],[19.754,47.9],[19.642,47.7],[19.658,47.5],[19.719,47.3],[19.8,47.219],[20.0,47.268],[20.105,47.1],[20.0,46.945],[19.955,46.9],[19.8,46.757],[19.647,46.9],[19.6,46.947],[19.553,46.9],[19.557,46.7],[19.537,46.5],[19.553,46.3],[19.4,46.101],[19.399,46.1],[19.392,45.9],[19.325,45.7],[19.2,45.557],[19.143,45.5],[19.0,45.32],[18.98,45.3],[18.8,45.133],[18.767,45.1],[18.8,45.067],[19.0,45.064],[19.132,44.9],[19.0,44.791],[18.8,44.732],[18.768,44.7],[18.6,44.539],[18.4,44.549],[18.351,44.5],[18.2,44.415],[18.007,44.5],[18.0,44.507],[17.8,44.508],[17.6,44.526],[17.4,44.6],[17.2,44.615],[17.042,44.7],[17.0,44.742],[16.958,44.7],[16.8,44.649],[16.675,44.7],[16.793,44.9],[16.6,44.971],[16.455,44.9],[16.4,44.8],[16.317,44.9],[16.296,45.1],[16.235,45.3],[16.2,45.335],[16.0,45.359],[15.911,45.5],[15.831,45.7],[15.8,45.731],[15.639,45.9],[15.615,46.1],[15.654,46.3],[15.7,46.5],[15.791,46.7],[15.8,46.767],[15.823,46.9],[15.8,46.928],[15.752,46.9],[15.6,46.855],[15.481,46.9],[15.4,46.944],[15.221,47.1],[15.2,47.121],[15.0,47.199],[14.8,47.222],[14.637,47.3],[14.6,47.337],[14.563,47.3],[14.4,47.187],[14.2,47.161],[14.0,47.14],[13.96,47.1],[13.8,47.03],[13.6,46.959],[13.4,47.05],[13.2,47.066],[13.0,46.92],[12.8,47.021],[12.687,46.9],[12.6,46.809],[12.4,46.796],[12.322,46.9],[12.2,47.073],[12.105,47.1],[12.2,47.15],[12.365,47.3],[12.2,47.384],[12.0,47.302],[11.996,47.3],[11.958,47.1],[11.8,47.03],[11.692,47.1],[11.6,47.269],[11.561,47.3],[11.423,47.5],[11.4,47.523],[11.377,47.5],[11.321,47.3],[11.2,47.214],[11.0,47.135],[10.965,47.1],[11.0,47.065],[11.184,46.9],[11.2,46.861],[11.216,46.9],[11.4,47.014],[11.473,46.9],[11.4,46.781],[11.269,46.7],[11.2,46.662],[11.0,46.599],[10.8,46.562],[10.738,46.5],[10.8,46.438],[10.984,46.3],[10.8,46.221],[10.679,46.1],[10.6,45.942],[10.558,45.9],[10.4,45.781],[10.319,45.7],[10.2,45.636],[10.0,45.629],[9.921,45.7],[9.8,45.821],[9.6,45.736],[9.564,45.7],[9.6,45.664],[9.8,45.579],[9.871,45.5],[10.0,45.371],[10.2,45.364],[10.274,45.3],[10.4,45.174],[10.6,45.173],[10.685,45.1],[10.8,44.985],[11.0,44.974],[11.2,44.976],[11.267,44.9],[11.2,44.701],[11.199,44.7],[11.2,44.699],[11.4,44.566],[11.503,44.5],[11.527,44.3],[11.6,44.201],[11.739,44.1],[11.8,44.026],[11.877,43.9],[11.86,43.7],[12.0,43.575],[12.15,43.5],[12.2,43.45],[12.331,43.3],[12.337,43.1],[12.368,42.9],[12.4,42.868],[12.533,42.7],[12.6,42.633],[12.8,42.678],[12.957,42.5],[13.0,42.457],[13.125,42.3],[13.2,42.141],[13.244,42.1],[13.4,41.937],[13.419,41.9],[13.6,41.792],[13.662,41.7],[13.723,41.5]]},"properties":{"probabilityThreshold":0.0715,"lengthKm":5622.6,"diagnosticOnly":true}},{"type":"Feature","geometry":{"type":"LineString","coordinates":[[15.55,41.7],[15.6,41.542],[15.65,41.7],[15.601,41.9],[15.6,41.901],[15.4,41.938],[15.362,41.9],[15.4,41.862],[15.55,41.7]]},"properties":{"probabilityThreshold":0.0715,"lengthKm":107.9,"diagnosticOnly":true}},{"type":"Feature","geometry":{"type":"LineString","coordinates":[[16.501,41.9],[16.6,41.801],[16.8,41.774],[16.926,41.9],[16.8,42.026],[16.72,42.1],[16.6,42.22],[16.522,42.3],[16.4,42.422],[16.278,42.3],[16.4,42.178],[16.48,42.1],[16.501,41.9]]},"properties":{"probabilityThreshold":0.0715,"lengthKm":186.7,"diagnosticOnly":true}},{"type":"Feature","geometry":{"type":"LineString","coordinates":[[12.8,42.852],[12.792,42.9],[12.686,43.1],[12.6,43.186],[12.469,43.3],[12.485,43.5],[12.6,43.697],[12.77,43.5],[12.8,43.421],[12.879,43.5],[13.0,43.653],[13.08,43.5],[13.2,43.442],[13.348,43.3],[13.2,43.144],[13.035,43.3],[13.0,43.388],[12.912,43.3],[12.918,43.1],[12.863,42.9],[12.8,42.852]]},"properties":{"probabilityThreshold":0.0715,"lengthKm":334.9,"diagnosticOnly":true}},{"type":"Feature","geometry":{"type":"LineString","coordinates":[[20.0,43.039],[19.824,43.1],[20.0,43.258],[20.042,43.3],[20.2,43.373],[20.291,43.3],[20.2,43.211],[20.089,43.1],[20.0,43.039]]},"properties":{"probabilityThreshold":0.0715,"lengthKm":107.6,"diagnosticOnly":true}},{"type":"Feature","geometry":{"type":"LineString","coordinates":[[17.2,43.47],[17.135,43.5],[17.0,43.599],[16.8,43.617],[16.6,43.675],[16.563,43.7],[16.527,43.9],[16.4,44.027],[16.2,43.92],[16.0,44.006],[15.8,43.933],[15.625,44.1],[15.6,44.125],[15.4,44.208],[15.2,44.247],[15.0,44.244],[14.929,44.3],[14.8,44.429],[14.726,44.5],[14.6,44.666],[14.474,44.5],[14.4,44.385],[14.209,44.5],[14.211,44.7],[14.2,44.711],[14.143,44.7],[14.0,44.644],[13.901,44.7],[14.0,44.731],[14.088,44.9],[14.2,45.083],[14.4,45.096],[14.404,45.1],[14.4,45.104],[14.254,45.3],[14.2,45.408],[14.0,45.466],[13.957,45.5],[14.0,45.602],[14.199,45.7],[14.2,45.7],[14.2,45.7],[14.4,45.582],[14.523,45.5],[14.6,45.423],[14.795,45.5],[14.8,45.506],[14.808,45.5],[15.0,45.446],[15.081,45.3],[15.096,45.1],[15.2,44.996],[15.256,44.9],[15.309,44.7],[15.4,44.609],[15.6,44.605],[15.8,44.55],[15.961,44.5],[16.0,44.461],[16.176,44.3],[16.2,44.276],[16.224,44.3],[16.4,44.347],[16.6,44.369],[16.643,44.3],[16.703,44.1],[16.665,43.9],[16.8,43.765],[16.935,43.9],[16.897,44.1],[17.0,44.137],[17.079,44.1],[17.2,43.979],[17.4,43.942],[17.467,43.9],[17.406,43.7],[17.426,43.5],[17.4,43.483],[17.2,43.47]]},"properties":{"probabilityThreshold":0.0715,"lengthKm":1077.2,"diagnosticOnly":true}},{"type":"Feature","geometry":{"type":"LineString","coordinates":[[6.951,43.7],[7.0,43.651],[7.2,43.557],[7.4,43.569],[7.6,43.595],[7.8,43.684],[7.816,43.7],[8.0,43.773],[8.2,43.791],[8.4,43.802],[8.498,43.9],[8.6,43.998],[8.702,44.1],[8.8,44.212],[9.0,44.259],[9.041,44.3],[9.009,44.5],[9.077,44.7],[9.2,44.815],[9.285,44.9],[9.2,44.985],[9.14,45.1],[9.0,45.24],[8.8,45.19],[8.71,45.1],[8.6,45.027],[8.4,44.967],[8.333,44.9],[8.2,44.846],[8.0,44.833],[7.8,44.731],[7.769,44.7],[7.718,44.5],[7.6,44.363],[7.537,44.3],[7.585,44.1],[7.4,44.018],[7.282,43.9],[7.2,43.843],[7.0,43.749],[6.951,43.7]]},"properties":{"probabilityThreshold":0.0715,"lengthKm":581.0,"diagnosticOnly":true}},{"type":"Feature","geometry":{"type":"LineString","coordinates":[[12.2,43.977],[12.074,44.1],[12.126,44.3],[12.2,44.352],[12.35,44.3],[12.369,44.1],[12.2,43.977]]},"properties":{"probabilityThreshold":0.0715,"lengthKm":102.2,"diagnosticOnly":true}},{"type":"Feature","geometry":{"type":"LineString","coordinates":[[16.567,45.3],[16.6,45.267],[16.633,45.3],[16.8,45.453],[16.847,45.5],[17.0,45.586],[17.114,45.7],[17.2,45.805],[17.264,45.7],[17.2,45.556],[17.144,45.5],[17.2,45.444],[17.386,45.3],[17.4,45.286],[17.414,45.3],[17.6,45.457],[17.643,45.5],[17.6,45.543],[17.536,45.7],[17.6,45.776],[17.724,45.9],[17.6,46.024],[17.492,46.1],[17.4,46.192],[17.266,46.3],[17.2,46.366],[17.134,46.3],[17.088,46.1],[17.0,45.972],[16.8,45.929],[16.6,45.913],[16.587,45.9],[16.4,45.754],[16.346,45.7],[16.315,45.5],[16.4,45.415],[16.567,45.3]]},"properties":{"probabilityThreshold":0.0715,"lengthKm":456.8,"diagnosticOnly":true}},{"type":"Feature","geometry":{"type":"LineString","coordinates":[[6.168,45.5],[6.2,45.468],[6.232,45.5],[6.4,45.627],[6.473,45.7],[6.475,45.9],[6.4,45.946],[6.354,45.9],[6.2,45.715],[6.185,45.7],[6.168,45.5]]},"properties":{"probabilityThreshold":0.0715,"lengthKm":121.7,"diagnosticOnly":true}},{"type":"Feature","geometry":{"type":"LineString","coordinates":[[8.145,45.9],[8.2,45.886],[8.214,45.9],[8.2,45.914],[8.159,46.1],[8.0,46.259],[7.841,46.1],[8.0,45.91],[8.145,45.9]]},"properties":{"probabilityThreshold":0.0715,"lengthKm":107.7,"diagnosticOnly":true}},{"type":"Feature","geometry":{"type":"LineString","coordinates":[[17.91,45.9],[18.0,45.81],[18.2,45.853],[18.4,45.8],[18.6,45.822],[18.8,45.876],[18.824,45.9],[18.8,45.924],[18.651,46.1],[18.6,46.151],[18.4,46.104],[18.2,46.11],[18.19,46.1],[18.0,45.99],[17.91,45.9]]},"properties":{"probabilityThreshold":0.0715,"lengthKm":177.4,"diagnosticOnly":true}},{"type":"Feature","geometry":{"type":"LineString","coordinates":[[9.954,46.1],[10.0,46.054],[10.046,46.1],[10.2,46.151],[10.381,46.1],[10.4,46.081],[10.419,46.1],[10.496,46.3],[10.4,46.463],[10.2,46.449],[10.051,46.3],[10.0,46.146],[9.954,46.1]]},"properties":{"probabilityThreshold":0.0715,"lengthKm":147.3,"diagnosticOnly":true}},{"type":"Feature","geometry":{"type":"LineString","coordinates":[[11.2,46.043],[11.134,46.1],[11.016,46.3],[11.2,46.378],[11.366,46.5],[11.4,46.564],[11.426,46.5],[11.6,46.351],[11.744,46.3],[11.6,46.245],[11.4,46.262],[11.238,46.1],[11.2,46.043]]},"properties":{"probabilityThreshold":0.0715,"lengthKm":172.4,"diagnosticOnly":true}},{"type":"Feature","geometry":{"type":"LineString","coordinates":[[20.8,46.445],[20.768,46.5],[20.8,46.556],[20.898,46.7],[21.0,46.835],[21.027,46.9],[21.2,47.047],[21.363,47.1],[21.4,47.158],[21.584,47.3],[21.6,47.305],[21.603,47.3],[21.604,47.1],[21.6,47.069],[21.57,46.9],[21.4,46.752],[21.297,46.7],[21.2,46.626],[21.0,46.557],[20.897,46.5],[20.8,46.445]]},"properties":{"probabilityThreshold":0.0715,"lengthKm":242.4,"diagnosticOnly":true}},{"type":"Feature","geometry":{"type":"LineString","coordinates":[[8.458,46.7],[8.6,46.558],[8.742,46.7],[8.8,46.76],[8.946,46.7],[9.0,46.646],[9.071,46.7],[9.2,46.856],[9.4,46.862],[9.6,46.864],[9.636,46.9],[9.8,46.958],[10.0,47.015],[10.085,47.1],[10.0,47.185],[9.8,47.242],[9.6,47.202],[9.498,47.1],[9.4,46.938],[9.2,46.932],[9.0,46.908],[8.8,47.04],[8.66,46.9],[8.6,46.842],[8.458,46.7]]},"properties":{"probabilityThreshold":0.0715,"lengthKm":345.7,"diagnosticOnly":true}},{"type":"Feature","geometry":{"type":"LineString","coordinates":[[10.123,46.9],[10.2,46.823],[10.277,46.9],[10.4,46.965],[10.6,46.983],[10.717,47.1],[10.6,47.217],[10.4,47.235],[10.265,47.1],[10.2,46.977],[10.123,46.9]]},"properties":{"probabilityThreshold":0.0715,"lengthKm":137.4,"diagnosticOnly":true}},{"type":"Feature","geometry":{"type":"LineString","coordinates":[[11.901,47.9],[12.0,47.782],[12.099,47.9],[12.2,47.976],[12.322,47.9],[12.4,47.822],[12.478,47.9],[12.6,47.967],[12.677,47.9],[12.8,47.777],[13.0,47.826],[13.074,47.9],[13.0,47.974],[12.8,48.077],[12.781,48.1],[12.6,48.243],[12.467,48.1],[12.4,47.978],[12.324,48.1],[12.2,48.255],[12.076,48.1],[12.0,47.999],[11.901,47.9]]},"properties":{"probabilityThreshold":0.0715,"lengthKm":302.6,"diagnosticOnly":true}},{"type":"Feature","geometry":{"type":"LineString","coordinates":[[13.357,48.3],[13.4,48.257],[13.443,48.3],[13.446,48.5],[13.6,48.585],[13.739,48.5],[13.8,48.439],[13.861,48.5],[13.8,48.686],[13.795,48.7],[13.6,48.815],[13.4,48.775],[13.2,48.783],[13.0,48.795],[12.8,48.799],[12.6,48.788],[12.4,48.821],[12.2,48.795],[12.0,48.747],[11.8,48.758],[11.6,48.715],[11.585,48.7],[11.6,48.608],[11.8,48.642],[12.0,48.591],[12.2,48.605],[12.4,48.517],[12.459,48.5],[12.6,48.438],[12.8,48.378],[13.0,48.42],[13.2,48.432],[13.357,48.3]]},"properties":{"probabilityThreshold":0.0715,"lengthKm":428.6,"diagnosticOnly":true}},{"type":"Feature","geometry":{"type":"LineString","coordinates":[[9.37,48.7],[9.4,48.67],[9.6,48.639],[9.8,48.622],[10.0,48.684],[10.2,48.658],[10.4,48.678],[10.6,48.696],[10.8,48.657],[11.0,48.651],[11.01,48.7],[11.0,48.71],[10.8,48.723],[10.6,48.704],[10.4,48.722],[10.2,48.742],[10.0,48.716],[9.8,48.778],[9.6,48.761],[9.4,48.73],[9.37,48.7]]},"properties":{"probabilityThreshold":0.0715,"lengthKm":256.0,"diagnosticOnly":true}}],"properties":{"forecastHour":33,"method":"xgboost-dwd-era5-icon2i-v1","threshold":0.07145121517771291,"temporalConfirmation":"2-of-3 adjacent hours","diagnosticOnly":true}}