{"type":"FeatureCollection","features":[{"type":"Feature","geometry":{"type":"LineString","coordinates":[[5.0,41.66],[4.814,41.7],[4.857,41.9],[5.0,42.04],[5.06,42.1],[5.2,42.198],[5.4,42.187],[5.491,42.1],[5.4,41.987],[5.2,41.931],[5.169,41.9],[5.2,41.832],[5.318,41.7],[5.2,41.509],[5.0,41.66]]},"properties":{"probabilityThreshold":0.0715,"lengthKm":220.0,"diagnosticOnly":true}},{"type":"Feature","geometry":{"type":"LineString","coordinates":[[6.4,41.574],[6.244,41.7],[6.4,41.887],[6.43,41.9],[6.449,42.1],[6.6,42.289],[6.8,42.221],[6.877,42.1],[6.8,42.013],[6.755,41.9],[6.8,41.771],[6.819,41.7],[6.8,41.694],[6.6,41.521],[6.4,41.574]]},"properties":{"probabilityThreshold":0.0715,"lengthKm":217.7,"diagnosticOnly":true}},{"type":"Feature","geometry":{"type":"LineString","coordinates":[[3.0,41.94],[3.073,41.9],[3.2,41.85],[3.4,41.788],[3.6,41.772],[3.717,41.7],[3.8,41.633],[4.0,41.62],[4.2,41.604],[4.359,41.5],[4.4,41.459],[4.576,41.3],[4.594,41.1],[4.583,40.9],[4.6,40.883],[4.617,40.9],[4.606,41.1],[4.8,41.211],[4.937,41.1],[4.912,40.9],[4.963,40.7],[5.0,40.663],[5.2,40.563],[5.307,40.5],[5.4,40.478],[5.6,40.479],[5.8,40.345],[6.0,40.415],[6.2,40.417],[6.4,40.399],[6.6,40.375],[6.8,40.417],[7.0,40.442],[7.152,40.3],[7.0,40.128],[6.846,40.1],[6.937,39.9],[7.0,39.837],[7.063,39.9],[7.2,40.064],[7.4,40.063],[7.6,40.093],[7.8,40.057],[7.997,39.9],[8.0,39.897],[8.003,39.9],[8.2,40.017],[8.358,39.9],[8.387,39.7],[8.4,39.687],[8.593,39.5],[8.6,39.493],[8.78,39.3],[8.8,39.28],[9.0,39.298],[9.006,39.3],[9.0,39.309],[8.906,39.5],[9.0,39.602],[9.166,39.5],[9.2,39.476],[9.4,39.31],[9.404,39.3],[9.411,39.1],[9.592,38.9],[9.6,38.892],[9.8,38.871],[9.965,38.7],[10.0,38.665],[10.118,38.5],[10.2,38.418],[10.327,38.3],[10.369,38.1],[10.4,38.069],[10.596,37.9],[10.6,37.896],[10.754,37.7],[10.797,37.5],[10.8,37.497],[11.0,37.449],[11.19,37.3],[11.186,37.1],[11.0,36.935],[10.965,36.9],[10.98,36.7],[10.983,36.5],[11.0,36.483],[11.128,36.5],[11.2,36.532],[11.24,36.5],[11.398,36.3],[11.2,36.131],[11.169,36.1],[11.2,36.069],[11.386,35.9],[11.2,35.713],[11.041,35.9],[11.0,35.941],[10.959,35.9],[10.982,35.7],[11.0,35.682],[11.168,35.5],[11.2,35.468],[11.384,35.3],[11.4,35.284],[11.416,35.3],[11.438,35.5],[11.6,35.678],[11.622,35.7],[11.8,35.868],[11.832,35.9],[12.0,36.085],[12.015,36.1],[12.03,36.3],[12.035,36.5],[12.0,36.535],[11.965,36.5],[11.8,36.332],[11.768,36.3],[11.6,36.129],[11.402,36.3],[11.465,36.5],[11.4,36.631],[11.343,36.7],[11.4,36.795],[11.474,36.9],[11.6,37.036],[11.645,37.1],[11.8,37.285],[11.976,37.1],[12.0,37.092],[12.167,36.9],[12.2,36.787],[12.4,36.808],[12.492,36.9],[12.496,37.1],[12.555,37.3],[12.6,37.427],[12.8,37.462],[13.0,37.489],[13.011,37.5],[13.0,37.511],[12.8,37.538],[12.636,37.7],[12.6,37.736],[12.484,37.7],[12.4,37.659],[12.344,37.7],[12.272,37.9],[12.241,38.1],[12.2,38.141],[12.12,38.3],[12.02,38.5],[12.0,38.52],[11.862,38.7],[11.8,38.834],[11.697,38.9],[11.6,38.935],[11.424,39.1],[11.4,39.151],[11.324,39.3],[11.299,39.5],[11.2,39.531],[11.0,39.661],[10.977,39.7],[10.919,39.9],[11.0,39.982],[11.047,40.1],[11.044,40.3],[11.0,40.344],[10.878,40.3],[10.82,40.1],[10.8,40.08],[10.767,40.1],[10.773,40.3],[10.8,40.368],[10.852,40.5],[10.937,40.7],[10.8,40.755],[10.691,40.9],[10.6,40.991],[10.425,41.1],[10.4,41.125],[10.2,41.192],[10.0,41.213],[9.815,41.3],[9.8,41.334],[9.785,41.3],[9.6,41.172],[9.4,41.232],[9.2,41.16],[9.011,41.3],[9.0,41.311],[8.989,41.3],[8.8,41.169],[8.717,41.3],[8.6,41.417],[8.453,41.5],[8.4,41.663],[8.2,41.64],[8.118,41.7],[8.0,41.892],[7.931,41.9],[7.8,41.92],[7.6,41.928],[7.409,42.1],[7.443,42.3],[7.4,42.343],[7.256,42.5],[7.2,42.556],[7.144,42.5],[7.0,42.329],[6.835,42.5],[6.8,42.535],[6.6,42.53],[6.57,42.5],[6.4,42.348],[6.352,42.3],[6.2,42.174],[6.0,42.17],[5.893,42.3],[5.8,42.393],[5.6,42.337],[5.4,42.413],[5.2,42.402],[5.0,42.388],[4.912,42.3],[4.8,42.155],[4.6,42.176],[4.458,42.3],[4.47,42.5],[4.4,42.57],[4.2,42.52],[4.18,42.5],[4.2,42.48],[4.342,42.3],[4.2,42.167],[4.082,42.3],[4.0,42.382],[3.8,42.341],[3.68,42.5],[3.6,42.58],[3.4,42.576],[3.324,42.5],[3.353,42.3],[3.25,42.1],[3.2,42.068],[3.185,42.1],[3.09,42.3],[3.019,42.5],[3.0,42.519]]},"properties":{"probabilityThreshold":0.0715,"lengthKm":3728.7,"diagnosticOnly":true}}],"properties":{"forecastHour":66,"method":"xgboost-dwd-era5-icon2i-v1","threshold":0.07145121517771291,"temporalConfirmation":"2-of-3 adjacent hours","diagnosticOnly":true}}