{"type":"FeatureCollection","features":[{"type":"Feature","geometry":{"type":"LineString","coordinates":[[11.771,36.7],[11.8,36.671],[11.829,36.7],[11.803,36.9],[11.882,37.1],[11.8,37.182],[11.6,37.11],[11.59,37.1],[11.596,36.9],[11.6,36.896],[11.771,36.7]]},"properties":{"probabilityThreshold":0.0715,"lengthKm":135.5,"diagnosticOnly":true}},{"type":"Feature","geometry":{"type":"LineString","coordinates":[[5.938,37.1],[6.0,37.038],[6.2,37.08],[6.4,37.04],[6.6,37.089],[6.611,37.1],[6.6,37.111],[6.4,37.16],[6.2,37.12],[6.0,37.162],[5.938,37.1]]},"properties":{"probabilityThreshold":0.0715,"lengthKm":131.1,"diagnosticOnly":true}},{"type":"Feature","geometry":{"type":"LineString","coordinates":[[21.693,39.9],[21.8,39.793],[21.907,39.9],[21.931,40.1],[21.939,40.3],[21.938,40.5],[21.952,40.7],[21.939,40.9],[21.941,41.1],[21.936,41.3],[21.951,41.5],[21.954,41.7],[21.906,41.9],[21.853,42.1],[21.909,42.3],[21.934,42.5],[21.885,42.7],[21.8,42.829],[21.6,42.711],[21.496,42.7],[21.4,42.516],[21.384,42.7],[21.2,42.767],[21.04,42.9],[21.0,42.94],[20.96,42.9],[20.8,42.813],[20.698,42.9],[20.6,42.998],[20.502,42.9],[20.562,42.7],[20.4,42.504],[20.37,42.5],[20.342,42.3],[20.4,42.279],[20.436,42.3],[20.6,42.468],[20.758,42.3],[20.8,42.275],[20.825,42.3],[21.0,42.429],[21.093,42.3],[21.2,42.193],[21.376,42.1],[21.4,42.076],[21.55,41.9],[21.4,41.783],[21.2,41.808],[21.0,41.729],[20.971,41.7],[20.949,41.5],[20.8,41.436],[20.668,41.5],[20.6,41.523],[20.577,41.5],[20.4,41.434],[20.235,41.5],[20.2,41.535],[20.0,41.603],[19.8,41.638],[19.715,41.7],[19.6,41.849],[19.4,41.868],[19.36,41.9],[19.387,42.1],[19.2,42.153],[19.147,42.1],[19.0,41.988],[18.912,41.9],[18.874,41.7],[18.8,41.551],[18.715,41.7],[18.6,41.815],[18.516,41.9],[18.6,41.987],[18.713,42.1],[18.717,42.3],[18.6,42.417],[18.509,42.5],[18.4,42.609],[18.2,42.635],[18.0,42.615],[17.8,42.614],[17.6,42.587],[17.513,42.5],[17.505,42.3],[17.6,42.205],[17.786,42.1],[17.8,42.086],[18.0,42.027],[18.144,41.9],[18.158,41.7],[18.2,41.658],[18.324,41.5],[18.4,41.424],[18.526,41.3],[18.6,41.226],[18.8,41.238],[18.862,41.3],[19.0,41.444],[19.2,41.377],[19.374,41.3],[19.4,41.274],[19.6,41.226],[19.778,41.1],[19.8,41.078],[20.0,41.018],[20.159,40.9],[20.2,40.859],[20.373,40.7],[20.281,40.5],[20.4,40.381],[20.516,40.3],[20.6,40.216],[20.684,40.3],[20.6,40.384],[20.519,40.5],[20.427,40.7],[20.464,40.9],[20.6,41.041],[20.767,40.9],[20.8,40.867],[20.931,40.7],[21.0,40.631],[21.114,40.5],[21.2,40.414],[21.286,40.5],[21.4,40.587],[21.472,40.5],[21.4,40.349],[21.351,40.3],[21.4,40.251],[21.449,40.3],[21.6,40.372],[21.661,40.3],[21.669,40.1],[21.693,39.9]]},"properties":{"probabilityThreshold":0.0715,"lengthKm":2103.1,"diagnosticOnly":true}},{"type":"Feature","geometry":{"type":"LineString","coordinates":[[21.2,41.199],[21.074,41.3],[21.059,41.5],[21.2,41.633],[21.214,41.5],[21.274,41.3],[21.2,41.199]]},"properties":{"probabilityThreshold":0.0715,"lengthKm":106.5,"diagnosticOnly":true}},{"type":"Feature","geometry":{"type":"LineString","coordinates":[[13.536,42.5],[13.6,42.436],[13.664,42.5],[13.619,42.7],[13.6,42.719],[13.478,42.9],[13.521,43.1],[13.6,43.181],[13.8,43.235],[14.0,43.214],[14.2,43.155],[14.4,43.194],[14.6,43.217],[14.8,43.187],[15.0,43.192],[15.2,43.213],[15.395,43.1],[15.4,43.095],[15.6,43.049],[15.651,43.1],[15.616,43.3],[15.8,43.461],[15.921,43.3],[16.0,43.221],[16.079,43.3],[16.107,43.5],[16.0,43.607],[15.8,43.539],[15.704,43.7],[15.8,43.827],[15.873,43.9],[15.8,43.973],[15.696,44.1],[15.6,44.196],[15.482,44.3],[15.495,44.5],[15.6,44.582],[15.718,44.7],[15.8,44.769],[16.0,44.758],[16.145,44.7],[16.2,44.645],[16.4,44.645],[16.6,44.663],[16.637,44.7],[16.8,44.839],[17.0,44.893],[17.2,44.877],[17.4,44.857],[17.496,44.9],[17.6,44.976],[17.8,45.061],[17.839,45.1],[18.0,45.177],[18.2,45.176],[18.4,45.298],[18.6,45.279],[18.621,45.3],[18.671,45.5],[18.8,45.67],[18.83,45.7],[18.871,45.9],[18.84,46.1],[18.8,46.14],[18.6,46.171],[18.4,46.192],[18.282,46.3],[18.236,46.5],[18.2,46.536],[18.0,46.568],[17.8,46.575],[17.6,46.626],[17.508,46.7],[17.4,46.808],[17.254,46.9],[17.2,46.954],[17.051,47.1],[17.0,47.151],[16.8,47.169],[16.6,47.184],[16.4,47.234],[16.2,47.291],[16.124,47.3],[16.0,47.333],[15.902,47.3],[15.8,47.225],[15.762,47.3],[15.6,47.418],[15.507,47.3],[15.4,47.127],[15.2,47.174],[15.181,47.3],[15.0,47.453],[14.8,47.432],[14.657,47.5],[14.6,47.557],[14.543,47.5],[14.594,47.3],[14.505,47.1],[14.4,47.077],[14.2,47.049],[14.0,47.075],[13.938,47.1],[14.0,47.202],[14.144,47.3],[14.0,47.374],[13.8,47.362],[13.739,47.5],[13.8,47.564],[13.936,47.7],[13.8,47.836],[13.677,47.9],[13.6,47.977],[13.523,47.9],[13.6,47.823],[13.664,47.7],[13.6,47.639],[13.461,47.5],[13.4,47.312],[13.2,47.338],[13.162,47.3],[13.0,47.155],[12.8,47.237],[12.6,47.254],[12.446,47.1],[12.6,46.946],[12.659,46.9],[12.6,46.784],[12.4,46.814],[12.321,46.9],[12.273,47.1],[12.277,47.3],[12.2,47.377],[12.123,47.3],[12.0,47.14],[11.96,47.1],[12.0,47.06],[12.079,46.9],[12.2,46.779],[12.286,46.7],[12.2,46.599],[12.0,46.509],[11.8,46.608],[11.6,46.616],[11.401,46.5],[11.4,46.499],[11.384,46.5],[11.2,46.518],[11.0,46.587],[10.8,46.548],[10.752,46.5],[10.6,46.333],[10.567,46.3],[10.4,46.133],[10.367,46.1],[10.31,45.9],[10.2,45.753],[10.105,45.9],[10.0,46.005],[9.81,46.1],[9.8,46.11],[9.6,46.129],[9.571,46.1],[9.4,46.003],[9.2,45.985],[9.0,46.013],[8.8,45.928],[8.772,45.9],[8.8,45.872],[9.0,45.787],[9.2,45.815],[9.302,45.7],[9.2,45.585],[9.0,45.578],[8.8,45.564],[8.736,45.5],[8.706,45.3],[8.8,45.206],[8.983,45.1],[9.0,45.083],[9.017,45.1],[9.2,45.285],[9.335,45.1],[9.2,45.011],[9.089,44.9],[9.063,44.7],[9.2,44.671],[9.4,44.607],[9.459,44.7],[9.6,44.88],[9.703,44.7],[9.8,44.603],[9.98,44.5],[10.0,44.48],[10.151,44.3],[10.2,44.194],[10.24,44.1],[10.4,43.994],[10.506,44.1],[10.6,44.151],[10.8,44.166],[10.865,44.1],[11.0,43.965],[11.166,43.9],[11.2,43.866],[11.314,43.7],[11.4,43.614],[11.6,43.614],[11.8,43.586],[11.914,43.7],[12.0,43.755],[12.052,43.7],[12.0,43.556],[11.944,43.5],[11.936,43.3],[11.934,43.1],[11.931,42.9],[11.8,42.746],[11.754,42.7],[11.8,42.654],[12.0,42.692],[12.008,42.7],[12.2,42.815],[12.285,42.9],[12.4,43.016],[12.525,42.9],[12.4,42.746],[12.354,42.7],[12.4,42.654],[12.6,42.644],[12.656,42.7],[12.8,42.806],[13.0,42.752],[13.098,42.9],[13.2,42.96],[13.322,42.9],[13.306,42.7],[13.4,42.606],[13.536,42.5]]},"properties":{"probabilityThreshold":0.0715,"lengthKm":3398.9,"diagnosticOnly":true}},{"type":"Feature","geometry":{"type":"LineString","coordinates":[[19.901,43.1],[20.0,43.001],[20.2,42.992],[20.4,43.032],[20.468,43.1],[20.4,43.168],[20.284,43.3],[20.2,43.384],[20.0,43.335],[19.815,43.5],[19.8,43.515],[19.6,43.545],[19.555,43.5],[19.6,43.455],[19.698,43.3],[19.8,43.198],[19.901,43.1]]},"properties":{"probabilityThreshold":0.0715,"lengthKm":212.3,"diagnosticOnly":true}},{"type":"Feature","geometry":{"type":"LineString","coordinates":[[12.6,43.186],[12.458,43.3],[12.442,43.5],[12.6,43.607],[12.734,43.5],[12.683,43.3],[12.6,43.186]]},"properties":{"probabilityThreshold":0.0715,"lengthKm":109.4,"diagnosticOnly":true}},{"type":"Feature","geometry":{"type":"LineString","coordinates":[[13.0,43.264],[12.917,43.3],[13.0,43.405],[13.2,43.457],[13.243,43.5],[13.313,43.7],[13.4,43.86],[13.6,43.838],[13.8,43.736],[13.839,43.7],[14.0,43.532],[14.2,43.547],[14.4,43.57],[14.519,43.5],[14.4,43.406],[14.2,43.445],[14.0,43.433],[13.8,43.365],[13.6,43.419],[13.481,43.3],[13.4,43.221],[13.2,43.24],[13.0,43.264]]},"properties":{"probabilityThreshold":0.0715,"lengthKm":336.7,"diagnosticOnly":true}},{"type":"Feature","geometry":{"type":"LineString","coordinates":[[15.0,44.296],[14.996,44.3],[14.8,44.475],[14.773,44.5],[14.8,44.592],[14.842,44.7],[14.885,44.9],[14.917,45.1],[14.8,45.217],[14.737,45.3],[14.8,45.393],[14.951,45.3],[15.0,45.251],[15.2,45.151],[15.262,45.1],[15.4,44.962],[15.485,44.9],[15.482,44.7],[15.4,44.595],[15.305,44.5],[15.2,44.382],[15.01,44.3],[15.0,44.296]]},"properties":{"probabilityThreshold":0.0715,"lengthKm":293.7,"diagnosticOnly":true}},{"type":"Feature","geometry":{"type":"LineString","coordinates":[[7.88,45.5],[8.0,45.395],[8.105,45.5],[8.181,45.7],[8.0,45.792],[7.8,45.741],[7.759,45.7],[7.8,45.648],[7.88,45.5]]},"properties":{"probabilityThreshold":0.0715,"lengthKm":115.6,"diagnosticOnly":true}},{"type":"Feature","geometry":{"type":"LineString","coordinates":[[16.6,45.554],[16.408,45.7],[16.6,45.828],[16.8,45.854],[17.0,45.828],[17.146,45.7],[17.0,45.614],[16.8,45.592],[16.6,45.554]]},"properties":{"probabilityThreshold":0.0715,"lengthKm":139.0,"diagnosticOnly":true}},{"type":"Feature","geometry":{"type":"LineString","coordinates":[[21.765,46.9],[21.8,46.865],[21.835,46.9],[21.811,47.1],[21.845,47.3],[21.8,47.345],[21.755,47.3],[21.789,47.1],[21.765,46.9]]},"properties":{"probabilityThreshold":0.0715,"lengthKm":110.4,"diagnosticOnly":true}},{"type":"Feature","geometry":{"type":"LineString","coordinates":[[12.579,48.7],[12.6,48.679],[12.8,48.638],[13.0,48.602],[13.2,48.645],[13.4,48.675],[13.425,48.7],[13.4,48.725],[13.2,48.755],[13.0,48.798],[12.8,48.762],[12.6,48.721],[12.579,48.7]]},"properties":{"probabilityThreshold":0.0715,"lengthKm":134.3,"diagnosticOnly":true}}],"properties":{"forecastHour":57,"method":"xgboost-dwd-era5-icon2i-v1","threshold":0.07145121517771291,"temporalConfirmation":"2-of-3 adjacent hours","diagnosticOnly":true}}