{"type":"FeatureCollection","features":[{"type":"Feature","geometry":{"type":"LineString","coordinates":[[17.456,34.1],[17.6,33.956],[17.744,34.1],[17.761,34.3],[17.8,34.483],[17.942,34.3],[18.0,34.242],[18.058,34.3],[18.2,34.439],[18.261,34.5],[18.284,34.7],[18.306,34.9],[18.4,35.04],[18.46,35.1],[18.47,35.3],[18.45,35.5],[18.6,35.69],[18.61,35.7],[18.6,35.71],[18.469,35.9],[18.458,36.1],[18.6,36.277],[18.8,36.25],[18.85,36.3],[19.0,36.433],[19.067,36.5],[19.0,36.567],[18.8,36.508],[18.685,36.7],[18.8,36.814],[18.886,36.9],[18.8,36.986],[18.668,37.1],[18.6,37.168],[18.532,37.1],[18.6,36.915],[18.611,36.9],[18.6,36.889],[18.583,36.9],[18.4,36.963],[18.337,36.9],[18.2,36.815],[18.018,36.9],[18.2,37.065],[18.235,37.1],[18.4,37.258],[18.442,37.3],[18.4,37.378],[18.2,37.327],[18.024,37.5],[18.0,37.524],[17.916,37.7],[17.8,37.816],[17.735,37.9],[17.8,37.971],[18.0,37.997],[18.103,38.1],[18.0,38.203],[17.8,38.229],[17.6,38.238],[17.462,38.1],[17.446,37.9],[17.451,37.7],[17.466,37.5],[17.456,37.3],[17.4,37.127],[17.373,37.1],[17.305,36.9],[17.2,36.8],[17.135,36.9],[17.12,37.1],[17.2,37.275],[17.225,37.3],[17.269,37.5],[17.322,37.7],[17.342,37.9],[17.323,38.1],[17.2,38.223],[17.128,38.3],[17.106,38.5],[17.2,38.564],[17.4,38.582],[17.6,38.566],[17.8,38.619],[17.881,38.7],[17.8,38.781],[17.653,38.9],[17.635,39.1],[17.629,39.3],[17.6,39.329],[17.571,39.3],[17.565,39.1],[17.474,38.9],[17.4,38.874],[17.2,38.836],[17.0,38.791],[16.8,38.9],[16.8,38.9],[16.641,39.1],[16.6,39.141],[16.559,39.1],[16.502,38.9],[16.4,38.83],[16.2,38.76],[16.097,38.7],[16.0,38.557],[15.915,38.5],[15.8,38.415],[15.755,38.3],[15.74,38.1],[15.748,37.9],[15.8,37.848],[15.852,37.9],[16.0,38.065],[16.102,37.9],[16.183,37.7],[16.133,37.5],[16.2,37.433],[16.267,37.5],[16.4,37.638],[16.462,37.7],[16.6,37.858],[16.662,37.7],[16.719,37.5],[16.698,37.3],[16.641,37.1],[16.686,36.9],[16.708,36.7],[16.775,36.5],[16.6,36.366],[16.534,36.3],[16.526,36.1],[16.4,35.966],[16.2,35.91],[16.19,35.9],[16.2,35.89],[16.348,35.7],[16.4,35.648],[16.508,35.5],[16.4,35.373],[16.327,35.3],[16.4,35.227],[16.6,35.226],[16.8,35.274],[16.826,35.3],[16.8,35.326],[16.692,35.5],[16.633,35.7],[16.8,35.877],[16.877,35.7],[16.88,35.5],[17.0,35.38],[17.2,35.363],[17.4,35.36],[17.433,35.3],[17.432,35.1],[17.4,35.051],[17.2,35.026],[17.0,35.014],[16.8,35.02],[16.68,34.9],[16.8,34.78],[17.0,34.786],[17.2,34.774],[17.313,34.7],[17.4,34.613],[17.438,34.5],[17.439,34.3],[17.456,34.1]]},"properties":{"probabilityThreshold":0.0715,"lengthKm":2690.8,"diagnosticOnly":true}},{"type":"Feature","geometry":{"type":"LineString","coordinates":[[16.186,34.7],[16.2,34.686],[16.214,34.7],[16.223,34.9],[16.254,35.1],[16.2,35.154],[16.006,35.3],[16.0,35.306],[15.994,35.3],[15.944,35.1],[16.0,35.044],[16.177,34.9],[16.186,34.7]]},"properties":{"probabilityThreshold":0.0715,"lengthKm":157.1,"diagnosticOnly":true}},{"type":"Feature","geometry":{"type":"LineString","coordinates":[[18.476,37.5],[18.6,37.419],[18.8,37.432],[19.0,37.466],[19.034,37.5],[19.046,37.7],[19.0,37.746],[18.8,37.707],[18.799,37.7],[18.6,37.581],[18.476,37.5]]},"properties":{"probabilityThreshold":0.0715,"lengthKm":138.5,"diagnosticOnly":true}},{"type":"Feature","geometry":{"type":"LineString","coordinates":[[18.105,37.9],[18.2,37.73],[18.4,37.867],[18.433,37.9],[18.478,38.1],[18.4,38.178],[18.322,38.1],[18.2,37.995],[18.105,37.9]]},"properties":{"probabilityThreshold":0.0715,"lengthKm":122.1,"diagnosticOnly":true}},{"type":"Feature","geometry":{"type":"LineString","coordinates":[[21.749,38.1],[21.8,38.049],[21.851,38.1],[21.889,38.3],[21.867,38.5],[21.8,38.626],[21.733,38.5],[21.711,38.3],[21.749,38.1]]},"properties":{"probabilityThreshold":0.0715,"lengthKm":133.9,"diagnosticOnly":true}},{"type":"Feature","geometry":{"type":"LineString","coordinates":[[15.534,41.9],[15.6,41.834],[15.8,41.777],[15.923,41.9],[15.826,42.1],[15.8,42.126],[15.774,42.1],[15.6,41.966],[15.534,41.9]]},"properties":{"probabilityThreshold":0.0715,"lengthKm":104.4,"diagnosticOnly":true}},{"type":"Feature","geometry":{"type":"LineString","coordinates":[[21.747,42.1],[21.8,42.047],[21.853,42.1],[21.81,42.3],[21.816,42.5],[21.8,42.516],[21.784,42.5],[21.79,42.3],[21.747,42.1]]},"properties":{"probabilityThreshold":0.0715,"lengthKm":108.0,"diagnosticOnly":true}},{"type":"Feature","geometry":{"type":"LineString","coordinates":[[10.752,42.3],[10.8,42.252],[10.953,42.3],[11.0,42.352],[11.043,42.5],[11.019,42.7],[11.0,42.719],[10.8,42.781],[10.719,42.7],[10.761,42.5],[10.752,42.3]]},"properties":{"probabilityThreshold":0.0715,"lengthKm":142.2,"diagnosticOnly":true}},{"type":"Feature","geometry":{"type":"LineString","coordinates":[[3.0,42.958],[3.2,42.962],[3.4,42.962],[3.541,42.9],[3.587,42.7],[3.6,42.687],[3.8,42.688],[3.812,42.7],[4.0,42.789],[4.2,42.7],[4.2,42.7],[4.2,42.7],[4.294,42.9],[4.2,42.994],[4.105,43.1],[4.0,43.205],[3.863,43.3],[3.8,43.363],[3.6,43.352],[3.4,43.369],[3.264,43.5],[3.2,43.564],[3.0,43.599]]},"properties":{"probabilityThreshold":0.0715,"lengthKm":290.4,"diagnosticOnly":true}},{"type":"Feature","geometry":{"type":"LineString","coordinates":[[6.759,43.5],[6.8,43.459],[7.0,43.378],[7.2,43.431],[7.4,43.421],[7.6,43.468],[7.632,43.5],[7.722,43.7],[7.8,43.789],[8.0,43.886],[8.014,43.9],[8.096,44.1],[8.0,44.196],[7.871,44.1],[7.8,44.042],[7.711,44.1],[7.6,44.177],[7.523,44.1],[7.4,43.996],[7.2,43.998],[7.099,44.1],[7.0,44.199],[6.901,44.1],[6.925,43.9],[6.977,43.7],[6.8,43.541],[6.759,43.5]]},"properties":{"probabilityThreshold":0.0715,"lengthKm":371.5,"diagnosticOnly":true}},{"type":"Feature","geometry":{"type":"LineString","coordinates":[[11.332,43.7],[11.4,43.632],[11.6,43.653],[11.647,43.7],[11.693,43.9],[11.666,44.1],[11.8,44.285],[11.815,44.3],[11.8,44.315],[11.659,44.5],[11.6,44.559],[11.4,44.558],[11.288,44.7],[11.2,44.788],[11.0,44.84],[10.929,44.7],[10.951,44.5],[11.0,44.451],[11.153,44.3],[11.0,44.106],[10.994,44.1],[11.0,44.094],[11.11,43.9],[11.2,43.81],[11.29,43.9],[11.4,44.032],[11.507,43.9],[11.4,43.768],[11.332,43.7]]},"properties":{"probabilityThreshold":0.0715,"lengthKm":398.4,"diagnosticOnly":true}},{"type":"Feature","geometry":{"type":"LineString","coordinates":[[4.473,43.9],[4.6,43.773],[4.8,43.829],[5.0,43.888],[5.012,43.9],[5.0,43.912],[4.847,44.1],[5.0,44.275],[5.025,44.3],[5.2,44.453],[5.247,44.5],[5.4,44.567],[5.6,44.596],[5.704,44.7],[5.8,44.77],[6.0,44.781],[6.119,44.9],[6.016,45.1],[6.2,45.161],[6.4,45.203],[6.497,45.3],[6.6,45.374],[6.726,45.5],[6.6,45.626],[6.547,45.7],[6.6,45.764],[6.8,45.861],[6.839,45.9],[7.0,46.036],[7.2,45.955],[7.345,46.1],[7.4,46.194],[7.6,46.265],[7.8,46.189],[7.934,46.1],[7.857,45.9],[8.0,45.757],[8.143,45.9],[8.2,46.095],[8.205,46.1],[8.4,46.178],[8.522,46.3],[8.6,46.332],[8.8,46.351],[9.0,46.39],[9.2,46.389],[9.4,46.433],[9.6,46.399],[9.684,46.3],[9.6,46.235],[9.465,46.1],[9.6,45.965],[9.8,46.079],[10.0,46.045],[10.055,46.1],[10.2,46.157],[10.4,46.213],[10.6,46.288],[10.749,46.1],[10.791,45.9],[10.6,45.832],[10.468,45.7],[10.452,45.5],[10.6,45.352],[10.66,45.3],[10.6,45.187],[10.513,45.1],[10.6,45.013],[10.724,44.9],[10.8,44.824],[10.945,44.9],[10.849,45.1],[11.0,45.166],[11.134,45.3],[11.046,45.5],[11.0,45.546],[10.811,45.7],[11.0,45.785],[11.2,45.766],[11.4,45.811],[11.48,45.7],[11.46,45.5],[11.549,45.3],[11.541,45.1],[11.6,45.041],[11.761,44.9],[11.8,44.861],[11.957,44.7],[11.915,44.5],[12.0,44.415],[12.154,44.3],[12.2,44.254],[12.246,44.3],[12.4,44.399],[12.501,44.5],[12.435,44.7],[12.4,44.735],[12.318,44.9],[12.283,45.1],[12.4,45.177],[12.6,45.211],[12.8,45.208],[12.915,45.1],[13.0,45.015],[13.105,44.9],[13.2,44.805],[13.295,44.9],[13.4,45.016],[13.512,44.9],[13.6,44.812],[13.76,44.7],[13.8,44.66],[14.0,44.563],[14.12,44.5],[14.2,44.42],[14.28,44.5],[14.344,44.7],[14.4,44.773],[14.6,44.772],[14.728,44.9],[14.6,45.028],[14.535,45.1],[14.539,45.3],[14.6,45.373],[14.761,45.3],[14.8,45.261],[15.0,45.211],[15.123,45.1],[15.0,44.974],[14.926,44.9],[14.928,44.7],[15.0,44.628],[15.072,44.7],[15.2,44.858],[15.242,44.9],[15.4,45.065],[15.501,44.9],[15.4,44.816],[15.284,44.7],[15.2,44.545],[15.155,44.5],[15.2,44.455],[15.4,44.392],[15.6,44.439],[15.709,44.3],[15.8,44.209],[16.0,44.195],[16.2,44.218],[16.4,44.205],[16.6,44.162],[16.8,44.245],[17.0,44.253],[17.2,44.228],[17.4,44.265],[17.6,44.199],[17.8,44.182],[17.936,44.1],[18.0,44.036],[18.2,44.034],[18.266,44.1],[18.4,44.2],[18.6,44.197],[18.744,44.1],[18.8,44.023],[19.0,43.926],[19.2,44.036],[19.4,44.072],[19.6,44.1],[19.628,43.9],[19.8,43.856],[19.844,43.9],[20.0,44.071],[20.2,44.081],[20.219,44.1],[20.2,44.119],[20.0,44.129],[19.805,44.3],[19.883,44.5],[20.0,44.658],[20.042,44.7],[20.2,44.86],[20.24,44.9],[20.4,45.041],[20.6,44.994],[20.706,45.1],[20.8,45.194],[21.0,45.249],[21.051,45.3],[21.2,45.381],[21.4,45.478],[21.422,45.5],[21.501,45.7],[21.6,45.831],[21.771,45.7],[21.73,45.5],[21.8,45.43],[21.87,45.5],[21.829,45.7],[21.908,45.9],[21.925,46.1],[21.919,46.3],[21.91,46.5],[21.879,46.7],[21.928,46.9],[21.935,47.1],[21.912,47.3],[21.956,47.5],[21.958,47.7],[21.962,47.9],[21.926,48.1],[21.957,48.3],[21.961,48.5],[21.947,48.7],[21.8,48.847],[21.6,48.843],[21.4,48.83],[21.2,48.844],[21.0,48.85],[20.8,48.83],[20.6,48.847],[20.4,48.85],[20.2,48.854],[20.0,48.861],[19.8,48.863],[19.6,48.864],[19.4,48.863],[19.2,48.861],[19.0,48.865],[18.8,48.863],[18.6,48.864],[18.4,48.864],[18.2,48.858],[18.0,48.853],[17.8,48.853],[17.6,48.83],[17.4,48.832],[17.2,48.71],[17.0,48.722],[16.947,48.7],[17.0,48.678],[17.2,48.69],[17.4,48.568],[17.468,48.5],[17.4,48.413],[17.287,48.3],[17.2,48.143],[17.157,48.1],[17.2,48.057],[17.4,47.954],[17.6,47.981],[17.719,48.1],[17.6,48.219],[17.513,48.3],[17.6,48.368],[17.8,48.355],[17.889,48.3],[17.871,48.1],[17.913,47.9],[18.0,47.813],[18.165,47.7],[18.079,47.5],[18.0,47.398],[17.875,47.3],[17.8,47.217],[17.744,47.1],[17.6,46.999],[17.408,47.1],[17.4,47.108],[17.392,47.1],[17.2,46.981],[17.0,46.922],[16.978,46.9],[17.0,46.878],[17.133,46.7],[17.2,46.633],[17.375,46.5],[17.294,46.3],[17.2,46.213],[17.0,46.193],[16.907,46.1],[16.8,46.035],[16.665,45.9],[16.6,45.831],[16.4,45.766],[16.334,45.7],[16.2,45.637],[16.063,45.5],[16.2,45.363],[16.342,45.3],[16.2,45.164],[16.0,45.206],[15.861,45.3],[15.8,45.361],[15.675,45.5],[15.8,45.617],[15.883,45.7],[15.8,45.783],[15.6,45.742],[15.4,45.863],[15.2,45.852],[15.137,45.9],[15.174,46.1],[15.2,46.124],[15.385,46.3],[15.4,46.346],[15.513,46.5],[15.545,46.7],[15.6,46.735],[15.653,46.7],[15.643,46.5],[15.8,46.364],[15.957,46.5],[15.858,46.7],[16.0,46.864],[16.036,46.9],[16.2,47.047],[16.4,47.082],[16.407,47.1],[16.437,47.3],[16.4,47.337],[16.333,47.5],[16.249,47.7],[16.2,47.749],[16.151,47.7],[16.0,47.602],[15.898,47.5],[15.8,47.434],[15.6,47.454],[15.4,47.41],[15.29,47.3],[15.2,47.158],[15.0,47.205],[14.8,47.122],[14.737,47.3],[14.672,47.5],[14.6,47.572],[14.4,47.544],[14.2,47.577],[14.152,47.7],[14.0,47.892],[13.959,47.9],[14.0,47.972],[14.102,48.1],[14.0,48.181],[13.908,48.1],[13.8,48.03],[13.677,48.1],[13.6,48.163],[13.57,48.1],[13.4,48.039],[13.336,48.1],[13.2,48.266],[13.0,48.269],[12.931,48.3],[12.8,48.393],[12.707,48.3],[12.6,48.238],[12.428,48.3],[12.4,48.328],[12.2,48.335],[12.165,48.3],[12.0,48.234],[11.851,48.3],[11.8,48.351],[11.686,48.3],[11.6,48.279],[11.4,48.212],[11.2,48.236],[11.018,48.1],[11.0,48.086],[10.981,48.1],[10.8,48.234],[10.666,48.1],[10.6,48.045],[10.4,48.032],[10.268,47.9],[10.2,47.83],[10.0,47.819],[9.8,47.827],[9.6,47.801],[9.499,47.7],[9.4,47.619],[9.2,47.614],[9.086,47.5],[9.0,47.39],[8.8,47.413],[8.6,47.317],[8.583,47.3],[8.4,47.128],[8.372,47.1],[8.2,47.042],[8.0,46.903],[7.997,46.9],[7.8,46.829],[7.616,46.9],[7.6,46.916],[7.584,46.9],[7.4,46.804],[7.2,46.737],[7.163,46.7],[7.0,46.582],[6.918,46.5],[6.8,46.445],[6.726,46.5],[6.6,46.626],[6.448,46.7],[6.4,46.748],[6.352,46.7],[6.4,46.652],[6.474,46.5],[6.4,46.408],[6.2,46.347],[6.153,46.3],[6.127,46.1],[6.0,46.005],[5.8,45.995],[5.705,45.9],[5.6,45.703],[5.597,45.7],[5.6,45.697],[5.649,45.5],[5.6,45.416],[5.484,45.3],[5.4,45.113],[5.387,45.1],[5.2,44.998],[5.0,44.954],[4.817,45.1],[4.8,45.117],[4.783,45.1],[4.688,44.9],[4.6,44.769],[4.531,44.7],[4.6,44.631],[4.775,44.5],[4.738,44.3],[4.6,44.217],[4.476,44.3],[4.48,44.5],[4.4,44.58],[4.32,44.5],[4.324,44.3],[4.4,44.224],[4.483,44.1],[4.473,43.9]]},"properties":{"probabilityThreshold":0.0715,"lengthKm":6476.3,"diagnosticOnly":true}},{"type":"Feature","geometry":{"type":"LineString","coordinates":[[3.0,44.029],[3.2,44.078],[3.222,44.1],[3.292,44.3],[3.32,44.5],[3.259,44.7],[3.263,44.9],[3.2,44.963],[3.081,45.1],[3.014,45.3],[3.0,45.314]]},"properties":{"probabilityThreshold":0.0715,"lengthKm":160.6,"diagnosticOnly":true}},{"type":"Feature","geometry":{"type":"LineString","coordinates":[[6.284,44.3],[6.4,44.184],[6.516,44.3],[6.493,44.5],[6.4,44.593],[6.2,44.58],[6.12,44.5],[6.2,44.42],[6.284,44.3]]},"properties":{"probabilityThreshold":0.0715,"lengthKm":119.2,"diagnosticOnly":true}},{"type":"Feature","geometry":{"type":"LineString","coordinates":[[3.97,44.5],[4.0,44.47],[4.03,44.5],[4.057,44.7],[4.105,44.9],[4.0,45.005],[3.832,45.1],[3.8,45.132],[3.768,45.1],[3.672,44.9],[3.693,44.7],[3.8,44.593],[3.97,44.5]]},"properties":{"probabilityThreshold":0.0715,"lengthKm":169.8,"diagnosticOnly":true}},{"type":"Feature","geometry":{"type":"LineString","coordinates":[[16.6,45.202],[16.458,45.3],[16.6,45.386],[16.714,45.5],[16.8,45.573],[16.951,45.5],[17.0,45.451],[17.047,45.3],[17.0,45.229],[16.8,45.222],[16.6,45.202]]},"properties":{"probabilityThreshold":0.0715,"lengthKm":134.3,"diagnosticOnly":true}},{"type":"Feature","geometry":{"type":"LineString","coordinates":[[7.8,46.411],[7.672,46.5],[7.8,46.571],[8.0,46.537],[8.2,46.594],[8.302,46.5],[8.2,46.439],[8.0,46.413],[7.8,46.411]]},"properties":{"probabilityThreshold":0.0715,"lengthKm":113.1,"diagnosticOnly":true}},{"type":"Feature","geometry":{"type":"LineString","coordinates":[[14.2,47.007],[14.052,47.1],[14.2,47.244],[14.256,47.3],[14.4,47.456],[14.463,47.3],[14.4,47.139],[14.361,47.1],[14.2,47.007]]},"properties":{"probabilityThreshold":0.0715,"lengthKm":120.0,"diagnosticOnly":true}},{"type":"Feature","geometry":{"type":"LineString","coordinates":[[14.957,47.5],[15.0,47.457],[15.2,47.436],[15.264,47.5],[15.2,47.564],[15.061,47.7],[15.0,47.761],[14.8,47.79],[14.774,47.7],[14.8,47.674],[14.957,47.5]]},"properties":{"probabilityThreshold":0.0715,"lengthKm":116.0,"diagnosticOnly":true}},{"type":"Feature","geometry":{"type":"LineString","coordinates":[[21.4,47.456],[21.293,47.5],[21.2,47.678],[21.135,47.7],[21.2,47.738],[21.348,47.9],[21.4,47.958],[21.575,47.9],[21.6,47.896],[21.642,47.7],[21.644,47.5],[21.6,47.432],[21.4,47.456]]},"properties":{"probabilityThreshold":0.0715,"lengthKm":154.7,"diagnosticOnly":true}}],"properties":{"forecastHour":24,"method":"xgboost-dwd-era5-icon2i-v1","threshold":0.07145121517771291,"temporalConfirmation":"2-of-3 adjacent hours","diagnosticOnly":true}}