{"type":"FeatureCollection","features":[{"type":"Feature","geometry":{"type":"LineString","coordinates":[[21.752,34.9],[21.8,34.852],[21.848,34.9],[21.845,35.1],[21.852,35.3],[21.835,35.5],[21.813,35.7],[21.802,35.9],[21.8,35.902],[21.798,35.9],[21.787,35.7],[21.765,35.5],[21.748,35.3],[21.755,35.1],[21.752,34.9]]},"properties":{"probabilityThreshold":0.0715,"lengthKm":235.9,"diagnosticOnly":true}},{"type":"Feature","geometry":{"type":"LineString","coordinates":[[7.085,36.7],[7.2,36.585],[7.315,36.7],[7.4,36.783],[7.517,36.9],[7.4,37.017],[7.283,36.9],[7.2,36.815],[7.085,36.7]]},"properties":{"probabilityThreshold":0.0715,"lengthKm":122.7,"diagnosticOnly":true}},{"type":"Feature","geometry":{"type":"LineString","coordinates":[[14.894,40.5],[15.0,40.394],[15.106,40.5],[15.2,40.647],[15.253,40.7],[15.2,40.753],[15.139,40.9],[15.2,41.003],[15.297,41.1],[15.4,41.242],[15.458,41.3],[15.4,41.358],[15.268,41.5],[15.28,41.7],[15.257,41.9],[15.2,41.957],[15.0,42.1],[15.043,42.3],[15.0,42.343],[14.857,42.5],[14.8,42.557],[14.6,42.608],[14.465,42.7],[14.468,42.9],[14.4,42.968],[14.2,42.952],[14.0,42.977],[13.923,42.9],[13.8,42.851],[13.688,42.9],[13.6,42.988],[13.539,43.1],[13.4,43.239],[13.2,43.244],[13.0,43.162],[12.938,43.1],[13.0,43.038],[13.2,42.956],[13.4,42.961],[13.512,42.9],[13.4,42.866],[13.234,42.7],[13.4,42.534],[13.466,42.5],[13.4,42.366],[13.334,42.3],[13.4,42.234],[13.449,42.1],[13.4,41.915],[13.385,41.9],[13.243,41.7],[13.4,41.543],[13.542,41.5],[13.6,41.442],[13.658,41.5],[13.8,41.557],[13.872,41.5],[13.91,41.3],[14.0,41.21],[14.062,41.1],[14.2,40.962],[14.282,40.9],[14.4,40.782],[14.6,40.762],[14.659,40.7],[14.8,40.559],[14.894,40.5]]},"properties":{"probabilityThreshold":0.0715,"lengthKm":945.0,"diagnosticOnly":true}},{"type":"Feature","geometry":{"type":"LineString","coordinates":[[21.686,41.3],[21.8,41.186],[21.914,41.3],[21.897,41.5],[21.897,41.7],[21.918,41.9],[21.954,42.1],[21.947,42.3],[21.956,42.5],[21.914,42.7],[21.942,42.9],[21.944,43.1],[21.941,43.3],[21.943,43.5],[21.936,43.7],[21.8,43.836],[21.603,43.9],[21.8,44.019],[21.881,44.1],[21.93,44.3],[21.936,44.5],[21.927,44.7],[21.947,44.9],[21.952,45.1],[21.947,45.3],[21.942,45.5],[21.91,45.7],[21.909,45.9],[21.8,46.009],[21.678,46.1],[21.8,46.175],[21.925,46.3],[21.913,46.5],[21.909,46.7],[21.9,46.9],[21.909,47.1],[21.922,47.3],[21.913,47.5],[21.912,47.7],[21.932,47.9],[21.931,48.1],[21.944,48.3],[21.93,48.5],[21.937,48.7],[21.8,48.837],[21.6,48.816],[21.4,48.812],[21.2,48.81],[21.0,48.816],[20.8,48.832],[20.6,48.805],[20.4,48.713],[20.387,48.7],[20.4,48.687],[20.587,48.5],[20.4,48.344],[20.356,48.3],[20.4,48.256],[20.6,48.209],[20.8,48.264],[21.0,48.23],[21.2,48.207],[21.22,48.1],[21.2,48.052],[21.0,48.07],[20.888,47.9],[20.969,47.7],[21.0,47.669],[21.175,47.5],[21.2,47.475],[21.225,47.5],[21.4,47.598],[21.6,47.588],[21.646,47.5],[21.678,47.3],[21.691,47.1],[21.6,46.932],[21.568,46.9],[21.6,46.868],[21.691,46.7],[21.687,46.5],[21.6,46.389],[21.511,46.3],[21.522,46.1],[21.4,45.921],[21.379,45.9],[21.4,45.879],[21.593,45.7],[21.6,45.693],[21.658,45.5],[21.6,45.428],[21.472,45.3],[21.402,45.1],[21.4,45.092],[21.2,45.031],[21.176,44.9],[21.0,44.714],[20.986,44.7],[20.896,44.5],[20.8,44.398],[20.702,44.3],[20.6,44.188],[20.4,44.194],[20.306,44.1],[20.222,43.9],[20.2,43.859],[20.154,43.9],[20.0,43.976],[19.8,43.901],[19.799,43.9],[19.6,43.724],[19.4,43.746],[19.2,43.806],[19.0,43.863],[18.885,43.7],[18.8,43.598],[18.71,43.7],[18.6,43.81],[18.4,43.808],[18.2,43.777],[18.123,43.7],[18.159,43.5],[18.0,43.34],[17.96,43.3],[18.0,43.26],[18.136,43.1],[18.0,42.998],[17.861,43.1],[17.8,43.161],[17.6,43.222],[17.4,43.235],[17.326,43.3],[17.2,43.426],[17.0,43.447],[16.925,43.5],[16.8,43.625],[16.6,43.7],[16.6,43.7],[16.4,43.804],[16.236,43.9],[16.2,43.936],[16.078,43.9],[16.0,43.895],[15.829,43.7],[15.838,43.5],[15.838,43.3],[15.85,43.1],[15.881,42.9],[15.988,42.7],[16.0,42.688],[16.012,42.7],[16.2,42.772],[16.4,42.759],[16.6,42.776],[16.773,42.7],[16.782,42.5],[16.8,42.482],[16.818,42.5],[17.0,42.684],[17.2,42.594],[17.4,42.587],[17.489,42.5],[17.6,42.389],[17.8,42.385],[18.0,42.421],[18.2,42.387],[18.295,42.3],[18.4,42.195],[18.571,42.1],[18.6,42.071],[18.8,41.99],[19.0,41.993],[19.2,42.033],[19.4,42.034],[19.6,42.033],[19.8,42.032],[19.928,41.9],[20.0,41.828],[20.2,41.862],[20.4,41.809],[20.6,41.785],[20.741,41.7],[20.8,41.641],[21.0,41.595],[21.105,41.7],[21.2,41.784],[21.372,41.7],[21.4,41.672],[21.428,41.7],[21.6,41.797],[21.703,41.7],[21.703,41.5],[21.686,41.3]]},"properties":{"probabilityThreshold":0.0715,"lengthKm":3041.7,"diagnosticOnly":true}},{"type":"Feature","geometry":{"type":"LineString","coordinates":[[13.6,41.558],[13.557,41.7],[13.415,41.9],[13.6,41.949],[13.751,42.1],[13.604,42.3],[13.8,42.345],[13.844,42.3],[13.867,42.1],[13.819,41.9],[13.8,41.893],[13.657,41.7],[13.6,41.558]]},"properties":{"probabilityThreshold":0.0715,"lengthKm":213.9,"diagnosticOnly":true}},{"type":"Feature","geometry":{"type":"LineString","coordinates":[[14.99,43.1],[15.0,43.09],[15.01,43.1],[15.2,43.237],[15.4,43.236],[15.6,43.278],[15.622,43.3],[15.6,43.322],[15.414,43.5],[15.4,43.514],[15.233,43.7],[15.2,43.733],[15.167,43.7],[15.135,43.5],[15.0,43.343],[14.811,43.5],[14.8,43.511],[14.63,43.7],[14.6,43.73],[14.57,43.7],[14.592,43.5],[14.59,43.3],[14.6,43.29],[14.8,43.278],[14.99,43.1]]},"properties":{"probabilityThreshold":0.0715,"lengthKm":311.5,"diagnosticOnly":true}},{"type":"Feature","geometry":{"type":"LineString","coordinates":[[18.4,43.17],[18.226,43.3],[18.241,43.5],[18.4,43.592],[18.6,43.539],[18.647,43.5],[18.6,43.435],[18.524,43.3],[18.4,43.17]]},"properties":{"probabilityThreshold":0.0715,"lengthKm":123.4,"diagnosticOnly":true}},{"type":"Feature","geometry":{"type":"LineString","coordinates":[[7.871,43.7],[8.0,43.571],[8.129,43.7],[8.2,43.84],[8.4,43.884],[8.416,43.9],[8.455,44.1],[8.4,44.155],[8.304,44.3],[8.2,44.404],[8.123,44.5],[8.0,44.684],[7.992,44.7],[8.0,44.712],[8.185,44.9],[8.2,44.918],[8.4,44.914],[8.6,45.06],[8.8,45.055],[9.0,44.994],[9.098,44.9],[9.2,44.798],[9.302,44.9],[9.4,44.997],[9.503,45.1],[9.6,45.175],[9.8,45.22],[9.88,45.3],[9.8,45.38],[9.6,45.425],[9.4,45.446],[9.2,45.388],[9.0,45.403],[8.897,45.3],[8.8,45.145],[8.6,45.14],[8.4,45.219],[8.2,45.226],[8.074,45.1],[8.0,45.036],[7.813,45.1],[7.8,45.113],[7.787,45.1],[7.761,44.9],[7.6,44.837],[7.438,44.9],[7.432,45.1],[7.452,45.3],[7.6,45.434],[7.8,45.401],[8.0,45.404],[8.096,45.5],[8.2,45.641],[8.273,45.7],[8.4,45.796],[8.6,45.845],[8.8,45.824],[8.876,45.9],[9.0,46.037],[9.135,45.9],[9.2,45.835],[9.265,45.9],[9.4,46.034],[9.48,45.9],[9.6,45.715],[9.635,45.7],[9.8,45.626],[9.979,45.5],[10.0,45.479],[10.021,45.5],[10.2,45.571],[10.4,45.564],[10.592,45.5],[10.6,45.492],[10.608,45.5],[10.8,45.588],[10.974,45.7],[11.0,45.729],[11.022,45.7],[11.082,45.5],[11.195,45.3],[11.2,45.298],[11.263,45.1],[11.4,44.963],[11.6,45.054],[11.8,45.001],[11.91,44.9],[12.0,44.81],[12.2,44.89],[12.277,44.9],[12.4,44.922],[12.559,45.1],[12.6,45.113],[12.622,45.1],[12.631,44.9],[12.697,44.7],[12.733,44.5],[12.714,44.3],[12.8,44.103],[12.886,44.3],[13.0,44.436],[13.2,44.411],[13.363,44.3],[13.4,44.263],[13.437,44.3],[13.435,44.5],[13.6,44.627],[13.673,44.7],[13.605,44.9],[13.8,44.93],[14.0,44.95],[14.2,44.978],[14.322,45.1],[14.4,45.229],[14.6,45.184],[14.8,45.229],[14.871,45.3],[14.8,45.401],[14.762,45.5],[14.8,45.54],[15.0,45.627],[15.139,45.7],[15.2,45.711],[15.274,45.7],[15.4,45.654],[15.446,45.7],[15.6,45.757],[15.8,45.77],[16.0,45.782],[16.2,45.808],[16.4,45.879],[16.421,45.9],[16.6,46.037],[16.663,46.1],[16.681,46.3],[16.606,46.5],[16.6,46.506],[16.4,46.619],[16.304,46.7],[16.246,46.9],[16.4,47.012],[16.6,47.07],[16.63,47.1],[16.6,47.13],[16.4,47.188],[16.293,47.3],[16.4,47.45],[16.45,47.5],[16.4,47.55],[16.211,47.7],[16.2,47.711],[16.189,47.7],[16.0,47.61],[15.813,47.7],[15.8,47.713],[15.6,47.734],[15.566,47.7],[15.4,47.516],[15.2,47.535],[15.0,47.531],[14.8,47.654],[14.6,47.523],[14.4,47.514],[14.386,47.5],[14.4,47.338],[14.443,47.3],[14.4,47.299],[14.2,47.293],[14.171,47.3],[14.0,47.367],[13.865,47.5],[14.0,47.665],[14.035,47.7],[14.0,47.735],[13.817,47.9],[14.0,47.986],[14.173,47.9],[14.2,47.873],[14.4,47.812],[14.6,47.869],[14.671,47.9],[14.8,47.939],[14.924,47.9],[15.0,47.866],[15.2,47.854],[15.4,47.864],[15.436,47.9],[15.4,47.936],[15.221,48.1],[15.244,48.3],[15.4,48.465],[15.6,48.446],[15.8,48.437],[15.814,48.5],[15.8,48.514],[15.604,48.7],[15.6,48.704],[15.4,48.794],[15.2,48.814],[15.0,48.824],[14.8,48.826],[14.6,48.821],[14.4,48.831],[14.2,48.817],[14.083,48.7],[14.0,48.564],[13.919,48.7],[13.8,48.819],[13.6,48.82],[13.4,48.815],[13.2,48.815],[13.0,48.83],[12.8,48.833],[12.6,48.838],[12.4,48.845],[12.2,48.848],[12.0,48.819],[11.8,48.812],[11.6,48.803],[11.4,48.798],[11.2,48.771],[11.0,48.774],[10.8,48.797],[10.6,48.733],[10.4,48.739],[10.2,48.728],[10.172,48.7],[10.084,48.5],[10.0,48.416],[9.884,48.3],[10.0,48.184],[10.2,48.186],[10.4,48.173],[10.502,48.1],[10.6,48.002],[10.8,47.99],[11.0,48.031],[11.2,48.036],[11.4,47.987],[11.513,48.1],[11.6,48.178],[11.8,48.17],[12.0,48.174],[12.2,48.187],[12.4,48.188],[12.6,48.145],[12.8,48.133],[12.97,48.1],[12.8,47.999],[12.721,47.9],[12.6,47.777],[12.4,47.861],[12.2,47.81],[12.0,47.783],[11.8,47.754],[11.746,47.7],[11.681,47.5],[11.6,47.437],[11.496,47.5],[11.4,47.596],[11.304,47.5],[11.2,47.425],[11.0,47.428],[10.8,47.433],[10.698,47.5],[10.6,47.598],[10.502,47.5],[10.4,47.433],[10.2,47.337],[10.163,47.3],[10.0,47.263],[9.803,47.3],[9.8,47.303],[9.797,47.3],[9.6,47.228],[9.4,47.151],[9.349,47.1],[9.2,47.013],[9.037,47.1],[9.0,47.137],[8.963,47.1],[8.8,47.042],[8.658,46.9],[8.6,46.87],[8.4,46.844],[8.309,46.9],[8.2,47.009],[8.091,46.9],[8.0,46.861],[7.8,46.789],[7.711,46.7],[7.6,46.654],[7.514,46.7],[7.4,46.814],[7.2,46.782],[7.118,46.7],[7.0,46.604],[6.896,46.5],[6.8,46.462],[6.6,46.369],[6.531,46.3],[6.6,46.231],[6.8,46.138],[6.862,46.1],[6.8,45.934],[6.6,46.031],[6.4,46.057],[6.243,45.9],[6.2,45.84],[6.06,45.7],[6.126,45.5],[6.051,45.3],[6.051,45.1],[6.0,45.025],[5.875,44.9],[6.0,44.775],[6.2,44.754],[6.299,44.7],[6.4,44.599],[6.501,44.7],[6.4,44.801],[6.346,44.9],[6.4,44.962],[6.538,45.1],[6.409,45.3],[6.4,45.309],[6.274,45.5],[6.4,45.698],[6.6,45.59],[6.71,45.7],[6.8,45.866],[7.0,45.739],[7.2,45.753],[7.4,45.76],[7.544,45.7],[7.4,45.554],[7.346,45.5],[7.2,45.43],[7.07,45.3],[7.0,45.171],[6.929,45.1],[7.0,45.029],[7.096,44.9],[7.081,44.7],[7.126,44.5],[7.112,44.3],[7.0,44.137],[6.8,44.184],[6.716,44.1],[6.8,44.016],[7.0,44.063],[7.2,43.989],[7.4,43.982],[7.485,43.9],[7.6,43.785],[7.8,43.8],[7.871,43.7]]},"properties":{"probabilityThreshold":0.0715,"lengthKm":4988.4,"diagnosticOnly":true}},{"type":"Feature","geometry":{"type":"LineString","coordinates":[[17.331,44.1],[17.4,44.031],[17.469,44.1],[17.4,44.169],[17.332,44.3],[17.2,44.432],[17.0,44.386],[16.914,44.3],[17.0,44.214],[17.2,44.168],[17.331,44.1]]},"properties":{"probabilityThreshold":0.0715,"lengthKm":131.6,"diagnosticOnly":true}},{"type":"Feature","geometry":{"type":"LineString","coordinates":[[5.592,44.5],[5.6,44.492],[5.608,44.5],[5.705,44.7],[5.667,44.9],[5.6,44.967],[5.4,44.988],[5.312,44.9],[5.2,44.763],[5.137,44.7],[5.2,44.637],[5.4,44.651],[5.592,44.5]]},"properties":{"probabilityThreshold":0.0715,"lengthKm":158.1,"diagnosticOnly":true}},{"type":"Feature","geometry":{"type":"LineString","coordinates":[[7.8,45.599],[7.656,45.7],[7.6,45.756],[7.54,45.9],[7.6,46.024],[7.676,46.1],[7.6,46.176],[7.4,46.222],[7.288,46.3],[7.4,46.338],[7.6,46.346],[7.754,46.5],[7.8,46.611],[8.0,46.539],[8.054,46.5],[8.2,46.354],[8.4,46.356],[8.481,46.3],[8.4,46.256],[8.2,46.245],[8.0,46.201],[7.899,46.1],[7.835,45.9],[7.885,45.7],[7.8,45.599]]},"properties":{"probabilityThreshold":0.0715,"lengthKm":340.3,"diagnosticOnly":true}},{"type":"Feature","geometry":{"type":"LineString","coordinates":[[9.0,46.163],[8.897,46.3],[9.0,46.374],[9.2,46.371],[9.4,46.359],[9.515,46.3],[9.4,46.166],[9.2,46.161],[9.0,46.163]]},"properties":{"probabilityThreshold":0.0715,"lengthKm":118.4,"diagnosticOnly":true}},{"type":"Feature","geometry":{"type":"LineString","coordinates":[[13.6,47.05],[13.486,47.1],[13.457,47.3],[13.6,47.422],[13.736,47.3],[13.8,47.169],[13.825,47.1],[13.8,47.089],[13.6,47.05]]},"properties":{"probabilityThreshold":0.0715,"lengthKm":107.8,"diagnosticOnly":true}},{"type":"Feature","geometry":{"type":"LineString","coordinates":[[13.2,47.73],[13.053,47.9],[13.2,48.011],[13.289,48.1],[13.4,48.144],[13.494,48.1],[13.6,47.935],[13.744,47.9],[13.6,47.803],[13.415,47.9],[13.4,47.904],[13.396,47.9],[13.2,47.73]]},"properties":{"probabilityThreshold":0.0715,"lengthKm":157.6,"diagnosticOnly":true}},{"type":"Feature","geometry":{"type":"LineString","coordinates":[[14.6,48.28],[14.523,48.3],[14.6,48.363],[14.634,48.5],[14.8,48.574],[15.0,48.576],[15.167,48.5],[15.0,48.311],[14.8,48.376],[14.626,48.3],[14.6,48.28]]},"properties":{"probabilityThreshold":0.0715,"lengthKm":134.0,"diagnosticOnly":true}}],"properties":{"forecastHour":39,"method":"xgboost-dwd-era5-icon2i-v1","threshold":0.07145121517771291,"temporalConfirmation":"2-of-3 adjacent hours","diagnosticOnly":true}}