{"type":"FeatureCollection","features":[{"type":"Feature","geometry":{"type":"LineString","coordinates":[[8.856,36.9],[9.0,36.811],[9.2,36.882],[9.4,36.828],[9.472,36.9],[9.481,37.1],[9.486,37.3],[9.4,37.386],[9.314,37.3],[9.319,37.1],[9.2,36.918],[9.097,37.1],[9.0,37.197],[8.8,37.206],[8.6,37.14],[8.4,37.146],[8.354,37.1],[8.4,37.054],[8.6,37.06],[8.8,36.943],[8.856,36.9]]},"properties":{"probabilityThreshold":0.0715,"lengthKm":328.2,"diagnosticOnly":true}},{"type":"Feature","geometry":{"type":"LineString","coordinates":[[21.747,36.9],[21.8,36.847],[21.853,36.9],[21.805,37.1],[21.915,37.3],[21.8,37.415],[21.685,37.3],[21.795,37.1],[21.747,36.9]]},"properties":{"probabilityThreshold":0.0715,"lengthKm":141.2,"diagnosticOnly":true}},{"type":"Feature","geometry":{"type":"LineString","coordinates":[[4.722,37.9],[4.8,37.822],[4.878,37.9],[4.91,38.1],[4.916,38.3],[5.0,38.38],[5.2,38.377],[5.4,38.379],[5.6,38.383],[5.717,38.5],[5.8,38.577],[6.0,38.561],[6.139,38.7],[6.141,38.9],[6.097,39.1],[6.0,39.197],[5.8,39.171],[5.6,39.19],[5.413,39.3],[5.4,39.313],[5.2,39.303],[5.0,39.413],[4.887,39.3],[4.8,39.22],[4.702,39.3],[4.6,39.402],[4.4,39.385],[4.27,39.5],[4.2,39.57],[4.13,39.5],[4.087,39.3],[4.151,39.1],[4.192,38.9],[4.0,38.803],[3.906,38.9],[3.8,39.006],[3.694,38.9],[3.696,38.7],[3.8,38.596],[4.0,38.597],[4.2,38.574],[4.4,38.597],[4.47,38.5],[4.49,38.3],[4.49,38.1],[4.6,37.99],[4.722,37.9]]},"properties":{"probabilityThreshold":0.0715,"lengthKm":762.9,"diagnosticOnly":true}},{"type":"Feature","geometry":{"type":"LineString","coordinates":[[21.7,38.3],[21.8,38.2],[21.9,38.3],[21.892,38.5],[21.835,38.7],[21.93,38.9],[21.927,39.1],[21.843,39.3],[21.884,39.5],[21.893,39.7],[21.88,39.9],[21.903,40.1],[21.928,40.3],[21.951,40.5],[21.957,40.7],[21.948,40.9],[21.964,41.1],[21.965,41.3],[21.965,41.5],[21.967,41.7],[21.966,41.9],[21.933,42.1],[21.953,42.3],[21.949,42.5],[21.904,42.7],[21.834,42.9],[21.8,42.934],[21.6,42.925],[21.575,42.9],[21.4,42.757],[21.214,42.7],[21.2,42.686],[21.0,42.654],[20.8,42.662],[20.752,42.7],[20.8,42.715],[20.901,42.9],[20.8,43.001],[20.657,42.9],[20.6,42.779],[20.4,42.831],[20.269,42.7],[20.2,42.602],[20.0,42.612],[19.888,42.5],[19.8,42.313],[19.787,42.3],[19.8,42.287],[19.993,42.1],[19.975,41.9],[19.931,41.7],[19.8,41.656],[19.779,41.7],[19.643,41.9],[19.6,41.943],[19.4,42.043],[19.34,42.1],[19.285,42.3],[19.2,42.385],[19.005,42.3],[19.0,42.295],[18.985,42.3],[18.8,42.341],[18.6,42.421],[18.415,42.5],[18.4,42.515],[18.2,42.57],[18.0,42.514],[17.97,42.5],[17.936,42.3],[17.875,42.1],[17.931,41.9],[18.0,41.831],[18.14,41.7],[18.2,41.64],[18.4,41.677],[18.423,41.7],[18.6,41.805],[18.8,41.833],[18.976,41.7],[18.993,41.5],[19.0,41.493],[19.2,41.438],[19.4,41.477],[19.519,41.3],[19.6,41.266],[19.8,41.261],[19.839,41.3],[19.994,41.5],[20.0,41.532],[20.006,41.5],[20.092,41.3],[20.171,41.1],[20.2,41.071],[20.341,40.9],[20.345,40.7],[20.4,40.645],[20.455,40.7],[20.459,40.9],[20.6,40.974],[20.668,40.9],[20.8,40.768],[20.885,40.7],[20.946,40.5],[21.0,40.446],[21.2,40.444],[21.256,40.5],[21.4,40.582],[21.6,40.543],[21.649,40.5],[21.672,40.3],[21.697,40.1],[21.72,39.9],[21.707,39.7],[21.716,39.5],[21.757,39.3],[21.673,39.1],[21.67,38.9],[21.765,38.7],[21.708,38.5],[21.7,38.3]]},"properties":{"probabilityThreshold":0.0715,"lengthKm":1967.6,"diagnosticOnly":true}},{"type":"Feature","geometry":{"type":"LineString","coordinates":[[9.127,38.5],[9.2,38.427],[9.4,38.498],[9.6,38.467],[9.633,38.5],[9.6,38.533],[9.4,38.502],[9.2,38.573],[9.127,38.5]]},"properties":{"probabilityThreshold":0.0715,"lengthKm":103.8,"diagnosticOnly":true}},{"type":"Feature","geometry":{"type":"LineString","coordinates":[[7.651,38.7],[7.8,38.551],[8.0,38.561],[8.139,38.7],[8.2,38.822],[8.257,38.7],[8.4,38.557],[8.6,38.562],[8.8,38.608],[8.892,38.7],[8.8,38.792],[8.699,38.9],[8.6,38.999],[8.4,38.988],[8.2,38.978],[8.0,38.991],[7.8,39.034],[7.658,39.1],[7.6,39.178],[7.4,39.117],[7.383,39.1],[7.4,39.083],[7.52,38.9],[7.6,38.82],[7.651,38.7]]},"properties":{"probabilityThreshold":0.0715,"lengthKm":362.9,"diagnosticOnly":true}},{"type":"Feature","geometry":{"type":"LineString","coordinates":[[6.874,38.9],[7.0,38.774],[7.2,38.791],[7.309,38.9],[7.2,39.009],[7.036,39.1],[7.0,39.136],[6.8,39.102],[6.798,39.1],[6.8,39.098],[6.874,38.9]]},"properties":{"probabilityThreshold":0.0715,"lengthKm":129.2,"diagnosticOnly":true}},{"type":"Feature","geometry":{"type":"LineString","coordinates":[[19.775,42.7],[19.8,42.675],[19.825,42.7],[20.0,42.825],[20.075,42.9],[20.2,43.032],[20.4,43.052],[20.448,43.1],[20.4,43.148],[20.281,43.3],[20.2,43.381],[20.0,43.36],[19.833,43.5],[19.8,43.533],[19.6,43.598],[19.4,43.563],[19.2,43.556],[19.0,43.502],[18.998,43.5],[19.0,43.498],[19.2,43.444],[19.363,43.3],[19.4,43.263],[19.437,43.3],[19.6,43.402],[19.673,43.3],[19.712,43.1],[19.744,42.9],[19.775,42.7]]},"properties":{"probabilityThreshold":0.0715,"lengthKm":369.8,"diagnosticOnly":true}},{"type":"Feature","geometry":{"type":"LineString","coordinates":[[3.0,43.243],[3.2,43.263],[3.237,43.3],[3.295,43.5],[3.381,43.7],[3.35,43.9],[3.222,44.1],[3.273,44.3],[3.2,44.373],[3.0,44.368]]},"properties":{"probabilityThreshold":0.0715,"lengthKm":162.3,"diagnosticOnly":true}},{"type":"Feature","geometry":{"type":"LineString","coordinates":[[6.727,43.3],[6.8,43.227],[7.0,43.218],[7.2,43.258],[7.4,43.27],[7.43,43.3],[7.6,43.469],[7.631,43.5],[7.8,43.633],[7.867,43.7],[8.0,43.819],[8.133,43.7],[8.173,43.5],[8.2,43.473],[8.4,43.402],[8.483,43.3],[8.6,43.183],[8.717,43.3],[8.8,43.396],[9.0,43.445],[9.2,43.455],[9.4,43.399],[9.6,43.395],[9.8,43.396],[9.904,43.5],[10.0,43.572],[10.2,43.643],[10.257,43.7],[10.2,43.819],[10.0,43.828],[9.857,43.9],[9.8,43.957],[9.743,43.9],[9.777,43.7],[9.6,43.605],[9.41,43.7],[9.445,43.9],[9.499,44.1],[9.4,44.199],[9.2,44.183],[9.117,44.1],[9.0,43.985],[8.929,44.1],[8.8,44.229],[8.685,44.3],[8.726,44.5],[8.6,44.626],[8.412,44.7],[8.505,44.9],[8.6,44.986],[8.714,44.9],[8.8,44.814],[8.872,44.7],[9.0,44.572],[9.2,44.597],[9.4,44.589],[9.511,44.7],[9.6,44.767],[9.8,44.747],[9.873,44.7],[9.943,44.5],[10.0,44.443],[10.057,44.5],[10.2,44.547],[10.4,44.604],[10.515,44.5],[10.4,44.39],[10.31,44.3],[10.4,44.21],[10.6,44.233],[10.667,44.3],[10.8,44.457],[10.928,44.3],[11.0,44.228],[11.072,44.3],[11.2,44.4],[11.332,44.3],[11.4,44.232],[11.468,44.3],[11.6,44.399],[11.744,44.3],[11.759,44.1],[11.8,44.059],[12.0,44.037],[12.063,44.1],[12.0,44.163],[11.856,44.3],[12.0,44.437],[12.063,44.5],[12.075,44.7],[12.0,44.725],[11.917,44.9],[12.0,45.028],[12.107,44.9],[12.2,44.743],[12.4,44.811],[12.6,44.78],[12.725,44.7],[12.6,44.594],[12.4,44.572],[12.328,44.5],[12.4,44.428],[12.6,44.406],[12.8,44.493],[13.0,44.351],[13.148,44.3],[13.2,44.248],[13.4,44.173],[13.527,44.3],[13.6,44.401],[13.8,44.38],[13.917,44.3],[14.0,44.217],[14.196,44.1],[14.2,44.096],[14.4,43.984],[14.505,43.9],[14.6,43.805],[14.725,43.7],[14.8,43.625],[15.0,43.61],[15.133,43.5],[15.2,43.433],[15.267,43.5],[15.252,43.7],[15.2,43.752],[15.094,43.9],[15.0,43.994],[14.903,44.1],[14.909,44.3],[14.8,44.457],[14.725,44.5],[14.8,44.563],[15.0,44.525],[15.015,44.5],[15.2,44.389],[15.4,44.456],[15.444,44.5],[15.508,44.7],[15.4,44.808],[15.35,44.9],[15.278,45.1],[15.2,45.178],[15.0,45.269],[14.982,45.3],[14.8,45.493],[14.77,45.5],[14.8,45.536],[15.0,45.514],[15.112,45.5],[15.2,45.482],[15.4,45.348],[15.428,45.3],[15.6,45.171],[15.8,45.174],[15.926,45.3],[15.945,45.5],[16.0,45.519],[16.046,45.5],[16.169,45.3],[16.2,45.269],[16.4,45.237],[16.573,45.1],[16.6,45.073],[16.627,45.1],[16.722,45.3],[16.6,45.374],[16.578,45.5],[16.6,45.54],[16.8,45.506],[16.828,45.5],[17.0,45.363],[17.2,45.372],[17.4,45.448],[17.44,45.5],[17.6,45.685],[17.666,45.7],[17.6,45.739],[17.4,45.876],[17.225,45.9],[17.2,45.912],[17.164,45.9],[17.0,45.886],[16.978,45.9],[16.921,46.1],[17.0,46.172],[17.144,46.3],[17.2,46.315],[17.4,46.407],[17.565,46.3],[17.6,46.226],[17.716,46.3],[17.8,46.381],[18.0,46.337],[18.2,46.371],[18.262,46.5],[18.2,46.562],[18.0,46.657],[17.955,46.7],[17.8,46.759],[17.707,46.9],[17.8,47.098],[17.802,47.1],[17.805,47.3],[17.8,47.305],[17.795,47.3],[17.777,47.1],[17.6,47.085],[17.4,47.072],[17.364,47.1],[17.4,47.231],[17.423,47.3],[17.4,47.323],[17.254,47.5],[17.2,47.554],[17.0,47.572],[16.828,47.7],[16.8,47.728],[16.772,47.7],[16.6,47.616],[16.4,47.626],[16.2,47.633],[16.0,47.63],[15.827,47.7],[15.8,47.727],[15.773,47.7],[15.6,47.521],[15.543,47.5],[15.4,47.487],[15.382,47.5],[15.2,47.649],[15.107,47.7],[15.2,47.878],[15.4,47.83],[15.6,47.811],[15.689,47.9],[15.6,47.989],[15.429,48.1],[15.4,48.129],[15.2,48.107],[15.0,48.122],[14.8,48.158],[14.742,48.1],[14.6,48.032],[14.4,48.049],[14.229,48.1],[14.2,48.129],[14.0,48.196],[13.904,48.1],[13.8,48.055],[13.6,48.058],[13.4,48.061],[13.237,48.1],[13.2,48.137],[13.0,48.181],[12.8,48.118],[12.6,48.113],[12.587,48.1],[12.4,47.926],[12.2,47.974],[12.0,47.96],[11.8,47.937],[11.763,47.9],[11.6,47.814],[11.4,47.857],[11.244,47.9],[11.2,47.944],[11.0,47.964],[10.8,47.966],[10.6,47.936],[10.4,47.947],[10.353,47.9],[10.2,47.748],[10.0,47.726],[9.8,47.705],[9.795,47.7],[9.691,47.5],[9.6,47.347],[9.438,47.5],[9.4,47.538],[9.362,47.5],[9.2,47.344],[9.0,47.361],[8.8,47.373],[8.727,47.3],[8.752,47.1],[8.8,47.052],[9.0,47.004],[9.2,47.095],[9.309,46.9],[9.4,46.809],[9.6,46.751],[9.663,46.9],[9.8,47.041],[10.0,47.073],[10.2,47.011],[10.344,46.9],[10.361,46.7],[10.331,46.5],[10.2,46.412],[10.088,46.3],[10.0,46.226],[9.8,46.225],[9.6,46.209],[9.491,46.1],[9.4,46.004],[9.33,46.1],[9.2,46.23],[9.07,46.1],[9.0,46.029],[8.905,46.1],[8.8,46.205],[8.6,46.145],[8.4,46.137],[8.363,46.1],[8.2,46.026],[8.074,45.9],[8.0,45.844],[7.904,45.9],[7.8,46.004],[7.696,45.9],[7.8,45.796],[7.856,45.7],[7.8,45.622],[7.678,45.5],[7.8,45.378],[8.0,45.432],[8.2,45.462],[8.238,45.5],[8.4,45.62],[8.57,45.5],[8.495,45.3],[8.4,45.242],[8.2,45.197],[8.103,45.1],[8.0,44.973],[7.927,44.9],[7.8,44.754],[7.6,44.745],[7.4,44.833],[7.357,44.9],[7.4,44.989],[7.6,45.034],[7.666,45.1],[7.65,45.3],[7.6,45.35],[7.414,45.5],[7.4,45.514],[7.2,45.547],[7.0,45.597],[6.903,45.5],[7.0,45.403],[7.2,45.453],[7.313,45.3],[7.2,45.232],[7.068,45.1],[7.092,44.9],[7.06,44.7],[7.081,44.5],[7.059,44.3],[7.0,44.249],[6.8,44.196],[6.704,44.1],[6.652,43.9],[6.6,43.844],[6.503,43.9],[6.4,44.003],[6.297,43.9],[6.4,43.797],[6.456,43.7],[6.547,43.5],[6.6,43.447],[6.727,43.3]]},"properties":{"probabilityThreshold":0.0715,"lengthKm":5172.0,"diagnosticOnly":true}},{"type":"Feature","geometry":{"type":"LineString","coordinates":[[8.8,43.604],[8.659,43.7],[8.6,43.759],[8.435,43.9],[8.6,44.094],[8.746,43.9],[8.8,43.846],[9.0,43.815],[9.2,43.786],[9.39,43.7],[9.2,43.545],[9.0,43.555],[8.8,43.604]]},"properties":{"probabilityThreshold":0.0715,"lengthKm":208.1,"diagnosticOnly":true}},{"type":"Feature","geometry":{"type":"LineString","coordinates":[[3.932,44.3],[4.0,44.232],[4.2,44.211],[4.4,44.174],[4.6,44.176],[4.8,44.274],[4.826,44.3],[5.0,44.421],[5.079,44.5],[5.058,44.7],[5.0,44.758],[4.8,44.854],[4.604,44.9],[4.6,44.904],[4.596,44.9],[4.4,44.828],[4.2,44.824],[4.076,44.7],[4.0,44.633],[3.8,44.55],[3.75,44.5],[3.8,44.45],[3.932,44.3]]},"properties":{"probabilityThreshold":0.0715,"lengthKm":288.2,"diagnosticOnly":true}},{"type":"Feature","geometry":{"type":"LineString","coordinates":[[3.0,44.837],[3.2,44.774],[3.348,44.7],[3.353,44.5],[3.4,44.453],[3.447,44.5],[3.452,44.7],[3.4,44.752],[3.326,44.9],[3.4,45.021],[3.6,45.018],[3.8,45.011],[4.0,45.014],[4.2,45.083],[4.217,45.1],[4.4,45.168],[4.6,45.244],[4.656,45.3],[4.718,45.5],[4.6,45.618],[4.482,45.5],[4.4,45.432],[4.275,45.5],[4.4,45.657],[4.443,45.7],[4.4,45.743],[4.2,45.718],[4.0,45.706],[3.994,45.7],[3.977,45.5],[3.8,45.311],[3.643,45.5],[3.6,45.543],[3.557,45.5],[3.4,45.346],[3.233,45.5],[3.2,45.533],[3.167,45.5],[3.0,45.315]]},"properties":{"probabilityThreshold":0.0715,"lengthKm":535.4,"diagnosticOnly":true}},{"type":"Feature","geometry":{"type":"LineString","coordinates":[[5.5,45.7],[5.6,45.6],[5.7,45.7],[5.8,45.746],[6.0,45.749],[6.151,45.9],[6.2,45.96],[6.4,45.998],[6.6,46.04],[6.66,46.1],[6.8,46.19],[6.892,46.1],[6.8,45.969],[6.731,45.9],[6.8,45.831],[7.0,45.803],[7.097,45.9],[7.108,46.1],[7.0,46.208],[6.91,46.3],[6.8,46.41],[6.706,46.5],[6.6,46.606],[6.4,46.575],[6.325,46.5],[6.2,46.406],[6.0,46.376],[5.805,46.5],[6.0,46.646],[6.054,46.7],[6.0,46.754],[5.8,46.74],[5.76,46.7],[5.795,46.5],[5.685,46.3],[5.6,46.212],[5.488,46.1],[5.6,45.988],[5.646,45.9],[5.6,45.8],[5.5,45.7]]},"properties":{"probabilityThreshold":0.0715,"lengthKm":557.6,"diagnosticOnly":true}},{"type":"Feature","geometry":{"type":"LineString","coordinates":[[10.8,46.454],[10.724,46.5],[10.722,46.7],[10.8,46.772],[11.0,46.774],[11.134,46.7],[11.0,46.651],[10.841,46.5],[10.8,46.454]]},"properties":{"probabilityThreshold":0.0715,"lengthKm":106.5,"diagnosticOnly":true}},{"type":"Feature","geometry":{"type":"LineString","coordinates":[[18.489,46.9],[18.6,46.85],[18.65,46.9],[18.8,47.034],[18.966,47.1],[19.0,47.13],[19.074,47.3],[19.0,47.374],[18.8,47.332],[18.768,47.3],[18.6,47.137],[18.563,47.1],[18.489,46.9]]},"properties":{"probabilityThreshold":0.0715,"lengthKm":153.6,"diagnosticOnly":true}},{"type":"Feature","geometry":{"type":"LineString","coordinates":[[21.519,47.5],[21.6,47.419],[21.681,47.5],[21.8,47.567],[21.933,47.7],[21.908,47.9],[21.89,48.1],[21.8,48.19],[21.71,48.1],[21.692,47.9],[21.667,47.7],[21.6,47.581],[21.519,47.5]]},"properties":{"probabilityThreshold":0.0715,"lengthKm":188.5,"diagnosticOnly":true}},{"type":"Feature","geometry":{"type":"LineString","coordinates":[[10.987,48.7],[11.0,48.687],[11.2,48.687],[11.4,48.68],[11.6,48.658],[11.8,48.662],[12.0,48.65],[12.05,48.7],[12.0,48.75],[11.8,48.738],[11.6,48.742],[11.4,48.72],[11.2,48.713],[11.0,48.713],[10.987,48.7]]},"properties":{"probabilityThreshold":0.0715,"lengthKm":164.2,"diagnosticOnly":true}}],"properties":{"forecastHour":51,"method":"xgboost-dwd-era5-icon2i-v1","threshold":0.07145121517771291,"temporalConfirmation":"2-of-3 adjacent hours","diagnosticOnly":true}}