{"type":"FeatureCollection","features":[{"type":"Feature","geometry":{"type":"LineString","coordinates":[[8.76,47.3],[8.8,47.26],[9.0,47.259],[9.041,47.3],[9.2,47.446],[9.4,47.455],[9.445,47.5],[9.6,47.623],[9.8,47.675],[9.825,47.7],[9.8,47.725],[9.678,47.9],[9.6,47.978],[9.522,47.9],[9.4,47.793],[9.2,47.771],[9.0,47.752],[8.948,47.7],[8.8,47.537],[8.763,47.5],[8.76,47.3]]},"properties":{"probabilityThreshold":0.0715,"lengthKm":250.4,"diagnosticOnly":true}}],"properties":{"forecastHour":45,"method":"xgboost-dwd-era5-icon2i-v1","threshold":0.07145121517771291,"temporalConfirmation":"2-of-3 adjacent hours","diagnosticOnly":true}}