{"type":"FeatureCollection","features":[{"type":"Feature","geometry":{"type":"LineString","coordinates":[[3.0,40.246],[3.198,40.1],[3.2,40.098],[3.202,40.1],[3.258,40.3],[3.4,40.414],[3.549,40.3],[3.6,40.249],[3.651,40.3],[3.8,40.406],[4.0,40.393],[4.2,40.396],[4.4,40.41],[4.6,40.398],[4.8,40.468],[4.832,40.5],[4.8,40.532],[4.6,40.602],[4.4,40.59],[4.226,40.7],[4.2,40.726],[4.014,40.9],[4.0,40.914],[3.8,40.933],[3.767,40.9],[3.6,40.814],[3.499,40.9],[3.443,41.1],[3.4,41.143],[3.2,41.2],[3.062,41.3],[3.0,41.362]]},"properties":{"probabilityThreshold":0.0715,"lengthKm":416.1,"diagnosticOnly":true}}],"properties":{"forecastHour":15,"method":"xgboost-dwd-era5-icon2i-v1","threshold":0.07145121517771291,"temporalConfirmation":"2-of-3 adjacent hours","diagnosticOnly":true}}