{"type":"FeatureCollection","features":[{"type":"Feature","geometry":{"type":"LineString","coordinates":[[21.669,34.9],[21.8,34.769],[21.931,34.9],[21.904,35.1],[21.861,35.3],[21.875,35.5],[21.862,35.7],[21.841,35.9],[21.8,35.941],[21.759,35.9],[21.738,35.7],[21.725,35.5],[21.739,35.3],[21.696,35.1],[21.669,34.9]]},"properties":{"probabilityThreshold":0.0715,"lengthKm":271.8,"diagnosticOnly":true}},{"type":"Feature","geometry":{"type":"LineString","coordinates":[[14.337,40.9],[14.4,40.837],[14.6,40.793],[14.707,40.9],[14.8,41.087],[14.813,41.1],[15.0,41.189],[15.123,41.1],[15.2,41.023],[15.332,41.1],[15.4,41.206],[15.444,41.3],[15.4,41.344],[15.302,41.5],[15.207,41.7],[15.4,41.872],[15.6,41.875],[15.625,41.9],[15.6,41.925],[15.4,41.928],[15.2,41.974],[15.103,42.1],[15.011,42.3],[15.0,42.311],[14.816,42.5],[14.888,42.7],[14.918,42.9],[15.0,43.067],[15.187,43.1],[15.2,43.101],[15.4,43.184],[15.506,43.1],[15.6,43.006],[15.694,43.1],[15.8,43.143],[15.871,43.1],[15.8,42.985],[15.715,42.9],[15.8,42.815],[15.977,42.7],[16.0,42.677],[16.07,42.7],[16.2,42.742],[16.4,42.786],[16.559,42.7],[16.6,42.659],[16.739,42.5],[16.8,42.439],[16.861,42.5],[17.0,42.566],[17.2,42.563],[17.288,42.5],[17.4,42.388],[17.6,42.349],[17.8,42.353],[18.0,42.377],[18.2,42.323],[18.4,42.36],[18.536,42.3],[18.6,42.201],[18.739,42.1],[18.8,42.065],[18.835,42.1],[19.0,42.2],[19.178,42.1],[19.2,42.078],[19.222,42.1],[19.4,42.185],[19.6,42.224],[19.8,42.184],[19.916,42.3],[20.0,42.38],[20.119,42.3],[20.2,42.219],[20.4,42.245],[20.6,42.236],[20.8,42.243],[20.857,42.3],[21.0,42.425],[21.171,42.3],[21.2,42.271],[21.229,42.3],[21.4,42.432],[21.6,42.42],[21.664,42.3],[21.673,42.1],[21.794,41.9],[21.8,41.894],[21.806,41.9],[21.927,42.1],[21.936,42.3],[21.949,42.5],[21.957,42.7],[21.952,42.9],[21.955,43.1],[21.955,43.3],[21.95,43.5],[21.954,43.7],[21.924,43.9],[21.966,44.1],[21.882,44.3],[21.826,44.5],[21.855,44.7],[21.866,44.9],[21.898,45.1],[21.927,45.3],[21.862,45.5],[21.906,45.7],[21.873,45.9],[21.8,46.078],[21.775,46.1],[21.8,46.107],[21.931,46.3],[21.929,46.5],[21.917,46.7],[21.893,46.9],[21.907,47.1],[21.913,47.3],[21.928,47.5],[21.914,47.7],[21.937,47.9],[21.902,48.1],[21.852,48.3],[21.909,48.5],[21.89,48.7],[21.8,48.79],[21.6,48.798],[21.4,48.782],[21.2,48.83],[21.0,48.849],[20.8,48.86],[20.6,48.857],[20.4,48.872],[20.2,48.871],[20.0,48.873],[19.8,48.865],[19.635,48.7],[19.636,48.5],[19.8,48.336],[20.0,48.332],[20.032,48.3],[20.06,48.1],[20.2,47.96],[20.247,47.9],[20.269,47.7],[20.4,47.569],[20.585,47.5],[20.571,47.3],[20.6,47.271],[20.629,47.3],[20.615,47.5],[20.8,47.633],[21.0,47.675],[21.171,47.5],[21.2,47.471],[21.316,47.5],[21.4,47.558],[21.45,47.5],[21.6,47.446],[21.687,47.3],[21.693,47.1],[21.6,47.006],[21.494,46.9],[21.4,46.773],[21.327,46.7],[21.2,46.516],[21.0,46.524],[20.976,46.5],[20.8,46.354],[20.746,46.3],[20.8,46.246],[21.0,46.278],[21.022,46.3],[21.2,46.484],[21.4,46.448],[21.455,46.5],[21.6,46.556],[21.636,46.5],[21.6,46.347],[21.555,46.3],[21.534,46.1],[21.4,45.95],[21.312,45.9],[21.4,45.85],[21.516,45.7],[21.6,45.616],[21.738,45.5],[21.6,45.411],[21.489,45.3],[21.498,45.1],[21.4,45.015],[21.265,45.1],[21.261,45.3],[21.4,45.42],[21.48,45.5],[21.4,45.58],[21.288,45.7],[21.2,45.829],[21.112,45.7],[21.134,45.5],[21.139,45.3],[21.0,45.185],[20.8,45.128],[20.772,45.1],[20.6,44.942],[20.558,44.9],[20.559,44.7],[20.514,44.5],[20.4,44.305],[20.395,44.3],[20.2,44.194],[20.106,44.1],[20.0,44.051],[19.8,44.03],[19.67,43.9],[19.6,43.856],[19.495,43.9],[19.408,44.1],[19.4,44.108],[19.2,44.113],[19.187,44.1],[19.0,43.978],[18.826,44.1],[18.8,44.126],[18.774,44.1],[18.6,43.955],[18.417,44.1],[18.4,44.117],[18.2,44.201],[18.047,44.1],[18.0,44.069],[17.8,44.078],[17.694,44.1],[17.608,44.3],[17.6,44.308],[17.576,44.3],[17.4,44.269],[17.298,44.3],[17.2,44.344],[17.088,44.5],[17.0,44.588],[16.8,44.56],[16.663,44.7],[16.635,44.9],[16.6,44.935],[16.565,44.9],[16.4,44.779],[16.2,44.795],[16.074,44.9],[16.0,44.974],[15.926,44.9],[15.99,44.7],[16.0,44.69],[16.179,44.5],[16.2,44.479],[16.221,44.5],[16.4,44.621],[16.491,44.5],[16.6,44.391],[16.709,44.3],[16.8,44.209],[17.0,44.249],[17.107,44.1],[17.2,44.007],[17.4,43.977],[17.52,43.9],[17.6,43.82],[17.722,43.7],[17.6,43.55],[17.55,43.5],[17.4,43.328],[17.2,43.355],[17.036,43.5],[17.0,43.536],[16.8,43.557],[16.6,43.569],[16.474,43.7],[16.4,43.774],[16.2,43.846],[16.056,43.9],[16.0,43.924],[15.8,44.008],[15.6,44.018],[15.469,44.1],[15.4,44.18],[15.2,44.133],[15.167,44.1],[15.0,43.959],[14.941,43.9],[14.8,43.779],[14.717,43.9],[14.778,44.1],[14.8,44.138],[14.858,44.3],[14.8,44.358],[14.691,44.5],[14.6,44.591],[14.509,44.5],[14.4,44.379],[14.321,44.3],[14.2,44.22],[14.0,44.133],[13.8,44.141],[13.759,44.1],[13.691,43.9],[13.6,43.794],[13.497,43.9],[13.4,44.086],[13.303,43.9],[13.384,43.7],[13.279,43.5],[13.329,43.3],[13.2,43.213],[13.0,43.205],[12.936,43.1],[13.0,43.036],[13.161,42.9],[13.0,42.773],[12.876,42.7],[13.0,42.577],[13.2,42.606],[13.4,42.615],[13.424,42.5],[13.4,42.39],[13.303,42.3],[13.2,42.281],[13.039,42.1],[13.2,41.925],[13.27,41.9],[13.333,41.7],[13.4,41.633],[13.533,41.7],[13.6,41.756],[13.635,41.7],[13.6,41.531],[13.591,41.5],[13.6,41.491],[13.8,41.381],[13.855,41.3],[14.0,41.155],[14.07,41.1],[14.2,40.97],[14.337,40.9]]},"properties":{"probabilityThreshold":0.0715,"lengthKm":5062.9,"diagnosticOnly":true}},{"type":"Feature","geometry":{"type":"LineString","coordinates":[[14.6,41.107],[14.492,41.3],[14.4,41.392],[14.322,41.5],[14.4,41.647],[14.5,41.5],[14.6,41.4],[14.726,41.3],[14.6,41.107]]},"properties":{"probabilityThreshold":0.0715,"lengthKm":138.2,"diagnosticOnly":true}},{"type":"Feature","geometry":{"type":"LineString","coordinates":[[12.065,43.5],[12.2,43.365],[12.335,43.5],[12.4,43.567],[12.582,43.7],[12.503,43.9],[12.454,44.1],[12.517,44.3],[12.6,44.413],[12.69,44.3],[12.764,44.1],[12.775,43.9],[12.8,43.807],[13.0,43.815],[13.085,43.9],[13.001,44.1],[13.0,44.101],[12.91,44.3],[13.0,44.455],[13.139,44.5],[13.2,44.542],[13.249,44.5],[13.223,44.3],[13.4,44.165],[13.6,44.247],[13.653,44.3],[13.8,44.494],[13.814,44.5],[13.8,44.506],[13.666,44.7],[13.8,44.85],[14.0,44.809],[14.091,44.9],[14.156,45.1],[14.2,45.219],[14.242,45.3],[14.4,45.378],[14.546,45.3],[14.6,45.246],[14.654,45.3],[14.662,45.5],[14.8,45.676],[14.907,45.5],[15.0,45.407],[15.2,45.45],[15.25,45.5],[15.4,45.61],[15.504,45.5],[15.6,45.404],[15.8,45.411],[15.889,45.5],[15.8,45.589],[15.6,45.659],[15.555,45.7],[15.567,45.9],[15.6,46.065],[15.608,46.1],[15.64,46.3],[15.753,46.5],[15.8,46.657],[15.843,46.7],[15.881,46.9],[16.0,47.083],[16.017,47.1],[16.2,47.293],[16.207,47.3],[16.2,47.307],[16.055,47.5],[16.0,47.555],[15.818,47.7],[15.8,47.718],[15.782,47.7],[15.6,47.525],[15.575,47.5],[15.4,47.421],[15.2,47.403],[15.097,47.3],[15.0,47.256],[14.8,47.248],[14.645,47.3],[14.6,47.345],[14.555,47.3],[14.4,47.25],[14.2,47.245],[14.0,47.232],[13.829,47.3],[13.8,47.329],[13.771,47.3],[13.8,47.271],[13.868,47.1],[13.8,47.057],[13.6,47.039],[13.4,47.053],[13.2,47.012],[13.088,47.1],[13.2,47.268],[13.4,47.267],[13.433,47.3],[13.4,47.333],[13.254,47.5],[13.315,47.7],[13.2,47.771],[13.02,47.7],[13.0,47.691],[12.886,47.5],[12.8,47.342],[12.6,47.417],[12.4,47.409],[12.2,47.441],[12.021,47.5],[12.2,47.591],[12.309,47.7],[12.2,47.809],[12.0,47.771],[11.929,47.7],[11.8,47.563],[11.737,47.5],[11.6,47.358],[11.5,47.5],[11.4,47.6],[11.3,47.5],[11.4,47.301],[11.403,47.3],[11.4,47.298],[11.2,47.16],[11.0,47.216],[10.884,47.1],[11.0,46.984],[11.141,46.9],[11.0,46.841],[10.8,46.764],[10.736,46.7],[10.684,46.5],[10.6,46.438],[10.523,46.5],[10.546,46.7],[10.472,46.9],[10.6,47.077],[10.623,47.1],[10.6,47.123],[10.4,47.164],[10.336,47.1],[10.282,46.9],[10.254,46.7],[10.277,46.5],[10.2,46.432],[10.0,46.396],[9.907,46.5],[9.8,46.607],[9.6,46.555],[9.532,46.5],[9.564,46.3],[9.6,46.264],[9.692,46.1],[9.8,45.992],[9.897,45.9],[9.8,45.828],[9.689,45.9],[9.6,45.989],[9.511,45.9],[9.503,45.7],[9.6,45.603],[9.8,45.572],[10.0,45.503],[10.138,45.7],[10.103,45.9],[10.2,45.976],[10.345,45.9],[10.265,45.7],[10.4,45.565],[10.6,45.524],[10.777,45.7],[10.8,45.739],[10.817,45.7],[10.943,45.5],[10.949,45.3],[11.0,45.249],[11.2,45.22],[11.314,45.3],[11.4,45.339],[11.487,45.3],[11.4,45.141],[11.377,45.1],[11.4,45.077],[11.582,44.9],[11.6,44.882],[11.769,44.7],[11.8,44.656],[11.831,44.7],[12.0,44.855],[12.2,44.775],[12.247,44.7],[12.2,44.505],[12.191,44.5],[12.2,44.495],[12.283,44.3],[12.346,44.1],[12.2,43.988],[12.085,44.1],[12.0,44.218],[11.915,44.1],[11.887,43.9],[11.993,43.7],[12.0,43.693],[12.065,43.5]]},"properties":{"probabilityThreshold":0.0715,"lengthKm":2925.4,"diagnosticOnly":true}},{"type":"Feature","geometry":{"type":"LineString","coordinates":[[7.485,43.9],[7.6,43.785],[7.758,43.9],[7.8,43.938],[7.944,43.9],[8.0,43.846],[8.2,43.851],[8.4,43.822],[8.478,43.9],[8.6,44.067],[8.633,44.1],[8.6,44.133],[8.437,44.3],[8.4,44.337],[8.2,44.309],[8.091,44.5],[8.2,44.617],[8.4,44.687],[8.413,44.7],[8.434,44.9],[8.4,44.934],[8.366,44.9],[8.2,44.783],[8.0,44.789],[7.8,44.821],[7.679,44.7],[7.655,44.5],[7.6,44.447],[7.501,44.5],[7.4,44.601],[7.308,44.7],[7.2,44.849],[7.092,44.7],[7.2,44.592],[7.299,44.5],[7.2,44.378],[7.122,44.3],[7.0,44.15],[6.95,44.1],[7.0,44.05],[7.2,44.022],[7.4,43.999],[7.485,43.9]]},"properties":{"probabilityThreshold":0.0715,"lengthKm":566.8,"diagnosticOnly":true}},{"type":"Feature","geometry":{"type":"LineString","coordinates":[[8.912,44.7],[9.0,44.612],[9.14,44.7],[9.2,44.721],[9.348,44.9],[9.4,45.096],[9.404,45.1],[9.4,45.104],[9.389,45.1],[9.2,45.078],[9.0,44.975],[8.909,45.1],[8.8,45.117],[8.783,45.1],[8.787,44.9],[8.8,44.887],[8.912,44.7]]},"properties":{"probabilityThreshold":0.0715,"lengthKm":186.6,"diagnosticOnly":true}},{"type":"Feature","geometry":{"type":"LineString","coordinates":[[5.919,44.9],[6.0,44.819],[6.2,44.809],[6.291,44.9],[6.288,45.1],[6.2,45.188],[6.112,45.1],[6.0,44.981],[5.919,44.9]]},"properties":{"probabilityThreshold":0.0715,"lengthKm":112.2,"diagnosticOnly":true}},{"type":"Feature","geometry":{"type":"LineString","coordinates":[[7.074,45.3],[7.2,45.174],[7.326,45.3],[7.4,45.434],[7.6,45.5],[7.6,45.5],[7.6,45.5],[7.4,45.566],[7.334,45.5],[7.2,45.426],[7.074,45.3]]},"properties":{"probabilityThreshold":0.0715,"lengthKm":123.9,"diagnosticOnly":true}},{"type":"Feature","geometry":{"type":"LineString","coordinates":[[6.154,45.5],[6.2,45.454],[6.246,45.5],[6.4,45.657],[6.443,45.7],[6.4,45.86],[6.2,45.749],[6.151,45.7],[6.154,45.5]]},"properties":{"probabilityThreshold":0.0715,"lengthKm":106.0,"diagnosticOnly":true}},{"type":"Feature","geometry":{"type":"LineString","coordinates":[[7.849,45.7],[8.0,45.531],[8.151,45.7],[8.2,45.854],[8.38,45.7],[8.4,45.68],[8.42,45.7],[8.479,45.9],[8.6,46.012],[8.619,46.1],[8.6,46.119],[8.4,46.166],[8.334,46.1],[8.2,45.946],[8.051,46.1],[8.0,46.151],[7.949,46.1],[7.851,45.9],[7.849,45.7]]},"properties":{"probabilityThreshold":0.0715,"lengthKm":264.2,"diagnosticOnly":true}},{"type":"Feature","geometry":{"type":"LineString","coordinates":[[20.342,46.3],[20.4,46.242],[20.458,46.3],[20.6,46.452],[20.648,46.5],[20.8,46.682],[20.818,46.7],[20.88,46.9],[20.8,46.98],[20.72,46.9],[20.6,46.762],[20.538,46.7],[20.4,46.552],[20.348,46.5],[20.342,46.3]]},"properties":{"probabilityThreshold":0.0715,"lengthKm":186.7,"diagnosticOnly":true}},{"type":"Feature","geometry":{"type":"LineString","coordinates":[[8.041,46.5],[8.2,46.341],[8.396,46.5],[8.4,46.532],[8.412,46.5],[8.6,46.388],[8.712,46.5],[8.8,46.655],[8.939,46.7],[9.0,46.825],[9.078,46.7],[9.167,46.5],[9.2,46.467],[9.243,46.5],[9.233,46.7],[9.354,46.9],[9.2,46.996],[9.0,46.914],[8.837,46.9],[8.8,46.889],[8.6,46.746],[8.4,46.761],[8.339,46.7],[8.2,46.659],[8.041,46.5]]},"properties":{"probabilityThreshold":0.0715,"lengthKm":351.8,"diagnosticOnly":true}},{"type":"Feature","geometry":{"type":"LineString","coordinates":[[12.6,46.682],[12.592,46.7],[12.4,46.857],[12.231,46.9],[12.4,47.031],[12.6,47.026],[12.737,46.9],[12.614,46.7],[12.6,46.682]]},"properties":{"probabilityThreshold":0.0715,"lengthKm":116.8,"diagnosticOnly":true}},{"type":"Feature","geometry":{"type":"LineString","coordinates":[[21.6,47.653],[21.546,47.7],[21.578,47.9],[21.575,48.1],[21.6,48.118],[21.622,48.1],[21.61,47.9],[21.616,47.7],[21.6,47.653]]},"properties":{"probabilityThreshold":0.0715,"lengthKm":105.8,"diagnosticOnly":true}},{"type":"Feature","geometry":{"type":"LineString","coordinates":[[10.508,48.1],[10.6,48.008],[10.692,48.1],[10.8,48.176],[11.0,48.158],[11.2,48.159],[11.4,48.146],[11.6,48.14],[11.8,48.172],[12.0,48.166],[12.2,48.184],[12.4,48.161],[12.6,48.225],[12.8,48.244],[12.856,48.3],[12.8,48.436],[12.6,48.397],[12.458,48.5],[12.6,48.555],[12.8,48.521],[13.0,48.573],[13.2,48.526],[13.4,48.594],[13.6,48.589],[13.669,48.5],[13.8,48.441],[13.859,48.5],[13.987,48.7],[13.8,48.75],[13.6,48.743],[13.4,48.764],[13.2,48.753],[13.0,48.796],[12.8,48.822],[12.6,48.825],[12.4,48.824],[12.2,48.839],[12.0,48.838],[11.8,48.834],[11.6,48.84],[11.4,48.847],[11.2,48.85],[11.0,48.846],[10.8,48.848],[10.6,48.858],[10.4,48.852],[10.2,48.826],[10.0,48.861],[9.8,48.807],[9.6,48.781],[9.4,48.781],[9.319,48.7],[9.4,48.619],[9.6,48.619],[9.8,48.593],[10.0,48.539],[10.066,48.5],[10.0,48.455],[9.845,48.3],[10.0,48.145],[10.2,48.161],[10.4,48.148],[10.508,48.1]]},"properties":{"probabilityThreshold":0.0715,"lengthKm":888.8,"diagnosticOnly":true}},{"type":"Feature","geometry":{"type":"LineString","coordinates":[[15.546,48.5],[15.6,48.446],[15.654,48.5],[15.629,48.7],[15.6,48.729],[15.4,48.727],[15.2,48.717],[15.0,48.736],[14.8,48.761],[14.6,48.772],[14.4,48.73],[14.2,48.727],[14.027,48.7],[14.2,48.609],[14.4,48.67],[14.6,48.628],[14.8,48.639],[15.0,48.664],[15.2,48.683],[15.4,48.673],[15.546,48.5]]},"properties":{"probabilityThreshold":0.0715,"lengthKm":286.7,"diagnosticOnly":true}}],"properties":{"forecastHour":36,"method":"xgboost-dwd-era5-icon2i-v1","threshold":0.07145121517771291,"temporalConfirmation":"2-of-3 adjacent hours","diagnosticOnly":true}}