{"type":"FeatureCollection","features":[{"type":"Feature","geometry":{"type":"LineString","coordinates":[[11.385,36.7],[11.4,36.685],[11.6,36.698],[11.602,36.7],[11.623,36.9],[11.8,37.049],[11.851,37.1],[11.8,37.151],[11.6,37.119],[11.581,37.1],[11.4,36.93],[11.37,36.9],[11.385,36.7]]},"properties":{"probabilityThreshold":0.0715,"lengthKm":151.6,"diagnosticOnly":true}},{"type":"Feature","geometry":{"type":"LineString","coordinates":[[11.352,37.3],[11.4,37.252],[11.448,37.3],[11.6,37.416],[11.8,37.439],[12.0,37.459],[12.041,37.5],[12.2,37.614],[12.4,37.66],[12.493,37.5],[12.507,37.3],[12.6,37.207],[12.693,37.3],[12.707,37.5],[12.655,37.7],[12.6,37.755],[12.5,37.9],[12.488,38.1],[12.4,38.188],[12.286,38.3],[12.2,38.386],[12.093,38.5],[12.0,38.593],[11.876,38.7],[11.878,38.9],[11.889,39.1],[11.8,39.189],[11.6,39.176],[11.465,39.3],[11.6,39.381],[11.719,39.5],[11.8,39.597],[11.903,39.7],[12.0,39.817],[12.083,39.9],[12.0,39.983],[11.8,39.997],[11.6,40.019],[11.481,39.9],[11.4,39.811],[11.2,39.769],[11.108,39.9],[11.2,39.995],[11.305,40.1],[11.4,40.256],[11.444,40.3],[11.4,40.344],[11.2,40.35],[11.0,40.364],[10.879,40.5],[11.0,40.612],[11.2,40.668],[11.232,40.7],[11.2,40.732],[11.0,40.788],[10.8,40.733],[10.671,40.9],[10.653,41.1],[10.6,41.153],[10.547,41.1],[10.4,40.924],[10.376,40.9],[10.2,40.738],[10.0,40.743],[9.8,40.797],[9.632,40.9],[9.6,40.932],[9.413,41.1],[9.4,41.113],[9.387,41.1],[9.2,40.986],[9.0,40.977],[8.814,41.1],[8.8,41.114],[8.604,41.3],[8.6,41.304],[8.596,41.3],[8.4,41.186],[8.2,41.191],[8.0,41.142],[7.8,41.158],[7.611,41.3],[7.8,41.378],[7.922,41.5],[8.0,41.639],[8.061,41.7],[8.0,41.761],[7.939,41.7],[7.8,41.622],[7.687,41.7],[7.634,41.9],[7.6,41.934],[7.468,42.1],[7.4,42.168],[7.332,42.1],[7.2,41.986],[7.0,41.987],[6.854,42.1],[6.8,42.154],[6.746,42.1],[6.6,41.986],[6.4,41.938],[6.362,41.9],[6.4,41.862],[6.541,41.7],[6.4,41.501],[6.399,41.5],[6.2,41.347],[6.083,41.5],[6.0,41.583],[5.8,41.603],[5.697,41.5],[5.6,41.351],[5.495,41.5],[5.426,41.7],[5.4,41.726],[5.27,41.9],[5.4,41.994],[5.506,42.1],[5.4,42.206],[5.2,42.13],[5.056,42.3],[5.0,42.356],[4.944,42.3],[4.963,42.1],[5.0,42.063],[5.13,41.9],[5.0,41.799],[4.834,41.9],[4.8,41.934],[4.679,42.1],[4.6,42.179],[4.521,42.1],[4.4,41.993],[4.22,42.1],[4.2,42.12],[4.019,42.3],[4.0,42.319],[3.8,42.356],[3.6,42.305],[3.595,42.3],[3.6,42.295],[3.8,42.244],[3.941,42.1],[3.8,41.941],[3.6,41.974],[3.4,41.956],[3.344,41.9],[3.4,41.844],[3.534,41.7],[3.6,41.634],[3.666,41.7],[3.8,41.859],[4.0,41.887],[4.2,41.835],[4.298,41.7],[4.4,41.598],[4.6,41.597],[4.709,41.5],[4.6,41.385],[4.515,41.3],[4.493,41.1],[4.6,40.993],[4.707,41.1],[4.8,41.231],[4.897,41.1],[4.8,40.963],[4.737,40.9],[4.752,40.7],[4.8,40.652],[5.0,40.629],[5.1,40.5],[5.2,40.4],[5.4,40.384],[5.6,40.408],[5.766,40.3],[5.8,40.266],[6.0,40.273],[6.2,40.263],[6.4,40.249],[6.53,40.1],[6.6,40.03],[6.8,40.009],[6.945,39.9],[7.0,39.845],[7.055,39.9],[7.089,40.1],[7.078,40.3],[7.2,40.433],[7.4,40.419],[7.512,40.3],[7.6,40.212],[7.8,40.164],[8.0,40.188],[8.2,40.189],[8.302,40.1],[8.31,39.9],[8.4,39.81],[8.6,39.767],[8.71,39.7],[8.685,39.5],[8.6,39.356],[8.544,39.3],[8.6,39.244],[8.8,39.182],[9.0,39.244],[9.104,39.1],[9.2,39.004],[9.4,39.044],[9.6,39.019],[9.681,39.1],[9.718,39.3],[9.8,39.41],[9.913,39.3],[10.0,39.213],[10.088,39.1],[10.2,38.988],[10.364,38.9],[10.366,38.7],[10.4,38.666],[10.434,38.7],[10.6,38.878],[10.751,38.7],[10.761,38.5],[10.8,38.461],[10.973,38.3],[11.0,38.273],[11.2,38.232],[11.298,38.1],[11.2,37.994],[11.106,37.9],[11.143,37.7],[11.113,37.5],[11.2,37.413],[11.352,37.3]]},"properties":{"probabilityThreshold":0.0715,"lengthKm":3498.1,"diagnosticOnly":true}},{"type":"Feature","geometry":{"type":"LineString","coordinates":[[10.8,39.168],[10.675,39.3],[10.6,39.375],[10.512,39.5],[10.4,39.612],[10.32,39.7],[10.306,39.9],[10.29,40.1],[10.2,40.19],[10.108,40.3],[10.2,40.407],[10.293,40.5],[10.4,40.649],[10.6,40.684],[10.721,40.5],[10.6,40.362],[10.4,40.37],[10.33,40.3],[10.4,40.23],[10.522,40.1],[10.6,40.022],[10.708,39.9],[10.768,39.7],[10.799,39.5],[10.8,39.499],[10.961,39.3],[10.8,39.168]]},"properties":{"probabilityThreshold":0.0715,"lengthKm":420.8,"diagnosticOnly":true}},{"type":"Feature","geometry":{"type":"LineString","coordinates":[[3.941,41.1],[4.0,41.041],[4.2,41.046],[4.254,41.1],[4.275,41.3],[4.2,41.375],[4.0,41.381],[3.873,41.5],[3.8,41.573],[3.727,41.5],[3.764,41.3],[3.8,41.264],[3.941,41.1]]},"properties":{"probabilityThreshold":0.0715,"lengthKm":167.8,"diagnosticOnly":true}},{"type":"Feature","geometry":{"type":"LineString","coordinates":[[6.2,41.02],[6.041,41.1],[6.2,41.253],[6.4,41.262],[6.438,41.3],[6.6,41.42],[6.756,41.3],[6.6,41.131],[6.569,41.1],[6.4,40.906],[6.2,41.02]]},"properties":{"probabilityThreshold":0.0715,"lengthKm":171.0,"diagnosticOnly":true}},{"type":"Feature","geometry":{"type":"LineString","coordinates":[[7.4,41.315],[7.269,41.5],[7.2,41.569],[7.0,41.613],[6.836,41.7],[7.0,41.813],[7.2,41.814],[7.32,41.7],[7.4,41.62],[7.502,41.5],[7.4,41.315]]},"properties":{"probabilityThreshold":0.0715,"lengthKm":167.1,"diagnosticOnly":true}},{"type":"Feature","geometry":{"type":"LineString","coordinates":[[3.0,42.398],[3.102,42.5],[3.2,42.626],[3.346,42.5],[3.4,42.446],[3.454,42.5],[3.6,42.657],[3.643,42.7],[3.6,42.743],[3.4,42.75],[3.2,42.774],[3.0,42.789]]},"properties":{"probabilityThreshold":0.0715,"lengthKm":145.7,"diagnosticOnly":true}}],"properties":{"forecastHour":72,"method":"xgboost-dwd-era5-icon2i-v1","threshold":0.07145121517771291,"temporalConfirmation":"2-of-3 adjacent hours","diagnosticOnly":true}}