{"type":"FeatureCollection","features":[{"type":"Feature","geometry":{"type":"LineString","coordinates":[[8.943,36.9],[9.0,36.843],[9.2,36.853],[9.4,36.866],[9.434,36.9],[9.432,37.1],[9.423,37.3],[9.4,37.323],[9.377,37.3],[9.368,37.1],[9.2,36.947],[9.045,37.1],[9.0,37.145],[8.8,37.182],[8.6,37.148],[8.4,37.176],[8.324,37.1],[8.4,37.024],[8.6,37.052],[8.8,37.018],[8.943,36.9]]},"properties":{"probabilityThreshold":0.0715,"lengthKm":302.5,"diagnosticOnly":true}},{"type":"Feature","geometry":{"type":"LineString","coordinates":[[21.794,38.3],[21.8,38.294],[21.806,38.3],[21.866,38.5],[21.899,38.7],[21.852,38.9],[21.905,39.1],[21.88,39.3],[21.881,39.5],[21.906,39.7],[21.898,39.9],[21.8,39.998],[21.702,39.9],[21.694,39.7],[21.719,39.5],[21.72,39.3],[21.695,39.1],[21.748,38.9],[21.701,38.7],[21.734,38.5],[21.794,38.3]]},"properties":{"probabilityThreshold":0.0715,"lengthKm":386.7,"diagnosticOnly":true}},{"type":"Feature","geometry":{"type":"LineString","coordinates":[[3.783,38.7],[3.8,38.683],[4.0,38.658],[4.2,38.679],[4.4,38.689],[4.411,38.7],[4.6,38.833],[4.8,38.836],[5.0,38.8],[5.2,38.801],[5.4,38.822],[5.6,38.813],[5.8,38.828],[6.0,38.81],[6.09,38.9],[6.037,39.1],[6.0,39.137],[5.918,39.3],[5.8,39.418],[5.69,39.5],[5.6,39.59],[5.4,39.578],[5.322,39.5],[5.2,39.339],[5.0,39.321],[4.891,39.3],[4.8,39.287],[4.782,39.3],[4.8,39.387],[4.823,39.5],[4.8,39.523],[4.6,39.512],[4.588,39.5],[4.4,39.392],[4.2,39.367],[4.133,39.3],[4.127,39.1],[4.113,38.9],[4.0,38.742],[3.817,38.9],[3.8,38.917],[3.783,38.9],[3.783,38.7]]},"properties":{"probabilityThreshold":0.0715,"lengthKm":594.6,"diagnosticOnly":true}},{"type":"Feature","geometry":{"type":"LineString","coordinates":[[7.977,38.7],[8.0,38.677],[8.023,38.7],[8.2,38.818],[8.4,38.856],[8.6,38.816],[8.684,38.9],[8.6,38.984],[8.4,38.944],[8.2,38.982],[8.0,38.967],[7.8,38.954],[7.672,39.1],[7.8,39.2],[8.0,39.226],[8.074,39.3],[8.0,39.374],[7.8,39.4],[7.6,39.388],[7.512,39.3],[7.4,39.131],[7.369,39.1],[7.4,39.069],[7.468,38.9],[7.6,38.768],[7.8,38.846],[7.977,38.7]]},"properties":{"probabilityThreshold":0.0715,"lengthKm":386.3,"diagnosticOnly":true}},{"type":"Feature","geometry":{"type":"LineString","coordinates":[[6.896,38.9],[7.0,38.796],[7.2,38.784],[7.316,38.9],[7.2,39.016],[7.1,39.1],[7.0,39.2],[6.8,39.155],[6.745,39.1],[6.8,39.045],[6.896,38.9]]},"properties":{"probabilityThreshold":0.0715,"lengthKm":142.7,"diagnosticOnly":true}},{"type":"Feature","geometry":{"type":"LineString","coordinates":[[21.779,40.3],[21.8,40.279],[21.821,40.3],[21.821,40.5],[21.901,40.7],[21.884,40.9],[21.937,41.1],[21.935,41.3],[21.944,41.5],[21.948,41.7],[21.948,41.9],[21.947,42.1],[21.946,42.3],[21.945,42.5],[21.921,42.7],[21.922,42.9],[21.8,43.022],[21.6,42.987],[21.513,42.9],[21.4,42.835],[21.273,42.9],[21.2,42.973],[21.0,43.048],[20.8,43.098],[20.6,43.038],[20.518,43.1],[20.4,43.218],[20.247,43.1],[20.2,42.958],[20.105,42.9],[20.0,42.859],[19.967,42.9],[19.959,43.1],[19.8,43.251],[19.646,43.1],[19.698,42.9],[19.6,42.76],[19.54,42.7],[19.596,42.5],[19.6,42.496],[19.79,42.3],[19.6,42.213],[19.4,42.203],[19.23,42.3],[19.2,42.33],[19.0,42.349],[18.8,42.377],[18.6,42.377],[18.457,42.5],[18.4,42.557],[18.252,42.7],[18.2,42.752],[18.039,42.9],[18.0,42.939],[17.961,42.9],[17.8,42.805],[17.695,42.7],[17.8,42.595],[17.86,42.5],[17.867,42.3],[17.925,42.1],[18.0,42.025],[18.2,42.084],[18.4,42.011],[18.6,42.048],[18.733,41.9],[18.8,41.833],[18.994,41.7],[19.0,41.694],[19.006,41.7],[19.2,41.795],[19.383,41.7],[19.399,41.5],[19.4,41.499],[19.401,41.5],[19.6,41.626],[19.778,41.5],[19.8,41.478],[19.822,41.5],[20.0,41.667],[20.055,41.5],[20.2,41.355],[20.264,41.3],[20.4,41.164],[20.6,41.175],[20.783,41.1],[20.771,40.9],[20.8,40.871],[20.992,40.7],[21.0,40.692],[21.008,40.7],[21.2,40.788],[21.4,40.853],[21.6,40.777],[21.699,40.7],[21.779,40.5],[21.779,40.3]]},"properties":{"probabilityThreshold":0.0715,"lengthKm":1484.0,"diagnosticOnly":true}},{"type":"Feature","geometry":{"type":"LineString","coordinates":[[18.763,42.7],[18.8,42.607],[19.0,42.607],[19.2,42.636],[19.264,42.7],[19.4,42.873],[19.427,42.9],[19.4,42.927],[19.2,42.923],[19.0,42.953],[18.8,42.999],[18.701,42.9],[18.763,42.7]]},"properties":{"probabilityThreshold":0.0715,"lengthKm":168.6,"diagnosticOnly":true}},{"type":"Feature","geometry":{"type":"LineString","coordinates":[[3.0,43.018],[3.2,43.034],[3.375,42.9],[3.4,42.875],[3.6,42.791],[3.709,42.9],[3.6,43.009],[3.503,43.1],[3.4,43.203],[3.326,43.3],[3.348,43.5],[3.253,43.7],[3.4,43.815],[3.586,43.9],[3.4,44.093],[3.379,44.1],[3.4,44.126],[3.58,44.3],[3.6,44.32],[3.8,44.423],[3.871,44.3],[3.8,44.159],[3.741,44.1],[3.612,43.9],[3.8,43.807],[3.893,43.9],[4.0,43.982],[4.2,44.052],[4.248,44.1],[4.4,44.229],[4.6,44.204],[4.8,44.25],[4.85,44.3],[5.0,44.355],[5.2,44.382],[5.4,44.418],[5.6,44.453],[5.647,44.5],[5.617,44.7],[5.6,44.717],[5.4,44.764],[5.336,44.7],[5.2,44.618],[5.119,44.7],[5.0,44.819],[4.8,44.847],[4.602,44.9],[4.6,44.902],[4.598,44.9],[4.4,44.853],[4.2,44.839],[4.001,44.9],[4.2,45.054],[4.246,45.1],[4.4,45.151],[4.6,45.295],[4.605,45.3],[4.658,45.5],[4.6,45.558],[4.44,45.5],[4.4,45.493],[4.387,45.5],[4.4,45.555],[4.443,45.7],[4.4,45.743],[4.2,45.819],[4.113,45.9],[4.07,46.1],[4.095,46.3],[4.0,46.395],[3.8,46.349],[3.6,46.316],[3.584,46.3],[3.6,46.284],[3.8,46.251],[3.93,46.1],[3.8,45.94],[3.76,45.9],[3.8,45.86],[3.918,45.7],[3.913,45.5],[3.8,45.401],[3.666,45.5],[3.705,45.7],[3.6,45.805],[3.433,45.9],[3.4,45.933],[3.367,45.9],[3.2,45.793],[3.107,45.7],[3.023,45.5],[3.0,45.439]]},"properties":{"probabilityThreshold":0.0715,"lengthKm":1243.4,"diagnosticOnly":true}},{"type":"Feature","geometry":{"type":"LineString","coordinates":[[10.291,43.1],[10.4,42.991],[10.509,43.1],[10.47,43.3],[10.482,43.5],[10.4,43.582],[10.2,43.637],[10.009,43.7],[10.0,43.709],[9.948,43.9],[9.8,44.048],[9.652,43.9],[9.6,43.81],[9.513,43.9],[9.519,44.1],[9.4,44.219],[9.2,44.218],[9.001,44.1],[9.0,44.096],[8.985,44.1],[8.8,44.117],[8.632,44.3],[8.684,44.5],[8.6,44.584],[8.483,44.7],[8.576,44.9],[8.6,44.935],[8.624,44.9],[8.8,44.774],[9.0,44.857],[9.2,44.831],[9.4,44.821],[9.6,44.834],[9.8,44.766],[9.988,44.7],[10.0,44.688],[10.012,44.7],[10.2,44.785],[10.347,44.7],[10.4,44.647],[10.564,44.5],[10.6,44.464],[10.8,44.452],[11.0,44.483],[11.2,44.392],[11.4,44.494],[11.406,44.5],[11.4,44.506],[11.262,44.7],[11.219,44.9],[11.4,44.945],[11.543,44.9],[11.6,44.843],[11.657,44.9],[11.8,45.03],[12.0,45.015],[12.2,44.954],[12.284,44.9],[12.4,44.81],[12.6,44.842],[12.8,44.783],[13.0,44.764],[13.143,44.7],[13.2,44.643],[13.382,44.5],[13.4,44.482],[13.6,44.484],[13.7,44.5],[13.8,44.51],[13.809,44.5],[14.0,44.328],[14.043,44.3],[14.2,44.149],[14.4,44.183],[14.586,44.1],[14.6,44.086],[14.8,44.092],[14.808,44.1],[14.8,44.108],[14.641,44.3],[14.611,44.5],[14.8,44.542],[15.0,44.542],[15.075,44.5],[15.2,44.375],[15.4,44.467],[15.433,44.5],[15.429,44.7],[15.4,44.729],[15.334,44.9],[15.2,45.034],[15.129,45.1],[15.073,45.3],[15.2,45.408],[15.4,45.381],[15.6,45.35],[15.8,45.365],[16.0,45.397],[16.128,45.3],[16.2,45.228],[16.4,45.222],[16.6,45.221],[16.679,45.3],[16.637,45.5],[16.8,45.625],[16.915,45.5],[17.0,45.415],[17.172,45.5],[17.2,45.514],[17.4,45.55],[17.442,45.5],[17.6,45.404],[17.696,45.5],[17.611,45.7],[17.8,45.857],[17.843,45.9],[17.877,46.1],[17.8,46.177],[17.627,46.3],[17.8,46.4],[18.0,46.407],[18.2,46.42],[18.388,46.5],[18.4,46.517],[18.449,46.5],[18.6,46.476],[18.624,46.5],[18.6,46.544],[18.5,46.7],[18.4,46.764],[18.265,46.9],[18.381,47.1],[18.2,47.169],[18.035,47.3],[18.0,47.335],[17.8,47.353],[17.636,47.5],[17.6,47.536],[17.438,47.5],[17.4,47.44],[17.333,47.5],[17.4,47.635],[17.405,47.7],[17.4,47.705],[17.211,47.9],[17.2,47.911],[17.0,47.924],[16.8,47.968],[16.6,47.948],[16.4,47.966],[16.334,47.9],[16.2,47.838],[16.0,47.809],[15.8,47.76],[15.74,47.7],[15.6,47.639],[15.498,47.7],[15.6,47.82],[15.68,47.9],[15.8,47.994],[15.906,48.1],[15.8,48.224],[15.6,48.155],[15.4,48.276],[15.2,48.146],[15.092,48.3],[15.0,48.392],[14.908,48.3],[14.8,48.237],[14.662,48.3],[14.6,48.362],[14.4,48.342],[14.2,48.387],[14.0,48.367],[13.8,48.369],[13.6,48.324],[13.4,48.366],[13.2,48.324],[13.176,48.3],[13.0,48.259],[12.8,48.253],[12.6,48.247],[12.4,48.245],[12.255,48.1],[12.2,48.035],[12.0,48.032],[11.8,48.013],[11.611,48.1],[11.6,48.111],[11.4,48.107],[11.393,48.1],[11.2,47.985],[11.0,48.001],[10.8,47.998],[10.6,47.972],[10.4,47.915],[10.2,47.926],[10.053,48.1],[10.0,48.153],[9.947,48.1],[9.8,47.931],[9.6,47.971],[9.4,47.931],[9.369,47.9],[9.2,47.745],[9.024,47.9],[9.0,47.924],[8.976,47.9],[8.8,47.789],[8.6,47.739],[8.4,47.721],[8.2,47.774],[8.126,47.7],[8.198,47.5],[8.2,47.498],[8.202,47.5],[8.4,47.679],[8.6,47.661],[8.8,47.569],[9.0,47.623],[9.2,47.655],[9.378,47.5],[9.2,47.381],[9.0,47.325],[8.8,47.379],[8.757,47.3],[8.794,47.1],[8.8,47.094],[8.981,46.9],[8.8,46.827],[8.6,46.79],[8.51,46.7],[8.4,46.53],[8.2,46.587],[8.113,46.5],[8.2,46.413],[8.395,46.3],[8.2,46.177],[8.008,46.1],[8.0,46.096],[7.8,46.029],[7.671,45.9],[7.8,45.771],[7.845,45.7],[7.8,45.539],[7.6,45.502],[7.598,45.5],[7.6,45.498],[7.8,45.438],[8.0,45.453],[8.047,45.5],[8.2,45.581],[8.4,45.555],[8.599,45.5],[8.4,45.446],[8.23,45.3],[8.2,45.262],[8.0,45.233],[7.867,45.1],[7.8,44.998],[7.702,44.9],[7.6,44.837],[7.526,44.9],[7.476,45.1],[7.518,45.3],[7.4,45.418],[7.2,45.433],[7.085,45.5],[7.0,45.585],[6.915,45.5],[7.0,45.415],[7.067,45.3],[7.066,45.1],[7.044,44.9],[7.053,44.7],[7.07,44.5],[7.065,44.3],[7.0,44.243],[6.8,44.248],[6.652,44.1],[6.657,43.9],[6.674,43.7],[6.8,43.574],[6.995,43.5],[7.0,43.495],[7.005,43.5],[7.2,43.588],[7.4,43.676],[7.6,43.699],[7.8,43.615],[8.0,43.692],[8.2,43.59],[8.4,43.6],[8.512,43.5],[8.6,43.412],[8.8,43.4],[9.0,43.419],[9.2,43.383],[9.4,43.39],[9.6,43.377],[9.8,43.369],[9.931,43.5],[10.0,43.691],[10.063,43.5],[10.2,43.363],[10.33,43.3],[10.291,43.1]]},"properties":{"probabilityThreshold":0.0715,"lengthKm":4364.1,"diagnosticOnly":true}},{"type":"Feature","geometry":{"type":"LineString","coordinates":[[18.96,43.5],[19.0,43.46],[19.2,43.473],[19.4,43.348],[19.6,43.472],[19.612,43.5],[19.6,43.512],[19.4,43.587],[19.31,43.7],[19.2,43.81],[19.09,43.7],[19.0,43.54],[18.96,43.5]]},"properties":{"probabilityThreshold":0.0715,"lengthKm":156.4,"diagnosticOnly":true}},{"type":"Feature","geometry":{"type":"LineString","coordinates":[[3.6,44.53],[3.495,44.7],[3.6,44.863],[3.8,44.825],[4.0,44.899],[4.061,44.7],[4.0,44.562],[3.8,44.577],[3.6,44.53]]},"properties":{"probabilityThreshold":0.0715,"lengthKm":145.6,"diagnosticOnly":true}},{"type":"Feature","geometry":{"type":"LineString","coordinates":[[5.9,45.3],[6.0,45.2],[6.1,45.3],[6.2,45.378],[6.322,45.5],[6.2,45.622],[6.078,45.5],[6.0,45.4],[5.9,45.3]]},"properties":{"probabilityThreshold":0.0715,"lengthKm":114.6,"diagnosticOnly":true}},{"type":"Feature","geometry":{"type":"LineString","coordinates":[[5.505,45.5],[5.6,45.405],[5.8,45.429],[5.871,45.5],[5.8,45.688],[5.791,45.7],[5.8,45.713],[6.0,45.834],[6.113,45.9],[6.2,45.943],[6.378,45.9],[6.359,45.7],[6.4,45.659],[6.6,45.573],[6.665,45.7],[6.8,45.851],[7.0,45.812],[7.088,45.9],[7.061,46.1],[7.0,46.188],[6.979,46.1],[6.8,45.949],[6.677,46.1],[6.8,46.212],[6.968,46.3],[6.8,46.388],[6.739,46.5],[6.8,46.65],[7.0,46.669],[7.031,46.7],[7.02,46.9],[7.0,46.92],[6.98,46.9],[6.8,46.75],[6.6,46.829],[6.471,46.7],[6.4,46.582],[6.2,46.542],[6.135,46.7],[6.2,46.799],[6.4,46.886],[6.414,46.9],[6.4,46.914],[6.2,47.001],[6.0,47.029],[5.829,47.1],[5.8,47.129],[5.6,47.202],[5.4,47.227],[5.2,47.204],[5.0,47.166],[4.8,47.144],[4.756,47.1],[4.6,46.975],[4.525,46.9],[4.4,46.787],[4.201,46.9],[4.2,46.901],[4.199,46.9],[4.193,46.7],[4.2,46.693],[4.4,46.613],[4.566,46.5],[4.6,46.466],[4.634,46.5],[4.8,46.59],[4.891,46.5],[4.911,46.3],[4.939,46.1],[4.982,45.9],[5.0,45.882],[5.018,45.9],[5.2,45.988],[5.31,45.9],[5.4,45.81],[5.514,45.7],[5.505,45.5]]},"properties":{"probabilityThreshold":0.0715,"lengthKm":1022.9,"diagnosticOnly":true}},{"type":"Feature","geometry":{"type":"LineString","coordinates":[[7.366,46.3],[7.4,46.266],[7.6,46.192],[7.777,46.3],[7.643,46.5],[7.6,46.543],[7.4,46.611],[7.289,46.5],[7.366,46.3]]},"properties":{"probabilityThreshold":0.0715,"lengthKm":125.2,"diagnosticOnly":true}},{"type":"Feature","geometry":{"type":"LineString","coordinates":[[9.0,46.38],[8.817,46.5],[9.0,46.653],[9.2,46.647],[9.395,46.5],[9.2,46.357],[9.0,46.38]]},"properties":{"probabilityThreshold":0.0715,"lengthKm":116.1,"diagnosticOnly":true}},{"type":"Feature","geometry":{"type":"LineString","coordinates":[[3.753,46.9],[3.8,46.853],[3.847,46.9],[4.0,47.048],[4.052,47.1],[4.0,47.152],[3.876,47.3],[3.8,47.376],[3.6,47.375],[3.525,47.3],[3.518,47.1],[3.6,47.018],[3.753,46.9]]},"properties":{"probabilityThreshold":0.0715,"lengthKm":151.4,"diagnosticOnly":true}},{"type":"Feature","geometry":{"type":"LineString","coordinates":[[10.0,46.754],[9.848,46.9],[10.0,47.02],[10.2,46.998],[10.354,46.9],[10.2,46.826],[10.0,46.754]]},"properties":{"probabilityThreshold":0.0715,"lengthKm":100.3,"diagnosticOnly":true}},{"type":"Feature","geometry":{"type":"LineString","coordinates":[[18.469,47.1],[18.6,47.081],[18.8,46.992],[18.908,47.1],[19.0,47.177],[19.123,47.3],[19.0,47.423],[18.8,47.338],[18.667,47.3],[18.6,47.195],[18.469,47.1]]},"properties":{"probabilityThreshold":0.0715,"lengthKm":142.3,"diagnosticOnly":true}},{"type":"Feature","geometry":{"type":"LineString","coordinates":[[18.37,47.5],[18.4,47.382],[18.43,47.5],[18.43,47.7],[18.4,47.73],[18.244,47.9],[18.2,47.944],[18.156,47.9],[18.0,47.722],[17.978,47.7],[18.0,47.678],[18.2,47.681],[18.37,47.5]]},"properties":{"probabilityThreshold":0.0715,"lengthKm":153.8,"diagnosticOnly":true}},{"type":"Feature","geometry":{"type":"LineString","coordinates":[[21.683,47.7],[21.8,47.583],[21.917,47.7],[21.91,47.9],[21.903,48.1],[21.871,48.3],[21.8,48.371],[21.729,48.3],[21.6,48.11],[21.516,48.3],[21.4,48.416],[21.284,48.3],[21.2,48.187],[21.113,48.1],[21.2,48.013],[21.4,47.986],[21.51,47.9],[21.6,47.81],[21.683,47.7]]},"properties":{"probabilityThreshold":0.0715,"lengthKm":282.9,"diagnosticOnly":true}},{"type":"Feature","geometry":{"type":"LineString","coordinates":[[10.991,48.7],[11.0,48.691],[11.2,48.678],[11.4,48.665],[11.6,48.657],[11.8,48.652],[12.0,48.693],[12.007,48.7],[12.0,48.707],[11.8,48.748],[11.6,48.743],[11.4,48.735],[11.2,48.722],[11.0,48.709],[10.991,48.7]]},"properties":{"probabilityThreshold":0.0715,"lengthKm":153.1,"diagnosticOnly":true}}],"properties":{"forecastHour":48,"method":"xgboost-dwd-era5-icon2i-v1","threshold":0.07145121517771291,"temporalConfirmation":"2-of-3 adjacent hours","diagnosticOnly":true}}