{"type":"FeatureCollection","features":[{"type":"Feature","geometry":{"type":"LineString","coordinates":[[11.767,36.7],[11.8,36.667],[11.833,36.7],[11.835,36.9],[11.877,37.1],[11.8,37.177],[11.6,37.181],[11.519,37.1],[11.6,37.019],[11.765,36.9],[11.767,36.7]]},"properties":{"probabilityThreshold":0.0715,"lengthKm":147.6,"diagnosticOnly":true}},{"type":"Feature","geometry":{"type":"LineString","coordinates":[[21.738,36.9],[21.8,36.838],[21.862,36.9],[21.844,37.1],[21.837,37.3],[21.8,37.337],[21.763,37.3],[21.756,37.1],[21.738,36.9]]},"properties":{"probabilityThreshold":0.0715,"lengthKm":116.7,"diagnosticOnly":true}},{"type":"Feature","geometry":{"type":"LineString","coordinates":[[4.775,37.9],[4.8,37.875],[4.825,37.9],[4.804,38.1],[4.924,38.3],[5.0,38.375],[5.2,38.474],[5.4,38.441],[5.6,38.464],[5.636,38.5],[5.8,38.693],[6.0,38.678],[6.022,38.7],[6.0,38.722],[5.8,38.707],[5.6,38.709],[5.591,38.7],[5.4,38.559],[5.281,38.7],[5.205,38.9],[5.2,38.905],[5.195,38.9],[5.0,38.769],[4.8,38.803],[4.6,38.773],[4.4,38.74],[4.2,38.73],[4.17,38.7],[4.2,38.67],[4.4,38.66],[4.58,38.5],[4.543,38.3],[4.597,38.1],[4.6,38.097],[4.775,37.9]]},"properties":{"probabilityThreshold":0.0715,"lengthKm":491.6,"diagnosticOnly":true}},{"type":"Feature","geometry":{"type":"LineString","coordinates":[[21.741,38.3],[21.8,38.135],[21.859,38.3],[21.828,38.5],[21.8,38.662],[21.772,38.5],[21.741,38.3]]},"properties":{"probabilityThreshold":0.0715,"lengthKm":118.6,"diagnosticOnly":true}},{"type":"Feature","geometry":{"type":"LineString","coordinates":[[9.142,38.5],[9.2,38.442],[9.4,38.418],[9.6,38.426],[9.674,38.5],[9.6,38.574],[9.4,38.582],[9.2,38.558],[9.142,38.5]]},"properties":{"probabilityThreshold":0.0715,"lengthKm":107.1,"diagnosticOnly":true}},{"type":"Feature","geometry":{"type":"LineString","coordinates":[[21.773,38.9],[21.8,38.741],[21.827,38.9],[21.845,39.1],[21.8,39.193],[21.755,39.1],[21.773,38.9]]},"properties":{"probabilityThreshold":0.0715,"lengthKm":101.9,"diagnosticOnly":true}},{"type":"Feature","geometry":{"type":"LineString","coordinates":[[21.705,39.9],[21.8,39.773],[21.895,39.9],[21.91,40.1],[21.93,40.3],[21.923,40.5],[21.917,40.7],[21.859,40.9],[21.949,41.1],[21.91,41.3],[21.887,41.5],[21.932,41.7],[21.947,41.9],[21.938,42.1],[21.925,42.3],[21.954,42.5],[21.941,42.7],[21.889,42.9],[21.8,42.989],[21.6,42.998],[21.502,42.9],[21.4,42.79],[21.2,42.765],[21.0,42.741],[20.8,42.769],[20.782,42.9],[20.6,43.0],[20.5,42.9],[20.4,42.758],[20.342,42.7],[20.2,42.52],[20.18,42.5],[20.095,42.3],[20.164,42.1],[20.2,42.064],[20.357,41.9],[20.372,41.7],[20.2,41.546],[20.0,41.526],[19.8,41.626],[19.724,41.7],[19.733,41.9],[19.6,42.033],[19.4,42.005],[19.287,42.1],[19.234,42.3],[19.2,42.334],[19.166,42.3],[19.113,42.1],[19.0,42.016],[18.901,42.1],[18.8,42.201],[18.69,42.3],[18.6,42.39],[18.52,42.5],[18.4,42.62],[18.2,42.63],[18.0,42.608],[17.8,42.578],[17.6,42.58],[17.52,42.5],[17.6,42.42],[17.8,42.422],[17.881,42.3],[17.983,42.1],[17.963,41.9],[18.0,41.863],[18.101,41.7],[18.2,41.601],[18.241,41.5],[18.4,41.341],[18.505,41.3],[18.6,41.205],[18.8,41.241],[18.859,41.3],[19.0,41.406],[19.2,41.433],[19.348,41.3],[19.4,41.248],[19.6,41.256],[19.748,41.1],[19.8,41.048],[20.0,41.018],[20.06,40.9],[20.2,40.76],[20.253,40.7],[20.319,40.5],[20.4,40.419],[20.481,40.5],[20.547,40.7],[20.409,40.9],[20.6,40.991],[20.746,40.9],[20.8,40.742],[20.867,40.7],[20.91,40.5],[21.0,40.41],[21.2,40.386],[21.35,40.3],[21.4,40.25],[21.45,40.3],[21.6,40.386],[21.67,40.3],[21.69,40.1],[21.705,39.9]]},"properties":{"probabilityThreshold":0.0715,"lengthKm":1717.9,"diagnosticOnly":true}},{"type":"Feature","geometry":{"type":"LineString","coordinates":[[20.6,41.885],[20.531,41.9],[20.514,42.1],[20.6,42.277],[20.703,42.3],[20.8,42.329],[21.0,42.429],[21.138,42.3],[21.0,42.111],[20.989,42.1],[20.8,41.99],[20.63,41.9],[20.6,41.885]]},"properties":{"probabilityThreshold":0.0715,"lengthKm":169.8,"diagnosticOnly":true}},{"type":"Feature","geometry":{"type":"LineString","coordinates":[[11.716,42.7],[11.8,42.616],[12.0,42.635],[12.065,42.7],[12.2,42.811],[12.289,42.9],[12.4,43.066],[12.6,43.071],[12.629,43.1],[12.6,43.129],[12.4,43.134],[12.231,43.3],[12.2,43.331],[12.0,43.336],[11.964,43.3],[11.982,43.1],[11.945,42.9],[11.8,42.784],[11.716,42.7]]},"properties":{"probabilityThreshold":0.0715,"lengthKm":248.4,"diagnosticOnly":true}},{"type":"Feature","geometry":{"type":"LineString","coordinates":[[12.78,42.9],[12.8,42.88],[13.0,42.867],[13.033,42.9],[13.2,43.038],[13.262,43.1],[13.2,43.162],[13.0,43.191],[12.909,43.1],[12.8,42.92],[12.78,42.9]]},"properties":{"probabilityThreshold":0.0715,"lengthKm":114.7,"diagnosticOnly":true}},{"type":"Feature","geometry":{"type":"LineString","coordinates":[[19.787,42.9],[19.8,42.887],[20.0,42.855],[20.045,42.9],[20.2,42.991],[20.4,43.07],[20.43,43.1],[20.4,43.13],[20.22,43.3],[20.2,43.32],[20.0,43.307],[19.908,43.5],[19.8,43.608],[19.6,43.564],[19.4,43.559],[19.341,43.5],[19.336,43.3],[19.4,43.236],[19.464,43.3],[19.6,43.436],[19.774,43.3],[19.72,43.1],[19.787,42.9]]},"properties":{"probabilityThreshold":0.0715,"lengthKm":313.2,"diagnosticOnly":true}},{"type":"Feature","geometry":{"type":"LineString","coordinates":[[15.389,43.1],[15.4,43.089],[15.6,43.03],[15.67,43.1],[15.681,43.3],[15.8,43.398],[15.902,43.5],[15.8,43.602],[15.653,43.7],[15.6,43.753],[15.4,43.756],[15.2,43.799],[15.155,43.9],[15.2,44.051],[15.249,44.1],[15.4,44.222],[15.469,44.1],[15.6,43.969],[15.725,43.9],[15.8,43.825],[15.875,43.9],[15.8,43.975],[15.731,44.1],[15.6,44.231],[15.478,44.3],[15.4,44.414],[15.2,44.352],[15.148,44.3],[15.0,44.219],[14.942,44.3],[14.8,44.442],[14.734,44.5],[14.8,44.557],[14.943,44.7],[15.0,44.868],[15.032,44.9],[15.0,44.98],[14.951,45.1],[15.0,45.123],[15.161,45.1],[15.2,45.087],[15.4,44.955],[15.6,44.959],[15.626,44.9],[15.8,44.795],[16.0,44.858],[16.042,44.9],[16.2,44.944],[16.372,44.9],[16.335,44.7],[16.4,44.635],[16.465,44.7],[16.6,44.895],[16.8,44.888],[16.812,44.9],[17.0,45.004],[17.189,44.9],[17.2,44.889],[17.4,44.851],[17.449,44.9],[17.6,45.032],[17.8,45.065],[17.835,45.1],[18.0,45.238],[18.2,45.211],[18.4,45.196],[18.6,45.244],[18.656,45.3],[18.732,45.5],[18.8,45.565],[18.935,45.7],[18.931,45.9],[18.848,46.1],[18.8,46.148],[18.6,46.227],[18.4,46.219],[18.335,46.3],[18.24,46.5],[18.2,46.54],[18.0,46.629],[17.8,46.629],[17.741,46.7],[17.634,46.9],[17.6,46.934],[17.4,47.008],[17.316,47.1],[17.2,47.216],[17.027,47.3],[17.0,47.327],[16.827,47.5],[16.8,47.527],[16.6,47.552],[16.4,47.595],[16.2,47.621],[16.0,47.604],[15.8,47.539],[15.6,47.523],[15.577,47.5],[15.4,47.454],[15.326,47.5],[15.2,47.626],[15.091,47.7],[15.0,47.791],[14.8,47.801],[14.6,47.838],[14.4,47.892],[14.2,47.819],[14.0,47.828],[13.8,47.864],[13.731,47.9],[13.6,47.982],[13.518,47.9],[13.4,47.82],[13.2,47.788],[13.0,47.767],[12.8,47.729],[12.6,47.831],[12.4,47.774],[12.2,47.771],[12.0,47.81],[11.89,47.7],[11.8,47.535],[11.765,47.5],[11.6,47.42],[11.408,47.5],[11.4,47.508],[11.392,47.5],[11.2,47.316],[11.0,47.355],[10.8,47.368],[10.6,47.382],[10.4,47.407],[10.2,47.402],[10.0,47.32],[9.8,47.366],[9.6,47.362],[9.4,47.304],[9.396,47.3],[9.4,47.296],[9.598,47.1],[9.4,46.978],[9.322,46.9],[9.4,46.822],[9.6,46.872],[9.628,46.9],[9.8,47.0],[9.9,47.1],[10.0,47.28],[10.19,47.1],[10.2,47.09],[10.293,46.9],[10.4,46.75],[10.489,46.7],[10.6,46.635],[10.665,46.7],[10.8,46.782],[11.0,46.758],[11.14,46.7],[11.0,46.619],[10.8,46.544],[10.756,46.5],[10.6,46.43],[10.47,46.3],[10.4,46.142],[10.26,46.3],[10.2,46.36],[10.14,46.3],[10.0,46.119],[9.8,46.171],[9.6,46.125],[9.575,46.1],[9.449,45.9],[9.4,45.83],[9.2,45.817],[9.0,45.79],[8.882,45.9],[8.8,45.945],[8.755,45.9],[8.6,45.77],[8.4,45.777],[8.306,45.9],[8.2,46.006],[8.094,45.9],[8.0,45.806],[7.894,45.7],[7.8,45.504],[7.796,45.5],[7.8,45.496],[8.0,45.384],[8.2,45.445],[8.255,45.5],[8.4,45.623],[8.6,45.587],[8.771,45.5],[8.6,45.373],[8.561,45.3],[8.4,45.134],[8.366,45.1],[8.4,45.017],[8.6,45.029],[8.8,44.965],[9.0,44.949],[9.09,44.9],[9.0,44.716],[8.993,44.7],[9.0,44.693],[9.2,44.61],[9.4,44.641],[9.459,44.7],[9.6,44.849],[9.735,44.7],[9.8,44.635],[9.904,44.5],[10.0,44.404],[10.092,44.3],[10.2,44.192],[10.4,44.167],[10.6,44.16],[10.8,44.23],[11.0,44.288],[11.2,44.195],[11.4,44.193],[11.6,44.216],[11.758,44.1],[11.8,44.058],[12.0,44.031],[12.2,44.092],[12.208,44.1],[12.2,44.117],[12.0,44.277],[11.988,44.3],[11.865,44.5],[12.0,44.534],[12.038,44.5],[12.2,44.337],[12.357,44.3],[12.4,44.278],[12.572,44.1],[12.6,44.072],[12.761,43.9],[12.8,43.861],[12.978,43.7],[13.0,43.678],[13.022,43.7],[13.051,43.9],[13.2,44.039],[13.273,43.9],[13.4,43.773],[13.527,43.9],[13.6,43.94],[13.65,43.9],[13.8,43.75],[14.0,43.767],[14.2,43.773],[14.296,43.7],[14.4,43.596],[14.564,43.5],[14.6,43.464],[14.8,43.378],[15.0,43.469],[15.163,43.3],[15.2,43.263],[15.389,43.1]]},"properties":{"probabilityThreshold":0.0715,"lengthKm":3611.6,"diagnosticOnly":true}},{"type":"Feature","geometry":{"type":"LineString","coordinates":[[6.662,43.3],[6.8,43.162],[7.0,43.192],[7.2,43.187],[7.4,43.229],[7.471,43.3],[7.6,43.446],[7.654,43.5],[7.6,43.554],[7.4,43.537],[7.22,43.7],[7.4,43.884],[7.416,43.9],[7.4,43.916],[7.2,44.018],[7.089,44.1],[7.2,44.171],[7.4,44.234],[7.6,44.264],[7.8,44.23],[7.87,44.3],[7.8,44.37],[7.75,44.5],[7.8,44.7],[7.984,44.5],[8.0,44.484],[8.016,44.5],[8.2,44.593],[8.4,44.672],[8.428,44.7],[8.4,44.773],[8.32,44.9],[8.2,44.96],[8.14,44.9],[8.0,44.795],[7.8,44.7],[7.6,44.772],[7.4,44.815],[7.313,44.9],[7.4,45.026],[7.6,45.089],[7.611,45.1],[7.646,45.3],[7.6,45.346],[7.43,45.5],[7.4,45.53],[7.2,45.596],[7.0,45.532],[6.968,45.5],[7.0,45.468],[7.2,45.404],[7.306,45.3],[7.2,45.204],[7.096,45.1],[7.087,44.9],[7.054,44.7],[7.056,44.5],[7.071,44.3],[7.0,44.189],[6.911,44.1],[6.8,43.993],[6.707,43.9],[6.6,43.813],[6.513,43.9],[6.4,44.013],[6.287,43.9],[6.4,43.787],[6.487,43.7],[6.451,43.5],[6.6,43.351],[6.662,43.3]]},"properties":{"probabilityThreshold":0.0715,"lengthKm":991.3,"diagnosticOnly":true}},{"type":"Feature","geometry":{"type":"LineString","coordinates":[[8.484,43.3],[8.6,43.184],[8.716,43.3],[8.6,43.416],[8.484,43.5],[8.4,43.584],[8.2,43.545],[8.155,43.5],[8.2,43.455],[8.4,43.416],[8.484,43.3]]},"properties":{"probabilityThreshold":0.0715,"lengthKm":132.5,"diagnosticOnly":true}}],"properties":{"forecastHour":54,"method":"xgboost-dwd-era5-icon2i-v1","threshold":0.07145121517771291,"temporalConfirmation":"2-of-3 adjacent hours","diagnosticOnly":true}}