{"type":"FeatureCollection","features":[{"type":"Feature","geometry":{"type":"LineString","coordinates":[[14.151,34.9],[14.2,34.851],[14.4,34.884],[14.416,34.9],[14.6,35.03],[14.67,35.1],[14.8,35.202],[14.884,35.1],[15.0,34.984],[15.2,34.943],[15.357,35.1],[15.35,35.3],[15.4,35.344],[15.6,35.358],[15.742,35.5],[15.8,35.585],[15.844,35.5],[15.852,35.3],[15.8,35.163],[15.737,35.1],[15.8,35.037],[15.98,34.9],[16.0,34.88],[16.02,34.9],[16.036,35.1],[16.2,35.227],[16.273,35.3],[16.334,35.5],[16.4,35.543],[16.6,35.674],[16.626,35.7],[16.8,35.794],[16.937,35.9],[17.0,35.96],[17.2,36.05],[17.265,36.1],[17.4,36.254],[17.418,36.3],[17.547,36.5],[17.6,36.626],[17.627,36.7],[17.6,36.727],[17.449,36.9],[17.4,37.092],[17.399,37.1],[17.4,37.106],[17.413,37.1],[17.6,37.067],[17.764,36.9],[17.8,36.864],[18.0,36.895],[18.005,36.9],[18.0,36.947],[17.931,37.1],[17.8,37.128],[17.6,37.205],[17.541,37.3],[17.532,37.5],[17.6,37.582],[17.8,37.604],[17.896,37.7],[17.8,37.796],[17.639,37.9],[17.726,38.1],[17.6,38.226],[17.474,38.1],[17.506,37.9],[17.4,37.782],[17.368,37.7],[17.2,37.642],[17.081,37.7],[17.0,37.816],[16.959,37.9],[16.958,38.1],[16.8,38.118],[16.731,38.3],[16.8,38.395],[17.0,38.38],[17.12,38.5],[17.0,38.62],[16.92,38.7],[16.869,38.9],[16.832,39.1],[17.0,39.228],[17.072,39.3],[17.0,39.372],[16.8,39.384],[16.716,39.3],[16.6,39.225],[16.402,39.1],[16.459,38.9],[16.4,38.82],[16.2,38.76],[16.174,38.9],[16.039,39.1],[16.032,39.3],[16.2,39.45],[16.4,39.394],[16.6,39.424],[16.676,39.5],[16.6,39.576],[16.4,39.606],[16.218,39.7],[16.282,39.9],[16.2,39.943],[16.157,39.9],[16.0,39.768],[15.8,39.843],[15.726,39.9],[15.682,40.1],[15.8,40.211],[16.0,40.223],[16.077,40.3],[16.2,40.468],[16.295,40.5],[16.2,40.532],[16.0,40.561],[15.823,40.7],[15.83,40.9],[15.8,40.93],[15.77,40.9],[15.6,40.785],[15.4,40.774],[15.2,40.82],[15.0,40.843],[14.8,40.771],[14.729,40.7],[14.763,40.5],[14.8,40.463],[14.875,40.3],[14.87,40.1],[14.835,39.9],[15.0,39.715],[15.1,39.7],[15.128,39.5],[15.0,39.34],[14.8,39.345],[14.755,39.3],[14.6,39.21],[14.485,39.3],[14.4,39.44],[14.339,39.5],[14.4,39.583],[14.6,39.656],[14.628,39.7],[14.713,39.9],[14.6,40.013],[14.4,39.924],[14.2,40.039],[14.061,39.9],[14.0,39.78],[13.8,39.822],[13.642,39.7],[13.6,39.536],[13.4,39.554],[13.346,39.5],[13.4,39.446],[13.6,39.484],[13.639,39.3],[13.8,39.139],[14.0,39.157],[14.108,39.3],[14.0,39.408],[13.8,39.461],[13.616,39.5],[13.8,39.578],[14.0,39.62],[14.116,39.5],[14.2,39.416],[14.315,39.3],[14.4,39.185],[14.461,39.1],[14.574,38.9],[14.4,38.859],[14.242,38.9],[14.2,38.942],[14.158,38.9],[14.2,38.858],[14.241,38.7],[14.4,38.541],[14.558,38.5],[14.4,38.402],[14.2,38.33],[14.135,38.5],[14.0,38.635],[13.865,38.5],[13.8,38.313],[13.787,38.3],[13.764,38.1],[13.8,38.064],[14.0,38.065],[14.051,37.9],[14.0,37.727],[13.99,37.7],[13.906,37.5],[13.8,37.379],[13.721,37.3],[13.6,37.141],[13.559,37.1],[13.4,36.962],[13.338,36.9],[13.4,36.838],[13.6,36.825],[13.675,36.9],[13.8,36.983],[13.917,37.1],[14.0,37.194],[14.066,37.1],[14.061,36.9],[14.0,36.772],[13.8,36.751],[13.749,36.7],[13.8,36.649],[13.915,36.5],[13.8,36.349],[13.751,36.3],[13.748,36.1],[13.694,35.9],[13.6,35.725],[13.575,35.7],[13.599,35.5],[13.6,35.499],[13.8,35.396],[14.0,35.353],[14.147,35.5],[14.14,35.7],[14.2,35.742],[14.4,35.793],[14.513,35.7],[14.4,35.619],[14.281,35.5],[14.291,35.3],[14.358,35.1],[14.2,34.949],[14.151,34.9]]},"properties":{"probabilityThreshold":0.0715,"lengthKm":3595.6,"diagnosticOnly":true}},{"type":"Feature","geometry":{"type":"LineString","coordinates":[[4.949,35.1],[5.0,35.049],[5.051,35.1],[5.2,35.24],[5.26,35.3],[5.2,35.36],[5.0,35.364],[4.8,35.41],[4.613,35.5],[4.6,35.513],[4.587,35.5],[4.53,35.3],[4.6,35.23],[4.8,35.19],[4.949,35.1]]},"properties":{"probabilityThreshold":0.0715,"lengthKm":181.0,"diagnosticOnly":true}},{"type":"Feature","geometry":{"type":"LineString","coordinates":[[14.6,35.809],[14.529,35.9],[14.6,36.011],[14.668,36.1],[14.737,36.3],[14.751,36.5],[14.8,36.553],[14.964,36.7],[14.938,36.9],[14.988,37.1],[15.0,37.118],[15.2,37.145],[15.294,37.1],[15.2,36.925],[15.177,36.9],[15.083,36.7],[15.075,36.5],[15.0,36.42],[14.847,36.3],[14.866,36.1],[14.8,36.0],[14.678,35.9],[14.6,35.809]]},"properties":{"probabilityThreshold":0.0715,"lengthKm":349.6,"diagnosticOnly":true}},{"type":"Feature","geometry":{"type":"LineString","coordinates":[[21.73,39.1],[21.8,38.913],[21.87,39.1],[21.853,39.3],[21.8,39.353],[21.747,39.3],[21.73,39.1]]},"properties":{"probabilityThreshold":0.0715,"lengthKm":102.4,"diagnosticOnly":true}},{"type":"Feature","geometry":{"type":"LineString","coordinates":[[14.124,40.3],[14.2,40.224],[14.4,40.183],[14.6,40.182],[14.718,40.3],[14.6,40.418],[14.538,40.5],[14.451,40.7],[14.4,40.751],[14.2,40.783],[14.126,40.9],[14.0,41.026],[13.808,41.1],[13.872,41.3],[13.8,41.372],[13.728,41.3],[13.6,41.185],[13.515,41.1],[13.536,40.9],[13.6,40.836],[13.8,40.795],[13.868,40.7],[14.0,40.568],[14.145,40.5],[14.124,40.3]]},"properties":{"probabilityThreshold":0.0715,"lengthKm":372.6,"diagnosticOnly":true}},{"type":"Feature","geometry":{"type":"LineString","coordinates":[[12.784,40.7],[12.8,40.684],[13.0,40.629],[13.071,40.7],[13.115,40.9],[13.0,41.015],[12.8,41.005],[12.695,40.9],[12.784,40.7]]},"properties":{"probabilityThreshold":0.0715,"lengthKm":123.3,"diagnosticOnly":true}},{"type":"Feature","geometry":{"type":"LineString","coordinates":[[3.0,42.842],[3.2,42.792],[3.4,42.888],[3.6,42.766],[3.8,42.772],[4.0,42.783],[4.2,42.809],[4.4,42.812],[4.6,42.776],[4.8,42.825],[5.0,42.794],[5.106,42.9],[5.0,43.006],[4.8,42.975],[4.748,43.1],[4.8,43.145],[4.955,43.3],[5.0,43.351],[5.2,43.362],[5.338,43.5],[5.4,43.609],[5.491,43.7],[5.48,43.9],[5.4,43.98],[5.31,44.1],[5.2,44.21],[5.09,44.3],[5.2,44.35],[5.315,44.3],[5.4,44.215],[5.485,44.3],[5.6,44.371],[5.729,44.5],[5.8,44.539],[6.0,44.619],[6.084,44.5],[6.1,44.3],[6.2,44.2],[6.349,44.1],[6.2,43.979],[6.121,43.9],[6.2,43.821],[6.4,43.831],[6.6,43.781],[6.8,43.786],[7.0,43.79],[7.11,43.9],[7.134,44.1],[7.0,44.234],[6.8,44.153],[6.673,44.1],[6.6,44.075],[6.524,44.1],[6.6,44.152],[6.674,44.3],[6.8,44.469],[6.831,44.5],[6.8,44.531],[6.6,44.605],[6.4,44.591],[6.2,44.616],[6.081,44.7],[6.2,44.792],[6.4,44.89],[6.6,44.792],[6.708,44.9],[6.6,45.008],[6.519,45.1],[6.49,45.3],[6.6,45.335],[6.689,45.3],[6.8,45.189],[7.0,45.14],[7.16,45.3],[7.2,45.34],[7.36,45.5],[7.4,45.572],[7.528,45.7],[7.512,45.9],[7.6,46.015],[7.685,46.1],[7.8,46.168],[7.914,46.1],[7.853,45.9],[7.8,45.814],[7.686,45.7],[7.8,45.586],[7.914,45.7],[8.0,45.753],[8.138,45.7],[8.05,45.5],[8.2,45.35],[8.4,45.48],[8.42,45.5],[8.493,45.7],[8.4,45.793],[8.2,45.762],[8.147,45.9],[8.086,46.1],[8.2,46.149],[8.4,46.151],[8.549,46.3],[8.6,46.33],[8.8,46.365],[9.0,46.36],[9.2,46.34],[9.4,46.364],[9.462,46.3],[9.4,46.131],[9.307,46.1],[9.327,45.9],[9.4,45.827],[9.473,45.9],[9.6,46.071],[9.8,46.036],[10.0,46.037],[10.2,45.998],[10.334,45.9],[10.4,45.834],[10.488,45.7],[10.6,45.588],[10.8,45.626],[11.0,45.607],[11.093,45.7],[11.2,45.759],[11.4,45.774],[11.6,45.857],[11.8,45.757],[12.0,45.824],[12.2,45.846],[12.285,45.9],[12.4,45.967],[12.6,45.931],[12.8,45.988],[12.973,45.9],[13.0,45.873],[13.027,45.9],[13.2,46.03],[13.27,46.1],[13.4,46.208],[13.493,46.1],[13.594,45.9],[13.6,45.894],[13.606,45.9],[13.8,45.983],[14.0,45.963],[14.123,45.9],[14.0,45.738],[13.8,45.741],[13.759,45.7],[13.8,45.659],[14.0,45.662],[14.2,45.688],[14.4,45.544],[14.517,45.5],[14.6,45.417],[14.683,45.5],[14.6,45.583],[14.556,45.7],[14.6,45.742],[14.77,45.7],[14.8,45.67],[14.83,45.7],[15.0,45.883],[15.017,45.9],[15.2,46.006],[15.322,45.9],[15.4,45.822],[15.6,45.837],[15.663,45.9],[15.6,45.963],[15.493,46.1],[15.6,46.201],[15.699,46.3],[15.8,46.37],[15.972,46.3],[16.0,46.272],[16.068,46.3],[16.2,46.361],[16.4,46.438],[16.462,46.5],[16.6,46.624],[16.8,46.559],[16.922,46.7],[17.0,46.777],[17.2,46.741],[17.228,46.7],[17.2,46.678],[17.011,46.5],[17.0,46.486],[16.8,46.422],[16.741,46.3],[16.6,46.217],[16.483,46.1],[16.6,45.983],[16.696,45.9],[16.8,45.796],[17.0,45.752],[17.158,45.9],[17.2,45.935],[17.4,45.918],[17.6,46.007],[17.8,45.997],[18.0,45.914],[18.18,46.1],[18.0,46.153],[17.873,46.3],[18.0,46.406],[18.2,46.318],[18.216,46.3],[18.205,46.1],[18.239,45.9],[18.2,45.702],[18.2,45.7],[18.2,45.696],[18.203,45.7],[18.4,45.73],[18.429,45.7],[18.4,45.623],[18.268,45.5],[18.372,45.3],[18.365,45.1],[18.4,45.065],[18.6,45.02],[18.8,45.0],[18.81,45.1],[19.0,45.169],[19.2,45.222],[19.4,45.276],[19.6,45.176],[19.8,45.157],[19.975,45.3],[20.0,45.362],[20.2,45.413],[20.369,45.5],[20.4,45.524],[20.6,45.605],[20.695,45.7],[20.8,45.797],[21.0,45.827],[21.2,45.868],[21.232,45.9],[21.4,46.039],[21.594,45.9],[21.4,45.708],[21.392,45.7],[21.4,45.692],[21.6,45.651],[21.708,45.5],[21.753,45.3],[21.785,45.1],[21.8,45.085],[21.815,45.1],[21.847,45.3],[21.892,45.5],[21.886,45.7],[21.898,45.9],[21.933,46.1],[21.941,46.3],[21.947,46.5],[21.937,46.7],[21.822,46.9],[21.911,47.1],[21.954,47.3],[21.942,47.5],[21.93,47.7],[21.946,47.9],[21.927,48.1],[21.827,48.3],[21.8,48.327],[21.773,48.3],[21.673,48.1],[21.654,47.9],[21.67,47.7],[21.658,47.5],[21.6,47.424],[21.4,47.434],[21.2,47.419],[21.0,47.425],[20.875,47.3],[20.8,47.197],[20.686,47.3],[20.711,47.5],[20.8,47.516],[21.0,47.68],[21.02,47.7],[21.0,47.72],[20.811,47.9],[20.8,47.911],[20.789,47.9],[20.6,47.817],[20.4,47.743],[20.357,47.7],[20.4,47.657],[20.579,47.5],[20.4,47.397],[20.273,47.5],[20.2,47.573],[20.048,47.5],[20.0,47.481],[19.8,47.44],[19.739,47.5],[19.8,47.629],[19.835,47.7],[19.8,47.735],[19.62,47.9],[19.6,47.92],[19.464,48.1],[19.4,48.164],[19.336,48.1],[19.366,47.9],[19.2,47.8],[19.0,47.794],[18.8,47.784],[18.716,47.7],[18.6,47.622],[18.475,47.7],[18.4,47.775],[18.2,47.77],[18.053,47.7],[18.0,47.655],[17.899,47.7],[17.8,47.732],[17.6,47.792],[17.4,47.803],[17.297,47.7],[17.2,47.644],[17.0,47.594],[16.906,47.5],[16.8,47.435],[16.6,47.352],[16.409,47.5],[16.4,47.509],[16.2,47.528],[16.0,47.575],[15.854,47.7],[15.8,47.754],[15.6,47.719],[15.4,47.717],[15.2,47.783],[15.0,47.756],[14.8,47.826],[14.6,47.871],[14.554,47.9],[14.539,48.1],[14.6,48.217],[14.704,48.1],[14.8,48.004],[15.0,48.006],[15.2,48.043],[15.257,48.1],[15.304,48.3],[15.2,48.437],[15.005,48.5],[15.2,48.596],[15.4,48.627],[15.567,48.5],[15.6,48.467],[15.8,48.435],[15.9,48.5],[16.0,48.545],[16.2,48.58],[16.4,48.594],[16.541,48.5],[16.6,48.441],[16.8,48.448],[17.0,48.447],[17.2,48.457],[17.243,48.5],[17.4,48.549],[17.539,48.5],[17.6,48.439],[17.8,48.453],[17.847,48.5],[18.0,48.558],[18.2,48.575],[18.4,48.58],[18.6,48.572],[18.8,48.567],[19.0,48.562],[19.2,48.554],[19.4,48.559],[19.6,48.588],[19.8,48.634],[20.0,48.593],[20.2,48.63],[20.4,48.603],[20.6,48.649],[20.8,48.647],[21.0,48.661],[21.169,48.7],[21.0,48.739],[20.8,48.753],[20.6,48.751],[20.4,48.797],[20.2,48.77],[20.0,48.807],[19.8,48.766],[19.6,48.812],[19.4,48.841],[19.2,48.846],[19.0,48.838],[18.8,48.833],[18.6,48.828],[18.4,48.82],[18.2,48.825],[18.0,48.842],[17.8,48.829],[17.6,48.843],[17.4,48.851],[17.2,48.837],[17.0,48.825],[16.8,48.807],[16.6,48.805],[16.4,48.806],[16.2,48.82],[16.0,48.825],[15.8,48.829],[15.6,48.78],[15.4,48.773],[15.2,48.771],[15.0,48.768],[14.8,48.773],[14.6,48.784],[14.4,48.798],[14.2,48.806],[14.0,48.81],[13.8,48.78],[13.6,48.794],[13.506,48.7],[13.4,48.598],[13.271,48.7],[13.2,48.771],[13.129,48.7],[13.0,48.56],[12.859,48.5],[12.8,48.468],[12.769,48.5],[12.6,48.598],[12.463,48.5],[12.4,48.436],[12.238,48.5],[12.23,48.7],[12.2,48.73],[12.0,48.703],[11.8,48.718],[11.6,48.789],[11.4,48.801],[11.2,48.8],[11.0,48.822],[10.8,48.806],[10.694,48.7],[10.8,48.594],[10.966,48.5],[10.8,48.304],[10.6,48.348],[10.52,48.5],[10.441,48.7],[10.4,48.741],[10.2,48.756],[10.0,48.707],[9.8,48.737],[9.6,48.716],[9.4,48.709],[9.391,48.7],[9.396,48.5],[9.359,48.3],[9.249,48.1],[9.2,48.019],[9.0,47.962],[8.8,48.002],[8.6,47.95],[8.402,48.1],[8.4,48.102],[8.398,48.1],[8.2,47.992],[8.108,47.9],[8.0,47.722],[7.978,47.7],[7.8,47.547],[7.638,47.7],[7.6,47.738],[7.562,47.7],[7.4,47.505],[7.2,47.56],[7.14,47.5],[7.0,47.415],[6.8,47.416],[6.63,47.5],[6.6,47.53],[6.4,47.546],[6.354,47.5],[6.2,47.38],[6.0,47.379],[5.921,47.3],[5.8,47.252],[5.6,47.187],[5.513,47.1],[5.4,46.991],[5.309,46.9],[5.4,46.809],[5.6,46.754],[5.76,46.7],[5.6,46.655],[5.4,46.644],[5.235,46.7],[5.2,46.735],[5.0,46.717],[4.983,46.7],[5.0,46.683],[5.128,46.5],[5.0,46.394],[4.906,46.3],[4.8,46.268],[4.666,46.3],[4.6,46.366],[4.4,46.354],[4.346,46.3],[4.301,46.1],[4.2,46.039],[4.0,46.031],[3.8,46.05],[3.6,46.0],[3.4,45.939],[3.2,46.008],[3.0,46.015]]},"properties":{"probabilityThreshold":0.0715,"lengthKm":7435.1,"diagnosticOnly":true}},{"type":"Feature","geometry":{"type":"LineString","coordinates":[[19.547,44.7],[19.6,44.647],[19.8,44.684],[19.816,44.7],[19.8,44.716],[19.624,44.9],[19.6,44.961],[19.4,44.934],[19.366,44.9],[19.4,44.866],[19.547,44.7]]},"properties":{"probabilityThreshold":0.0715,"lengthKm":106.6,"diagnosticOnly":true}},{"type":"Feature","geometry":{"type":"LineString","coordinates":[[7.716,44.9],[7.8,44.816],[7.884,44.9],[8.0,44.984],[8.116,45.1],[8.0,45.216],[7.918,45.3],[7.8,45.418],[7.6,45.342],[7.558,45.3],[7.6,45.258],[7.692,45.1],[7.716,44.9]]},"properties":{"probabilityThreshold":0.0715,"lengthKm":164.9,"diagnosticOnly":true}},{"type":"Feature","geometry":{"type":"LineString","coordinates":[[9.6,48.188],[9.441,48.3],[9.404,48.5],[9.6,48.684],[9.8,48.663],[10.0,48.693],[10.2,48.644],[10.28,48.5],[10.35,48.3],[10.2,48.217],[10.061,48.3],[10.0,48.361],[9.8,48.314],[9.786,48.3],[9.6,48.188]]},"properties":{"probabilityThreshold":0.0715,"lengthKm":222.2,"diagnosticOnly":true}},{"type":"Feature","geometry":{"type":"LineString","coordinates":[[11.8,48.288],[11.77,48.3],[11.693,48.5],[11.8,48.682],[12.0,48.697],[12.181,48.5],[12.0,48.347],[11.854,48.3],[11.8,48.288]]},"properties":{"probabilityThreshold":0.0715,"lengthKm":125.2,"diagnosticOnly":true}}],"properties":{"forecastHour":18,"method":"xgboost-dwd-era5-icon2i-v1","threshold":0.07145121517771291,"temporalConfirmation":"2-of-3 adjacent hours","diagnosticOnly":true}}