{"type":"FeatureCollection","features":[{"type":"Feature","geometry":{"type":"LineString","coordinates":[[4.965,39.7],[5.0,39.665],[5.2,39.64],[5.4,39.675],[5.425,39.7],[5.4,39.725],[5.2,39.76],[5.009,39.9],[5.0,39.909],[4.991,39.9],[4.965,39.7]]},"properties":{"probabilityThreshold":0.0715,"lengthKm":111.6,"diagnosticOnly":true}},{"type":"Feature","geometry":{"type":"LineString","coordinates":[[14.752,41.1],[14.8,41.052],[15.0,41.082],[15.018,41.1],[15.0,41.118],[14.828,41.3],[14.8,41.328],[14.732,41.5],[14.687,41.7],[14.6,41.787],[14.485,41.9],[14.4,41.985],[14.305,42.1],[14.2,42.205],[14.095,42.1],[14.178,41.9],[14.0,41.755],[13.8,41.738],[13.762,41.7],[13.8,41.662],[13.965,41.5],[14.0,41.465],[14.035,41.5],[14.2,41.677],[14.4,41.636],[14.468,41.5],[14.6,41.368],[14.772,41.3],[14.752,41.1]]},"properties":{"probabilityThreshold":0.0715,"lengthKm":401.7,"diagnosticOnly":true}},{"type":"Feature","geometry":{"type":"LineString","coordinates":[[21.712,41.3],[21.8,41.15],[21.888,41.3],[21.904,41.5],[21.95,41.7],[21.955,41.9],[21.96,42.1],[21.967,42.3],[21.966,42.5],[21.964,42.7],[21.97,42.9],[21.96,43.1],[21.95,43.3],[21.902,43.5],[21.8,43.665],[21.6,43.626],[21.571,43.7],[21.442,43.9],[21.409,44.1],[21.4,44.103],[21.397,44.1],[21.2,43.934],[21.012,44.1],[21.2,44.259],[21.241,44.3],[21.303,44.5],[21.4,44.612],[21.6,44.625],[21.711,44.5],[21.75,44.3],[21.64,44.1],[21.8,43.985],[21.915,44.1],[21.85,44.3],[21.889,44.5],[21.895,44.7],[21.897,44.9],[21.888,45.1],[21.863,45.3],[21.829,45.5],[21.8,45.529],[21.771,45.5],[21.737,45.3],[21.6,45.164],[21.536,45.1],[21.4,44.949],[21.2,44.919],[21.181,44.9],[21.194,44.7],[21.0,44.593],[20.907,44.5],[20.8,44.376],[20.724,44.3],[20.717,44.1],[20.8,44.017],[20.929,43.9],[20.8,43.779],[20.624,43.9],[20.6,43.924],[20.436,44.1],[20.4,44.136],[20.364,44.1],[20.37,43.9],[20.2,43.774],[20.0,43.768],[19.8,43.762],[19.738,43.7],[19.6,43.643],[19.4,43.643],[19.295,43.7],[19.2,43.795],[19.0,43.723],[18.977,43.7],[18.853,43.5],[18.8,43.376],[18.6,43.301],[18.599,43.3],[18.419,43.1],[18.6,43.06],[18.72,42.9],[18.8,42.761],[19.0,42.898],[19.163,42.7],[19.2,42.663],[19.237,42.7],[19.4,42.789],[19.506,42.7],[19.6,42.606],[19.69,42.5],[19.8,42.39],[19.907,42.3],[19.8,42.229],[19.611,42.3],[19.6,42.311],[19.4,42.33],[19.2,42.425],[19.0,42.439],[18.809,42.5],[18.8,42.528],[18.6,42.632],[18.494,42.7],[18.402,42.9],[18.4,42.945],[18.398,42.9],[18.2,42.835],[18.108,42.9],[18.0,43.008],[17.904,43.1],[17.8,43.204],[17.6,43.254],[17.4,43.2],[17.313,43.3],[17.2,43.413],[17.0,43.413],[16.887,43.3],[16.8,43.191],[16.6,43.149],[16.416,43.1],[16.6,43.051],[16.687,42.9],[16.8,42.787],[17.0,42.706],[17.075,42.7],[17.2,42.677],[17.4,42.6],[17.6,42.553],[17.69,42.5],[17.8,42.438],[18.0,42.378],[18.2,42.314],[18.216,42.3],[18.4,42.201],[18.573,42.1],[18.6,42.073],[18.693,42.1],[18.8,42.126],[18.827,42.1],[19.0,41.992],[19.2,42.043],[19.4,42.007],[19.6,42.009],[19.79,41.9],[19.8,41.89],[20.0,41.815],[20.14,41.7],[20.2,41.64],[20.26,41.7],[20.4,41.807],[20.6,41.791],[20.669,41.7],[20.8,41.529],[21.0,41.646],[21.2,41.569],[21.4,41.594],[21.581,41.5],[21.6,41.481],[21.712,41.3]]},"properties":{"probabilityThreshold":0.0715,"lengthKm":2416.5,"diagnosticOnly":true}},{"type":"Feature","geometry":{"type":"LineString","coordinates":[[11.1,42.9],[11.2,42.8],[11.3,42.9],[11.215,43.1],[11.2,43.115],[11.0,43.164],[10.936,43.1],[11.0,43.036],[11.1,42.9]]},"properties":{"probabilityThreshold":0.0715,"lengthKm":104.5,"diagnosticOnly":true}},{"type":"Feature","geometry":{"type":"LineString","coordinates":[[16.177,42.9],[16.2,42.877],[16.223,42.9],[16.394,43.1],[16.35,43.3],[16.4,43.308],[16.6,43.464],[16.636,43.5],[16.6,43.536],[16.534,43.7],[16.4,43.834],[16.208,43.9],[16.2,43.908],[16.192,43.9],[16.0,43.807],[15.893,43.7],[15.876,43.5],[15.943,43.3],[16.0,43.243],[16.105,43.1],[16.177,42.9]]},"properties":{"probabilityThreshold":0.0715,"lengthKm":275.9,"diagnosticOnly":true}},{"type":"Feature","geometry":{"type":"LineString","coordinates":[[9.372,43.5],[9.4,43.472],[9.6,43.431],[9.669,43.5],[9.659,43.7],[9.6,43.759],[9.434,43.9],[9.432,44.1],[9.4,44.132],[9.368,44.1],[9.2,44.028],[9.0,44.025],[8.875,43.9],[8.915,43.7],[9.0,43.615],[9.2,43.594],[9.372,43.5]]},"properties":{"probabilityThreshold":0.0715,"lengthKm":227.7,"diagnosticOnly":true}},{"type":"Feature","geometry":{"type":"LineString","coordinates":[[7.148,43.7],[7.2,43.648],[7.252,43.7],[7.4,43.767],[7.6,43.766],[7.715,43.7],[7.8,43.615],[8.0,43.566],[8.2,43.628],[8.4,43.656],[8.6,43.649],[8.651,43.7],[8.6,43.751],[8.4,43.744],[8.314,43.9],[8.2,44.054],[8.13,44.1],[8.2,44.196],[8.261,44.3],[8.323,44.5],[8.4,44.632],[8.468,44.7],[8.6,44.856],[8.644,44.9],[8.8,44.98],[9.0,44.998],[9.2,44.902],[9.4,44.966],[9.569,44.9],[9.6,44.869],[9.631,44.9],[9.622,45.1],[9.8,45.179],[9.933,45.1],[9.994,44.9],[10.0,44.894],[10.006,44.9],[10.2,45.08],[10.22,45.1],[10.275,45.3],[10.4,45.347],[10.6,45.308],[10.639,45.3],[10.8,45.214],[11.0,45.243],[11.2,45.151],[11.385,45.1],[11.4,45.085],[11.6,45.095],[11.8,44.987],[12.0,44.986],[12.2,44.927],[12.4,44.954],[12.6,44.951],[12.684,44.9],[12.8,44.784],[12.956,44.7],[13.0,44.632],[13.084,44.5],[13.2,44.415],[13.38,44.3],[13.4,44.28],[13.42,44.3],[13.458,44.5],[13.6,44.613],[13.687,44.7],[13.8,44.816],[14.0,44.881],[14.2,44.779],[14.4,44.811],[14.489,44.9],[14.6,45.017],[14.683,45.1],[14.8,45.256],[14.844,45.3],[15.0,45.432],[15.068,45.5],[15.2,45.568],[15.4,45.642],[15.473,45.7],[15.6,45.769],[15.8,45.799],[15.982,45.7],[16.0,45.682],[16.026,45.7],[16.2,45.748],[16.4,45.774],[16.6,45.78],[16.745,45.7],[16.8,45.645],[17.0,45.689],[17.2,45.698],[17.202,45.7],[17.203,45.9],[17.284,46.1],[17.284,46.3],[17.254,46.5],[17.3,46.7],[17.4,46.834],[17.466,46.9],[17.448,47.1],[17.6,47.201],[17.788,47.1],[17.779,46.9],[17.8,46.879],[18.0,46.821],[18.2,46.896],[18.204,46.9],[18.2,46.904],[18.041,47.1],[18.0,47.141],[17.82,47.3],[17.8,47.32],[17.713,47.5],[17.678,47.7],[17.6,47.778],[17.4,47.811],[17.2,47.811],[17.03,47.9],[17.0,47.93],[16.97,47.9],[16.8,47.814],[16.6,47.823],[16.5,47.9],[16.4,48.0],[16.3,47.9],[16.2,47.843],[16.0,47.834],[15.8,47.799],[15.727,47.9],[15.8,47.975],[16.0,48.002],[16.2,48.021],[16.279,48.1],[16.2,48.179],[16.0,48.198],[15.895,48.3],[15.915,48.5],[15.8,48.615],[15.685,48.5],[15.6,48.444],[15.482,48.5],[15.6,48.647],[15.653,48.7],[15.6,48.753],[15.4,48.725],[15.2,48.717],[15.183,48.7],[15.0,48.548],[14.8,48.512],[14.6,48.524],[14.4,48.594],[14.2,48.621],[14.0,48.592],[13.8,48.555],[13.6,48.577],[13.4,48.607],[13.2,48.589],[13.0,48.576],[12.8,48.592],[12.6,48.619],[12.4,48.612],[12.2,48.622],[12.0,48.604],[11.8,48.534],[11.766,48.5],[11.6,48.359],[11.489,48.5],[11.4,48.589],[11.2,48.551],[11.0,48.586],[10.914,48.5],[10.8,48.363],[10.6,48.327],[10.573,48.3],[10.439,48.1],[10.4,48.002],[10.2,47.997],[10.0,48.033],[9.8,48.032],[9.6,48.024],[9.405,48.1],[9.4,48.108],[9.2,48.17],[9.0,48.196],[8.8,48.169],[8.6,48.137],[8.563,48.1],[8.4,47.996],[8.2,48.042],[8.0,47.987],[7.926,48.1],[7.8,48.226],[7.6,48.169],[7.531,48.1],[7.512,47.9],[7.6,47.812],[7.8,47.824],[7.923,47.7],[7.8,47.537],[7.6,47.506],[7.594,47.5],[7.6,47.494],[7.8,47.463],[7.966,47.3],[7.8,47.223],[7.6,47.241],[7.477,47.3],[7.4,47.377],[7.284,47.5],[7.2,47.584],[7.116,47.5],[7.2,47.332],[7.236,47.3],[7.2,47.278],[7.0,47.188],[6.8,47.177],[6.621,47.3],[6.6,47.321],[6.579,47.3],[6.538,47.1],[6.6,47.038],[6.8,47.023],[6.89,46.9],[6.8,46.835],[6.6,46.73],[6.57,46.7],[6.6,46.67],[6.8,46.565],[6.875,46.5],[6.8,46.462],[6.6,46.449],[6.505,46.5],[6.4,46.605],[6.2,46.587],[6.067,46.7],[6.0,46.767],[5.933,46.7],[5.97,46.5],[5.8,46.344],[5.756,46.3],[5.8,46.256],[5.969,46.1],[5.879,45.9],[5.8,45.806],[5.6,45.735],[5.565,45.7],[5.502,45.5],[5.6,45.402],[5.8,45.432],[5.856,45.3],[5.8,45.222],[5.678,45.1],[5.6,44.921],[5.4,44.919],[5.381,44.9],[5.2,44.746],[5.154,44.7],[5.2,44.654],[5.305,44.5],[5.4,44.405],[5.6,44.418],[5.682,44.5],[5.67,44.7],[5.8,44.768],[6.0,44.774],[6.126,44.9],[6.2,44.984],[6.4,44.939],[6.496,44.9],[6.4,44.841],[6.259,44.7],[6.4,44.559],[6.541,44.7],[6.6,44.796],[6.704,44.7],[6.8,44.604],[6.896,44.7],[6.8,44.796],[6.704,44.9],[6.6,45.004],[6.561,45.1],[6.441,45.3],[6.6,45.395],[6.661,45.3],[6.8,45.161],[6.876,45.1],[7.0,44.976],[7.062,44.9],[7.057,44.7],[7.097,44.5],[7.051,44.3],[7.0,44.249],[6.8,44.213],[6.6,44.212],[6.4,44.164],[6.2,44.139],[6.161,44.1],[6.2,44.061],[6.4,44.036],[6.6,43.988],[6.702,43.9],[6.8,43.802],[7.0,43.781],[7.148,43.7]]},"properties":{"probabilityThreshold":0.0715,"lengthKm":4203.8,"diagnosticOnly":true}},{"type":"Feature","geometry":{"type":"LineString","coordinates":[[3.0,44.399],[3.134,44.3],[3.165,44.1],[3.2,44.065],[3.4,44.019],[3.481,44.1],[3.48,44.3],[3.6,44.396],[3.8,44.379],[3.873,44.3],[3.894,44.1],[4.0,43.994],[4.2,43.963],[4.337,44.1],[4.4,44.236],[4.464,44.3],[4.6,44.394],[4.706,44.5],[4.8,44.606],[4.894,44.7],[4.8,44.794],[4.6,44.824],[4.4,44.746],[4.2,44.805],[4.095,44.7],[4.0,44.538],[3.8,44.621],[3.729,44.7],[3.8,44.773],[4.0,44.811],[4.089,44.9],[4.0,44.989],[3.925,45.1],[4.0,45.158],[4.094,45.1],[4.2,44.994],[4.4,44.956],[4.544,45.1],[4.41,45.3],[4.451,45.5],[4.4,45.551],[4.254,45.7],[4.2,45.754],[4.146,45.7],[4.184,45.5],[4.0,45.442],[3.823,45.5],[3.8,45.535],[3.6,45.559],[3.443,45.7],[3.443,45.9],[3.4,45.943],[3.357,45.9],[3.357,45.7],[3.311,45.5],[3.2,45.368],[3.0,45.5],[3.0,45.5]]},"properties":{"probabilityThreshold":0.0715,"lengthKm":842.1,"diagnosticOnly":true}},{"type":"Feature","geometry":{"type":"LineString","coordinates":[[8.0,45.203],[7.906,45.3],[8.0,45.403],[8.097,45.5],[8.2,45.57],[8.4,45.572],[8.6,45.679],[8.621,45.7],[8.8,45.81],[8.89,45.9],[9.0,46.053],[9.084,45.9],[9.2,45.784],[9.362,45.7],[9.2,45.516],[9.184,45.5],[9.0,45.429],[8.8,45.398],[8.6,45.406],[8.4,45.434],[8.2,45.312],[8.188,45.3],[8.0,45.203]]},"properties":{"probabilityThreshold":0.0715,"lengthKm":318.4,"diagnosticOnly":true}},{"type":"Feature","geometry":{"type":"LineString","coordinates":[[6.0,45.444],[5.868,45.5],[5.906,45.7],[6.0,45.779],[6.2,45.751],[6.275,45.7],[6.2,45.653],[6.047,45.5],[6.0,45.444]]},"properties":{"probabilityThreshold":0.0715,"lengthKm":105.5,"diagnosticOnly":true}},{"type":"Feature","geometry":{"type":"LineString","coordinates":[[7.0,45.352],[6.936,45.5],[6.8,45.636],[6.727,45.7],[6.8,45.807],[7.0,45.744],[7.2,45.737],[7.4,45.805],[7.457,45.7],[7.467,45.5],[7.4,45.432],[7.2,45.457],[7.0,45.352]]},"properties":{"probabilityThreshold":0.0715,"lengthKm":186.6,"diagnosticOnly":true}},{"type":"Feature","geometry":{"type":"LineString","coordinates":[[3.0,46.265],[3.2,46.259],[3.4,46.265],[3.482,46.1],[3.6,45.982],[3.718,46.1],[3.8,46.24],[4.0,46.173],[4.127,46.3],[4.029,46.5],[4.0,46.529],[3.8,46.511],[3.616,46.7],[3.651,46.9],[3.8,47.013],[3.887,47.1],[3.821,47.3],[3.8,47.321],[3.6,47.369],[3.4,47.391],[3.2,47.338],[3.0,47.31]]},"properties":{"probabilityThreshold":0.0715,"lengthKm":340.0,"diagnosticOnly":true}},{"type":"Feature","geometry":{"type":"LineString","coordinates":[[21.788,46.3],[21.8,46.288],[21.812,46.3],[21.897,46.5],[21.837,46.7],[21.862,46.9],[21.88,47.1],[21.895,47.3],[21.934,47.5],[21.941,47.7],[21.929,47.9],[21.898,48.1],[21.892,48.3],[21.9,48.5],[21.917,48.7],[21.8,48.817],[21.6,48.825],[21.4,48.77],[21.33,48.7],[21.28,48.5],[21.2,48.381],[21.036,48.5],[21.0,48.536],[20.964,48.5],[20.947,48.3],[21.0,48.253],[21.2,48.219],[21.356,48.3],[21.4,48.322],[21.6,48.472],[21.708,48.3],[21.6,48.116],[21.575,48.1],[21.478,47.9],[21.4,47.702],[21.398,47.7],[21.4,47.698],[21.6,47.555],[21.666,47.5],[21.705,47.3],[21.72,47.1],[21.738,46.9],[21.763,46.7],[21.703,46.5],[21.788,46.3]]},"properties":{"probabilityThreshold":0.0715,"lengthKm":731.8,"diagnosticOnly":true}},{"type":"Feature","geometry":{"type":"LineString","coordinates":[[8.6,46.844],[8.479,46.9],[8.495,47.1],[8.466,47.3],[8.6,47.436],[8.766,47.3],[8.685,47.1],[8.638,46.9],[8.6,46.844]]},"properties":{"probabilityThreshold":0.0715,"lengthKm":145.3,"diagnosticOnly":true}},{"type":"Feature","geometry":{"type":"LineString","coordinates":[[3.0,47.29],[3.2,47.262],[3.4,47.209],[3.511,47.1],[3.549,46.9],[3.4,46.758],[3.224,46.9],[3.2,46.924],[3.176,46.9],[3.0,46.776]]},"properties":{"probabilityThreshold":0.0715,"lengthKm":134.4,"diagnosticOnly":true}},{"type":"Feature","geometry":{"type":"LineString","coordinates":[[10.0,47.353],[9.814,47.5],[9.8,47.514],[9.705,47.7],[9.8,47.768],[10.0,47.767],[10.2,47.803],[10.4,47.798],[10.6,47.784],[10.8,47.767],[11.0,47.777],[11.2,47.753],[11.384,47.7],[11.4,47.667],[11.416,47.7],[11.6,47.823],[11.799,47.7],[11.8,47.699],[11.868,47.5],[11.8,47.424],[11.6,47.48],[11.4,47.48],[11.2,47.432],[11.0,47.433],[10.814,47.5],[10.8,47.514],[10.6,47.566],[10.534,47.5],[10.4,47.454],[10.217,47.5],[10.2,47.517],[10.183,47.5],[10.0,47.353]]},"properties":{"probabilityThreshold":0.0715,"lengthKm":412.9,"diagnosticOnly":true}}],"properties":{"forecastHour":42,"method":"xgboost-dwd-era5-icon2i-v1","threshold":0.07145121517771291,"temporalConfirmation":"2-of-3 adjacent hours","diagnosticOnly":true}}