{"type":"FeatureCollection","features":[{"type":"Feature","geometry":{"type":"LineString","coordinates":[[3.0,34.061],[3.2,34.018],[3.38,33.9],[3.4,33.88],[3.42,33.9],[3.6,34.095],[3.8,34.042],[4.0,34.017],[4.083,34.1],[4.2,34.207],[4.4,34.159],[4.502,34.1],[4.6,34.002],[4.785,33.9],[4.8,33.885],[4.815,33.9],[5.0,34.026],[5.176,33.9],[5.2,33.876],[5.4,33.887],[5.413,33.9],[5.6,34.008],[5.8,34.013],[6.0,34.032],[6.2,34.008],[6.4,33.969],[6.6,33.98],[6.791,33.9],[6.8,33.891],[7.0,33.867],[7.033,33.9],[7.2,33.969],[7.366,33.9],[7.4,33.866],[7.6,33.876],[7.8,33.862],[8.0,33.858],[8.2,33.843],[8.4,33.833],[8.6,33.848],[8.8,33.823],[8.877,33.9],[9.0,33.959],[9.104,33.9],[9.2,33.804],[9.296,33.9],[9.4,33.971],[9.6,34.007],[9.693,34.1],[9.8,34.231],[9.989,34.1],[10.0,34.089],[10.011,34.1],[10.2,34.297],[10.203,34.3],[10.4,34.464],[10.6,34.448],[10.8,34.444],[11.0,34.43],[11.2,34.42],[11.28,34.5],[11.257,34.7],[11.4,34.796],[11.504,34.9],[11.582,35.1],[11.6,35.114],[11.8,35.166],[12.0,35.238],[12.079,35.3],[12.2,35.395],[12.4,35.411],[12.6,35.377],[12.701,35.3],[12.8,35.148],[13.0,35.284],[13.034,35.1],[13.2,34.978],[13.353,35.1],[13.4,35.137],[13.6,35.175],[13.725,35.3],[13.8,35.411],[14.0,35.407],[14.093,35.5],[14.0,35.593],[13.881,35.7],[14.0,35.884],[14.132,35.7],[14.2,35.632],[14.4,35.505],[14.451,35.7],[14.6,35.842],[14.658,35.9],[14.778,36.1],[14.8,36.132],[14.873,36.1],[14.952,35.9],[15.0,35.852],[15.048,35.9],[15.044,36.1],[15.058,36.3],[15.2,36.42],[15.28,36.5],[15.4,36.654],[15.446,36.7],[15.6,36.843],[15.8,36.804],[16.0,36.805],[16.095,36.9],[16.121,37.1],[16.2,37.168],[16.4,37.245],[16.6,37.205],[16.695,37.3],[16.707,37.5],[16.8,37.62],[17.0,37.6],[17.1,37.7],[17.2,37.817],[17.283,37.9],[17.4,38.067],[17.6,38.081],[17.619,38.1],[17.8,38.259],[17.841,38.3],[17.895,38.5],[17.8,38.595],[17.6,38.548],[17.552,38.5],[17.4,38.381],[17.237,38.3],[17.2,38.278],[17.015,38.1],[17.0,38.089],[16.913,38.1],[16.81,38.3],[16.803,38.5],[16.8,38.564],[16.784,38.5],[16.6,38.404],[16.542,38.5],[16.4,38.556],[16.344,38.5],[16.2,38.406],[16.012,38.5],[16.2,38.65],[16.25,38.7],[16.264,38.9],[16.255,39.1],[16.2,39.155],[16.145,39.1],[16.136,38.9],[16.0,38.776],[15.924,38.7],[15.949,38.5],[15.8,38.324],[15.795,38.3],[15.6,38.203],[15.514,38.3],[15.419,38.5],[15.4,38.519],[15.344,38.5],[15.2,38.468],[15.0,38.428],[14.841,38.5],[14.8,38.657],[14.794,38.7],[14.65,38.9],[14.6,38.995],[14.451,38.9],[14.429,38.7],[14.4,38.684],[14.205,38.7],[14.355,38.9],[14.4,39.053],[14.417,39.1],[14.4,39.107],[14.2,39.15],[14.15,39.1],[14.0,38.985],[13.8,38.9],[13.8,38.9],[13.8,38.9],[13.678,39.1],[13.6,39.178],[13.4,39.138],[13.261,39.1],[13.303,38.9],[13.2,38.707],[13.056,38.9],[13.0,38.956],[12.904,38.9],[12.8,38.794],[12.6,38.722],[12.4,38.715],[12.385,38.7],[12.2,38.572],[12.056,38.7],[12.107,38.9],[12.2,39.087],[12.213,39.1],[12.345,39.3],[12.4,39.342],[12.6,39.46],[12.8,39.377],[12.95,39.5],[12.885,39.7],[12.8,39.785],[12.715,39.7],[12.6,39.54],[12.5,39.7],[12.4,39.8],[12.3,39.7],[12.242,39.5],[12.2,39.445],[12.042,39.5],[12.033,39.7],[12.0,39.733],[11.858,39.9],[12.0,40.032],[12.068,40.1],[12.056,40.3],[12.0,40.352],[11.925,40.5],[11.8,40.625],[11.6,40.626],[11.474,40.5],[11.6,40.374],[11.67,40.3],[11.701,40.1],[11.742,39.9],[11.723,39.7],[11.8,39.623],[11.958,39.5],[11.946,39.3],[11.8,39.183],[11.717,39.1],[11.692,38.9],[11.712,38.7],[11.6,38.51],[11.59,38.5],[11.4,38.407],[11.293,38.3],[11.2,38.162],[11.138,38.1],[11.077,37.9],[11.0,37.825],[10.8,37.803],[10.697,37.7],[10.6,37.571],[10.529,37.5],[10.4,37.439],[10.2,37.379],[10.0,37.326],[9.974,37.3],[9.926,37.1],[9.8,36.994],[9.6,36.997],[9.503,36.9],[9.4,36.816],[9.2,36.835],[9.016,36.9],[9.0,36.916],[8.984,36.9],[9.0,36.884],[9.065,36.7],[9.0,36.633],[8.872,36.7],[8.8,36.772],[8.665,36.9],[8.6,36.965],[8.535,36.9],[8.595,36.7],[8.4,36.561],[8.2,36.654],[8.0,36.635],[7.8,36.568],[7.732,36.5],[7.8,36.432],[7.87,36.3],[7.927,36.1],[8.0,36.027],[8.171,36.1],[8.2,36.107],[8.237,36.1],[8.4,36.039],[8.6,36.027],[8.675,35.9],[8.8,35.775],[9.0,35.766],[9.136,35.7],[9.176,35.5],[9.0,35.388],[8.8,35.379],[8.721,35.3],[8.6,35.213],[8.4,35.222],[8.2,35.153],[8.0,35.232],[7.8,35.166],[7.6,35.184],[7.4,35.146],[7.2,35.21],[7.0,35.209],[6.8,35.214],[6.6,35.199],[6.4,35.191],[6.309,35.1],[6.2,35.017],[6.0,35.048],[5.831,35.1],[5.8,35.131],[5.769,35.1],[5.6,35.028],[5.4,35.006],[5.2,34.995],[5.0,34.905],[4.8,34.912],[4.788,34.9],[4.8,34.888],[5.0,34.895],[5.154,34.7],[5.0,34.571],[4.8,34.523],[4.777,34.5],[4.6,34.441],[4.4,34.441],[4.2,34.393],[4.0,34.33],[3.97,34.3],[3.8,34.158],[3.6,34.105],[3.4,34.114],[3.209,34.3],[3.262,34.5],[3.4,34.595],[3.495,34.5],[3.6,34.395],[3.705,34.5],[3.702,34.7],[3.73,34.9],[3.8,35.075],[3.825,35.1],[3.8,35.125],[3.6,35.145],[3.4,35.196],[3.2,35.283],[3.165,35.3],[3.014,35.5],[3.0,35.514]]},"properties":{"probabilityThreshold":0.0715,"lengthKm":5379.4,"diagnosticOnly":true}},{"type":"Feature","geometry":{"type":"LineString","coordinates":[[7.6,34.856],[7.489,34.9],[7.6,35.016],[7.8,35.034],[8.0,34.968],[8.059,34.9],[8.0,34.841],[7.8,34.835],[7.6,34.856]]},"properties":{"probabilityThreshold":0.0715,"lengthKm":120.0,"diagnosticOnly":true}},{"type":"Feature","geometry":{"type":"LineString","coordinates":[[9.199,39.1],[9.2,39.099],[9.4,39.003],[9.6,38.975],[9.725,39.1],[9.8,39.262],[10.0,39.282],[10.2,39.187],[10.4,39.276],[10.424,39.3],[10.459,39.5],[10.4,39.559],[10.341,39.5],[10.2,39.413],[10.108,39.5],[10.018,39.7],[10.2,39.897],[10.4,39.896],[10.6,39.864],[10.8,39.854],[10.846,39.9],[10.8,39.946],[10.664,40.1],[10.6,40.164],[10.536,40.1],[10.4,39.904],[10.334,40.1],[10.4,40.232],[10.468,40.3],[10.6,40.412],[10.688,40.5],[10.6,40.689],[10.4,40.56],[10.2,40.556],[10.144,40.5],[10.148,40.3],[10.0,40.154],[9.946,40.1],[9.8,40.017],[9.683,39.9],[9.725,39.7],[9.8,39.625],[9.892,39.5],[9.8,39.338],[9.705,39.5],[9.6,39.605],[9.4,39.666],[9.342,39.7],[9.32,39.9],[9.4,40.036],[9.464,40.1],[9.4,40.164],[9.2,40.167],[9.03,40.3],[9.048,40.5],[9.0,40.635],[8.952,40.5],[8.8,40.363],[8.6,40.426],[8.474,40.3],[8.583,40.1],[8.537,39.9],[8.6,39.837],[8.8,39.834],[8.89,39.7],[8.969,39.5],[8.905,39.3],[9.0,39.205],[9.095,39.3],[9.031,39.5],[9.2,39.558],[9.234,39.5],[9.265,39.3],[9.2,39.101],[9.199,39.1]]},"properties":{"probabilityThreshold":0.0715,"lengthKm":1189.8,"diagnosticOnly":true}},{"type":"Feature","geometry":{"type":"LineString","coordinates":[[6.948,40.3],[7.0,40.248],[7.052,40.3],[7.046,40.5],[7.08,40.7],[7.0,40.78],[6.92,40.7],[6.954,40.5],[6.948,40.3]]},"properties":{"probabilityThreshold":0.0715,"lengthKm":125.6,"diagnosticOnly":true}},{"type":"Feature","geometry":{"type":"LineString","coordinates":[[7.745,40.3],[7.8,40.245],[8.0,40.231],[8.069,40.3],[8.0,40.369],[7.906,40.5],[7.8,40.606],[7.694,40.5],[7.745,40.3]]},"properties":{"probabilityThreshold":0.0715,"lengthKm":112.5,"diagnosticOnly":true}},{"type":"Feature","geometry":{"type":"LineString","coordinates":[[12.498,40.5],[12.6,40.398],[12.8,40.401],[12.899,40.5],[12.908,40.7],[13.0,40.884],[13.016,40.9],[13.0,40.916],[12.819,40.9],[12.8,40.898],[12.799,40.9],[12.745,41.1],[12.619,41.3],[12.6,41.327],[12.4,41.364],[12.2,41.396],[12.038,41.5],[12.0,41.538],[11.962,41.5],[11.8,41.448],[11.6,41.38],[11.52,41.3],[11.6,41.22],[11.8,41.152],[12.0,41.177],[12.2,41.204],[12.294,41.1],[12.322,40.9],[12.341,40.7],[12.4,40.641],[12.498,40.5]]},"properties":{"probabilityThreshold":0.0715,"lengthKm":415.5,"diagnosticOnly":true}},{"type":"Feature","geometry":{"type":"LineString","coordinates":[[8.19,40.7],[8.2,40.69],[8.21,40.7],[8.4,40.823],[8.6,40.778],[8.8,40.835],[8.865,40.9],[8.894,41.1],[8.8,41.194],[8.6,41.201],[8.4,41.163],[8.337,41.1],[8.2,40.961],[8.0,41.012],[7.888,40.9],[8.0,40.788],[8.19,40.7]]},"properties":{"probabilityThreshold":0.0715,"lengthKm":233.4,"diagnosticOnly":true}},{"type":"Feature","geometry":{"type":"LineString","coordinates":[[10.353,40.9],[10.4,40.795],[10.6,40.773],[10.614,40.9],[10.613,41.1],[10.708,41.3],[10.715,41.5],[10.6,41.615],[10.4,41.511],[10.389,41.5],[10.319,41.3],[10.286,41.1],[10.353,40.9]]},"properties":{"probabilityThreshold":0.0715,"lengthKm":216.8,"diagnosticOnly":true}},{"type":"Feature","geometry":{"type":"LineString","coordinates":[[10.943,40.9],[11.0,40.843],[11.057,40.9],[11.001,41.1],[11.083,41.3],[11.055,41.5],[11.0,41.555],[10.945,41.5],[10.917,41.3],[10.999,41.1],[10.943,40.9]]},"properties":{"probabilityThreshold":0.0715,"lengthKm":167.1,"diagnosticOnly":true}},{"type":"Feature","geometry":{"type":"LineString","coordinates":[[7.352,41.1],[7.4,41.052],[7.448,41.1],[7.524,41.3],[7.506,41.5],[7.4,41.606],[7.21,41.7],[7.2,41.71],[7.19,41.7],[7.059,41.5],[7.095,41.3],[7.2,41.195],[7.352,41.1]]},"properties":{"probabilityThreshold":0.0715,"lengthKm":172.8,"diagnosticOnly":true}},{"type":"Feature","geometry":{"type":"LineString","coordinates":[[4.587,43.7],[4.6,43.687],[4.8,43.689],[4.811,43.7],[4.875,43.9],[5.0,44.04],[5.06,44.1],[5.104,44.3],[5.2,44.453],[5.4,44.443],[5.457,44.5],[5.6,44.565],[5.8,44.698],[5.802,44.7],[5.915,44.9],[5.873,45.1],[5.817,45.3],[5.8,45.317],[5.6,45.336],[5.4,45.304],[5.396,45.3],[5.334,45.1],[5.2,45.044],[5.0,44.94],[4.8,44.924],[4.6,44.916],[4.584,44.9],[4.4,44.735],[4.365,44.7],[4.2,44.642],[4.058,44.5],[4.0,44.414],[3.886,44.3],[3.964,44.1],[3.8,43.957],[3.743,43.9],[3.8,43.843],[4.0,43.853],[4.047,43.9],[4.2,43.99],[4.325,43.9],[4.4,43.825],[4.587,43.7]]},"properties":{"probabilityThreshold":0.0715,"lengthKm":590.8,"diagnosticOnly":true}},{"type":"Feature","geometry":{"type":"LineString","coordinates":[[21.751,44.5],[21.8,44.451],[21.849,44.5],[21.835,44.7],[21.887,44.9],[21.923,45.1],[21.926,45.3],[21.958,45.5],[21.961,45.7],[21.962,45.9],[21.961,46.1],[21.961,46.3],[21.959,46.5],[21.941,46.7],[21.932,46.9],[21.826,47.1],[21.878,47.3],[21.86,47.5],[21.802,47.7],[21.8,47.702],[21.798,47.7],[21.74,47.5],[21.722,47.3],[21.774,47.1],[21.6,46.905],[21.4,46.998],[21.2,46.954],[21.081,46.9],[21.0,46.861],[20.8,46.737],[20.6,46.743],[20.493,46.9],[20.4,46.942],[20.358,46.9],[20.2,46.701],[20.192,46.7],[20.0,46.635],[19.8,46.548],[19.776,46.5],[19.8,46.476],[20.0,46.448],[20.197,46.3],[20.2,46.286],[20.4,46.258],[20.434,46.1],[20.4,45.958],[20.2,45.991],[20.09,45.9],[20.0,45.781],[19.808,45.7],[19.8,45.697],[19.723,45.5],[19.8,45.44],[19.911,45.5],[20.0,45.63],[20.2,45.592],[20.392,45.7],[20.4,45.725],[20.41,45.7],[20.575,45.5],[20.6,45.475],[20.8,45.357],[21.0,45.408],[21.2,45.344],[21.361,45.3],[21.4,45.279],[21.454,45.1],[21.6,45.023],[21.713,44.9],[21.765,44.7],[21.751,44.5]]},"properties":{"probabilityThreshold":0.0715,"lengthKm":1100.5,"diagnosticOnly":true}},{"type":"Feature","geometry":{"type":"LineString","coordinates":[[6.125,45.3],[6.2,45.225],[6.275,45.3],[6.4,45.454],[6.446,45.5],[6.442,45.7],[6.4,45.742],[6.308,45.7],[6.2,45.613],[6.0,45.62],[5.97,45.5],[6.0,45.47],[6.125,45.3]]},"properties":{"probabilityThreshold":0.0715,"lengthKm":149.6,"diagnosticOnly":true}},{"type":"Feature","geometry":{"type":"LineString","coordinates":[[7.768,45.5],[7.8,45.468],[8.0,45.406],[8.2,45.44],[8.26,45.5],[8.4,45.591],[8.509,45.7],[8.48,45.9],[8.4,45.98],[8.32,45.9],[8.2,45.835],[8.0,45.824],[7.8,45.78],[7.72,45.7],[7.768,45.5]]},"properties":{"probabilityThreshold":0.0715,"lengthKm":195.9,"diagnosticOnly":true}},{"type":"Feature","geometry":{"type":"LineString","coordinates":[[8.52,46.1],[8.6,46.02],[8.8,46.042],[9.0,46.06],[9.2,45.964],[9.4,46.011],[9.489,46.1],[9.4,46.189],[9.2,46.236],[9.0,46.14],[8.8,46.158],[8.6,46.18],[8.52,46.1]]},"properties":{"probabilityThreshold":0.0715,"lengthKm":178.0,"diagnosticOnly":true}},{"type":"Feature","geometry":{"type":"LineString","coordinates":[[9.554,46.3],[9.6,46.254],[9.8,46.202],[9.898,46.3],[10.0,46.387],[10.2,46.444],[10.4,46.495],[10.405,46.5],[10.4,46.505],[10.232,46.7],[10.2,46.732],[10.168,46.7],[10.0,46.613],[9.887,46.5],[9.8,46.398],[9.6,46.346],[9.554,46.3]]},"properties":{"probabilityThreshold":0.0715,"lengthKm":183.0,"diagnosticOnly":true}},{"type":"Feature","geometry":{"type":"LineString","coordinates":[[16.354,46.3],[16.4,46.254],[16.6,46.291],[16.609,46.3],[16.8,46.419],[17.0,46.414],[17.2,46.498],[17.202,46.5],[17.4,46.579],[17.6,46.572],[17.8,46.562],[18.0,46.61],[18.2,46.63],[18.27,46.7],[18.21,46.9],[18.283,47.1],[18.2,47.183],[18.0,47.149],[17.951,47.1],[17.8,46.909],[17.791,46.9],[17.6,46.828],[17.4,46.821],[17.2,46.703],[17.179,46.7],[17.0,46.67],[16.8,46.596],[16.6,46.559],[16.548,46.5],[16.4,46.346],[16.354,46.3]]},"properties":{"probabilityThreshold":0.0715,"lengthKm":404.7,"diagnosticOnly":true}},{"type":"Feature","geometry":{"type":"LineString","coordinates":[[13.705,46.5],[13.8,46.472],[14.0,46.448],[14.052,46.5],[14.2,46.623],[14.4,46.608],[14.492,46.7],[14.4,46.792],[14.2,46.777],[14.0,46.719],[13.99,46.7],[13.8,46.528],[13.705,46.5]]},"properties":{"probabilityThreshold":0.0715,"lengthKm":154.2,"diagnosticOnly":true}},{"type":"Feature","geometry":{"type":"LineString","coordinates":[[8.352,46.7],[8.4,46.652],[8.448,46.7],[8.436,46.9],[8.6,47.041],[8.8,47.048],[9.0,47.055],[9.045,47.1],[9.0,47.145],[8.822,47.3],[8.8,47.322],[8.778,47.3],[8.6,47.159],[8.463,47.3],[8.4,47.363],[8.2,47.375],[8.125,47.3],[8.0,47.113],[7.815,47.3],[7.8,47.315],[7.785,47.3],[7.6,47.103],[7.597,47.1],[7.6,47.097],[7.8,47.066],[8.0,47.087],[8.2,47.01],[8.364,46.9],[8.352,46.7]]},"properties":{"probabilityThreshold":0.0715,"lengthKm":364.2,"diagnosticOnly":true}},{"type":"Feature","geometry":{"type":"LineString","coordinates":[[9.346,46.7],[9.4,46.646],[9.6,46.662],[9.698,46.7],[9.8,46.816],[10.0,46.813],[10.087,46.9],[10.037,47.1],[10.0,47.137],[9.8,47.173],[9.608,47.3],[9.6,47.308],[9.4,47.35],[9.202,47.5],[9.252,47.7],[9.2,47.752],[9.148,47.7],[9.0,47.542],[8.958,47.5],[9.0,47.458],[9.199,47.3],[9.2,47.299],[9.331,47.1],[9.4,47.031],[9.564,46.9],[9.4,46.754],[9.346,46.7]]},"properties":{"probabilityThreshold":0.0715,"lengthKm":347.0,"diagnosticOnly":true}},{"type":"Feature","geometry":{"type":"LineString","coordinates":[[14.773,46.7],[14.8,46.673],[14.827,46.7],[14.823,46.9],[15.0,47.065],[15.035,47.1],[15.0,47.135],[14.868,47.3],[14.8,47.368],[14.6,47.436],[14.464,47.3],[14.4,47.175],[14.2,47.122],[14.0,47.175],[13.926,47.3],[13.8,47.426],[13.6,47.416],[13.4,47.44],[13.2,47.331],[13.0,47.391],[12.801,47.5],[12.8,47.501],[12.799,47.5],[12.6,47.407],[12.4,47.447],[12.2,47.39],[12.0,47.399],[11.901,47.3],[11.8,47.189],[11.711,47.1],[11.678,46.9],[11.8,46.778],[11.922,46.9],[12.0,47.07],[12.2,47.018],[12.282,47.1],[12.4,47.153],[12.505,47.1],[12.6,47.005],[12.695,47.1],[12.8,47.232],[12.898,47.1],[13.0,46.998],[13.102,47.1],[13.2,47.269],[13.299,47.1],[13.4,46.999],[13.6,46.901],[13.7,47.1],[13.8,47.174],[13.925,47.1],[14.0,46.993],[14.2,47.078],[14.4,47.025],[14.6,47.027],[14.777,46.9],[14.773,46.7]]},"properties":{"probabilityThreshold":0.0715,"lengthKm":828.1,"diagnosticOnly":true}},{"type":"Feature","geometry":{"type":"LineString","coordinates":[[3.0,47.036],[3.192,46.9],[3.2,46.892],[3.208,46.9],[3.4,47.038],[3.6,47.099],[3.601,47.1],[3.8,47.177],[4.0,47.217],[4.083,47.3],[4.2,47.375],[4.4,47.424],[4.476,47.5],[4.6,47.594],[4.796,47.5],[4.8,47.496],[4.958,47.3],[5.0,47.258],[5.042,47.3],[5.2,47.429],[5.271,47.5],[5.4,47.669],[5.6,47.576],[5.8,47.681],[5.819,47.7],[6.0,47.761],[6.2,47.796],[6.303,47.7],[6.4,47.603],[6.6,47.588],[6.8,47.646],[6.854,47.7],[7.0,47.874],[7.026,47.9],[7.0,47.926],[6.855,48.1],[6.8,48.155],[6.745,48.1],[6.79,47.9],[6.6,47.812],[6.509,47.9],[6.4,48.009],[6.2,48.004],[6.0,48.039],[5.8,47.979],[5.696,48.1],[5.6,48.196],[5.426,48.3],[5.454,48.5],[5.6,48.545],[5.686,48.7],[5.6,48.786],[5.4,48.724],[5.2,48.802],[5.0,48.838],[4.8,48.758],[4.6,48.774],[4.4,48.757],[4.2,48.747],[4.0,48.741],[3.959,48.7],[4.0,48.659],[4.174,48.5],[4.0,48.452],[3.848,48.3],[4.0,48.148],[4.2,48.179],[4.4,48.158],[4.6,48.202],[4.698,48.3],[4.8,48.388],[5.0,48.445],[5.055,48.5],[5.2,48.598],[5.385,48.5],[5.2,48.353],[5.147,48.3],[5.138,48.1],[5.121,47.9],[5.0,47.796],[4.855,47.9],[4.8,47.955],[4.745,47.9],[4.6,47.806],[4.4,47.801],[4.329,47.9],[4.2,48.029],[4.0,48.049],[3.851,47.9],[4.0,47.751],[4.2,47.771],[4.299,47.7],[4.2,47.625],[4.0,47.586],[3.8,47.63],[3.6,47.612],[3.56,47.7],[3.533,47.9],[3.4,48.033],[3.267,47.9],[3.24,47.7],[3.2,47.654],[3.046,47.5],[3.138,47.3],[3.0,47.164]]},"properties":{"probabilityThreshold":0.0715,"lengthKm":1497.0,"diagnosticOnly":true}},{"type":"Feature","geometry":{"type":"LineString","coordinates":[[7.086,47.5],[7.2,47.386],[7.314,47.5],[7.4,47.671],[7.429,47.7],[7.448,47.9],[7.6,47.988],[7.8,48.093],[8.0,48.043],[8.057,48.1],[8.0,48.157],[7.8,48.107],[7.709,48.3],[7.8,48.375],[8.0,48.374],[8.079,48.3],[8.2,48.179],[8.4,48.209],[8.491,48.3],[8.4,48.391],[8.2,48.421],[8.126,48.5],[8.2,48.562],[8.4,48.569],[8.6,48.577],[8.749,48.5],[8.799,48.3],[8.6,48.121],[8.579,48.1],[8.6,48.079],[8.741,47.9],[8.8,47.841],[8.859,47.9],[8.837,48.1],[9.0,48.22],[9.08,48.3],[9.055,48.5],[9.2,48.568],[9.4,48.57],[9.579,48.5],[9.6,48.479],[9.621,48.5],[9.8,48.59],[10.0,48.586],[10.2,48.577],[10.4,48.575],[10.6,48.554],[10.8,48.545],[10.94,48.5],[11.0,48.44],[11.17,48.3],[11.2,48.27],[11.23,48.3],[11.212,48.5],[11.4,48.556],[11.57,48.5],[11.6,48.47],[11.8,48.433],[11.867,48.5],[12.0,48.559],[12.2,48.558],[12.4,48.564],[12.6,48.574],[12.792,48.5],[12.8,48.492],[12.808,48.5],[13.0,48.598],[13.2,48.592],[13.4,48.613],[13.6,48.571],[13.8,48.61],[14.0,48.632],[14.2,48.639],[14.4,48.605],[14.6,48.646],[14.654,48.7],[14.6,48.754],[14.4,48.795],[14.2,48.761],[14.0,48.768],[13.8,48.79],[13.6,48.829],[13.4,48.787],[13.2,48.808],[13.0,48.802],[12.8,48.826],[12.6,48.826],[12.4,48.836],[12.2,48.842],[12.0,48.841],[11.8,48.844],[11.6,48.847],[11.4,48.844],[11.2,48.85],[11.0,48.856],[10.8,48.855],[10.6,48.846],[10.4,48.825],[10.2,48.823],[10.0,48.814],[9.8,48.81],[9.6,48.826],[9.4,48.83],[9.2,48.832],[9.0,48.826],[8.8,48.821],[8.6,48.823],[8.4,48.831],[8.2,48.838],[8.0,48.822],[7.8,48.838],[7.6,48.843],[7.4,48.848],[7.2,48.856],[7.0,48.849],[6.8,48.85],[6.6,48.848],[6.4,48.791],[6.2,48.814],[6.0,48.782],[5.918,48.7],[5.868,48.5],[5.8,48.396],[5.752,48.3],[5.8,48.252],[6.0,48.264],[6.036,48.3],[6.2,48.425],[6.393,48.3],[6.4,48.293],[6.6,48.246],[6.654,48.3],[6.8,48.471],[7.0,48.422],[7.078,48.5],[7.2,48.544],[7.302,48.5],[7.288,48.3],[7.2,48.156],[7.144,48.1],[7.2,48.044],[7.352,47.9],[7.2,47.705],[7.195,47.7],[7.086,47.5]]},"properties":{"probabilityThreshold":0.0715,"lengthKm":1979.5,"diagnosticOnly":true}},{"type":"Feature","geometry":{"type":"LineString","coordinates":[[9.395,47.9],[9.4,47.895],[9.405,47.9],[9.6,47.979],[9.721,48.1],[9.6,48.221],[9.455,48.3],[9.4,48.355],[9.345,48.3],[9.332,48.1],[9.395,47.9]]},"properties":{"probabilityThreshold":0.0715,"lengthKm":123.8,"diagnosticOnly":true}},{"type":"Feature","geometry":{"type":"LineString","coordinates":[[15.14,48.7],[15.2,48.64],[15.4,48.659],[15.6,48.626],[15.8,48.662],[16.0,48.659],[16.2,48.642],[16.4,48.62],[16.6,48.677],[16.8,48.648],[17.0,48.66],[17.2,48.686],[17.4,48.689],[17.6,48.665],[17.746,48.7],[17.6,48.735],[17.4,48.711],[17.2,48.714],[17.0,48.74],[16.8,48.752],[16.6,48.723],[16.4,48.78],[16.2,48.758],[16.0,48.741],[15.8,48.738],[15.6,48.774],[15.4,48.741],[15.2,48.76],[15.14,48.7]]},"properties":{"probabilityThreshold":0.0715,"lengthKm":398.7,"diagnosticOnly":true}},{"type":"Feature","geometry":{"type":"LineString","coordinates":[[19.14,48.7],[19.2,48.64],[19.4,48.683],[19.6,48.635],[19.8,48.655],[20.0,48.656],[20.2,48.636],[20.4,48.683],[20.417,48.7],[20.4,48.717],[20.2,48.764],[20.0,48.744],[19.8,48.745],[19.6,48.765],[19.4,48.717],[19.2,48.76],[19.14,48.7]]},"properties":{"probabilityThreshold":0.0715,"lengthKm":202.6,"diagnosticOnly":true}}],"properties":{"forecastHour":6,"method":"xgboost-dwd-era5-icon2i-v1","threshold":0.07145121517771291,"temporalConfirmation":"2-of-3 adjacent hours","diagnosticOnly":true}}