{"type":"FeatureCollection","features":[{"type":"Feature","geometry":{"type":"LineString","coordinates":[[3.0,34.293],[3.194,34.1],[3.2,34.094],[3.396,33.9],[3.4,33.896],[3.404,33.9],[3.6,34.072],[3.8,34.024],[4.0,34.02],[4.08,34.1],[4.2,34.165],[4.4,34.171],[4.6,34.164],[4.776,34.1],[4.8,34.076],[5.0,34.058],[5.2,34.066],[5.39,33.9],[5.4,33.89],[5.41,33.9],[5.6,34.057],[5.8,34.058],[6.0,34.05],[6.2,34.091],[6.209,34.1],[6.4,34.187],[6.56,34.1],[6.6,34.06],[6.8,34.075],[7.0,34.066],[7.2,34.057],[7.375,33.9],[7.4,33.875],[7.6,33.853],[7.8,33.836],[8.0,33.813],[8.2,33.815],[8.4,33.803],[8.6,33.847],[8.8,33.829],[8.871,33.9],[9.0,34.026],[9.162,33.9],[9.2,33.862],[9.238,33.9],[9.4,33.995],[9.505,34.1],[9.4,34.205],[9.2,34.135],[9.037,34.3],[9.2,34.458],[9.4,34.476],[9.446,34.5],[9.4,34.579],[9.31,34.7],[9.4,34.716],[9.488,34.7],[9.6,34.626],[9.719,34.7],[9.766,34.9],[9.8,34.964],[9.975,34.9],[10.0,34.895],[10.2,34.803],[10.297,34.9],[10.2,35.035],[10.069,35.1],[10.0,35.285],[9.983,35.3],[10.0,35.309],[10.019,35.3],[10.2,35.241],[10.351,35.1],[10.4,35.074],[10.6,35.046],[10.654,35.1],[10.8,35.283],[10.918,35.1],[11.0,35.018],[11.082,35.1],[11.2,35.226],[11.274,35.3],[11.4,35.429],[11.6,35.472],[11.628,35.5],[11.8,35.624],[11.9,35.5],[11.906,35.3],[12.0,35.206],[12.094,35.3],[12.2,35.383],[12.4,35.402],[12.6,35.407],[12.686,35.3],[12.8,35.186],[13.0,35.216],[13.084,35.3],[13.2,35.408],[13.4,35.438],[13.594,35.3],[13.6,35.294],[13.606,35.3],[13.8,35.44],[13.86,35.5],[13.859,35.7],[14.0,35.821],[14.079,35.9],[14.062,36.1],[14.099,36.3],[14.128,36.5],[14.2,36.673],[14.4,36.633],[14.556,36.5],[14.6,36.456],[14.689,36.3],[14.8,36.189],[15.0,36.167],[15.133,36.3],[15.2,36.434],[15.266,36.5],[15.4,36.607],[15.493,36.7],[15.6,36.839],[15.661,36.9],[15.8,36.955],[16.0,37.093],[16.007,37.1],[16.2,37.267],[16.233,37.3],[16.4,37.412],[16.488,37.5],[16.6,37.566],[16.8,37.623],[17.0,37.683],[17.017,37.7],[17.112,37.9],[17.04,38.1],[17.0,38.14],[16.865,38.3],[16.879,38.5],[16.8,38.579],[16.721,38.5],[16.6,38.394],[16.465,38.5],[16.4,38.565],[16.335,38.5],[16.2,38.358],[16.142,38.3],[16.0,38.155],[15.808,38.3],[15.834,38.5],[15.8,38.534],[15.766,38.5],[15.792,38.3],[15.6,38.187],[15.506,38.3],[15.492,38.5],[15.4,38.592],[15.308,38.5],[15.2,38.345],[15.155,38.3],[15.2,38.213],[15.328,38.1],[15.2,37.97],[15.0,38.008],[14.8,38.09],[14.798,38.1],[14.8,38.103],[14.889,38.3],[14.857,38.5],[14.8,38.557],[14.726,38.7],[14.677,38.9],[14.6,38.977],[14.523,38.9],[14.4,38.765],[14.223,38.9],[14.2,38.923],[14.0,39.02],[13.8,39.076],[13.708,39.1],[13.6,39.139],[13.4,39.141],[13.2,39.224],[13.122,39.3],[13.062,39.5],[13.0,39.618],[12.905,39.7],[12.8,39.751],[12.749,39.7],[12.8,39.612],[12.898,39.5],[12.8,39.373],[12.76,39.3],[12.6,39.129],[12.488,39.3],[12.6,39.475],[12.649,39.5],[12.6,39.525],[12.454,39.7],[12.569,39.9],[12.569,40.1],[12.4,40.245],[12.295,40.3],[12.2,40.395],[12.009,40.5],[12.0,40.509],[11.8,40.568],[11.6,40.569],[11.531,40.5],[11.6,40.431],[11.686,40.3],[11.753,40.1],[11.774,39.9],[11.6,39.704],[11.596,39.7],[11.507,39.5],[11.464,39.3],[11.4,39.211],[11.289,39.1],[11.2,39.032],[11.068,38.9],[11.0,38.788],[10.912,38.7],[10.8,38.611],[10.696,38.7],[10.8,38.836],[10.864,38.9],[10.8,38.984],[10.716,39.1],[10.6,39.194],[10.4,39.205],[10.295,39.1],[10.4,38.995],[10.457,38.9],[10.4,38.836],[10.2,38.792],[10.108,38.7],[10.137,38.5],[10.0,38.345],[9.8,38.406],[9.694,38.3],[9.6,38.206],[9.494,38.1],[9.547,37.9],[9.4,37.773],[9.2,37.771],[9.0,37.785],[8.915,37.7],[8.8,37.545],[8.6,37.525],[8.575,37.5],[8.4,37.418],[8.2,37.409],[8.0,37.337],[7.963,37.3],[7.8,37.141],[7.759,37.1],[7.6,37.046],[7.489,37.1],[7.4,37.189],[7.273,37.3],[7.2,37.373],[7.127,37.3],[7.173,37.1],[7.0,37.038],[6.8,36.97],[6.6,36.951],[6.549,36.9],[6.582,36.7],[6.535,36.5],[6.6,36.435],[6.701,36.5],[6.8,36.584],[6.941,36.5],[7.0,36.401],[7.2,36.347],[7.4,36.396],[7.582,36.3],[7.6,36.23],[7.643,36.3],[7.8,36.357],[7.852,36.3],[8.0,36.121],[8.02,36.1],[8.2,35.993],[8.4,35.971],[8.6,35.928],[8.679,35.9],[8.8,35.836],[9.0,35.837],[9.087,35.7],[9.0,35.515],[8.996,35.5],[8.8,35.301],[8.6,35.343],[8.4,35.303],[8.2,35.343],[8.157,35.3],[8.0,35.184],[7.8,35.132],[7.6,35.229],[7.4,35.106],[7.2,35.13],[7.031,35.3],[7.0,35.331],[6.969,35.3],[6.8,35.133],[6.6,35.182],[6.4,35.123],[6.328,35.1],[6.2,35.091],[6.0,35.098],[5.99,35.1],[5.83,35.3],[5.8,35.33],[5.614,35.5],[5.6,35.514],[5.586,35.5],[5.4,35.394],[5.2,35.365],[5.135,35.3],[5.13,35.1],[5.0,34.936],[4.819,35.1],[4.8,35.119],[4.618,35.3],[4.6,35.318],[4.582,35.3],[4.59,35.1],[4.6,35.09],[4.78,34.9],[4.8,34.799],[5.0,34.864],[5.073,34.7],[5.0,34.622],[4.8,34.688],[4.6,34.636],[4.4,34.631],[4.269,34.5],[4.2,34.435],[4.0,34.4],[3.9,34.3],[3.8,34.176],[3.6,34.128],[3.4,34.133],[3.223,34.3],[3.301,34.5],[3.4,34.615],[3.587,34.5],[3.6,34.487],[3.8,34.466],[3.834,34.5],[3.8,34.639],[3.767,34.7],[3.794,34.9],[3.8,35.058],[3.804,35.1],[3.827,35.3],[3.8,35.327],[3.668,35.5],[3.6,35.568],[3.411,35.7],[3.4,35.711],[3.389,35.7],[3.2,35.524],[3.0,35.538]]},"properties":{"probabilityThreshold":0.0715,"lengthKm":5516.4,"diagnosticOnly":true}},{"type":"Feature","geometry":{"type":"LineString","coordinates":[[8.0,34.695],[7.99,34.7],[7.8,34.887],[7.6,34.854],[7.4,34.773],[7.28,34.9],[7.4,35.075],[7.6,35.015],[7.8,34.916],[8.0,34.903],[8.004,34.9],[8.002,34.7],[8.0,34.695]]},"properties":{"probabilityThreshold":0.0715,"lengthKm":189.5,"diagnosticOnly":true}},{"type":"Feature","geometry":{"type":"LineString","coordinates":[[13.2,36.207],[13.051,36.3],[13.2,36.418],[13.4,36.397],[13.473,36.5],[13.6,36.564],[13.706,36.5],[13.8,36.406],[13.901,36.3],[13.8,36.171],[13.6,36.191],[13.4,36.146],[13.2,36.207]]},"properties":{"probabilityThreshold":0.0715,"lengthKm":193.0,"diagnosticOnly":true}},{"type":"Feature","geometry":{"type":"LineString","coordinates":[[11.4,38.556],[11.216,38.7],[11.4,38.769],[11.531,38.9],[11.6,38.971],[11.661,38.9],[11.645,38.7],[11.6,38.626],[11.4,38.556]]},"properties":{"probabilityThreshold":0.0715,"lengthKm":128.2,"diagnosticOnly":true}},{"type":"Feature","geometry":{"type":"LineString","coordinates":[[7.798,39.1],[7.8,39.099],[8.0,39.077],[8.2,39.053],[8.247,39.1],[8.4,39.211],[8.6,39.257],[8.643,39.3],[8.6,39.343],[8.402,39.5],[8.6,39.662],[8.638,39.7],[8.8,39.787],[8.919,39.7],[8.8,39.618],[8.682,39.5],[8.8,39.382],[8.936,39.3],[8.978,39.1],[9.0,39.078],[9.2,39.076],[9.229,39.1],[9.2,39.124],[9.064,39.3],[9.037,39.5],[9.2,39.592],[9.308,39.7],[9.318,39.9],[9.4,39.98],[9.434,40.1],[9.4,40.134],[9.232,40.3],[9.2,40.332],[9.077,40.5],[9.088,40.7],[9.0,40.788],[8.912,40.7],[8.8,40.603],[8.6,40.628],[8.4,40.611],[8.2,40.63],[8.109,40.5],[8.0,40.313],[7.979,40.3],[8.0,40.287],[8.171,40.1],[8.2,40.004],[8.244,40.1],[8.4,40.166],[8.555,40.1],[8.476,39.9],[8.4,39.735],[8.365,39.7],[8.398,39.5],[8.2,39.344],[8.156,39.3],[8.0,39.123],[7.8,39.101],[7.798,39.1]]},"properties":{"probabilityThreshold":0.0715,"lengthKm":839.4,"diagnosticOnly":true}},{"type":"Feature","geometry":{"type":"LineString","coordinates":[[9.962,39.7],[10.0,39.69],[10.008,39.7],[10.148,39.9],[10.106,40.1],[10.0,40.143],[9.877,40.1],[9.8,40.051],[9.608,39.9],[9.8,39.738],[9.962,39.7]]},"properties":{"probabilityThreshold":0.0715,"lengthKm":144.7,"diagnosticOnly":true}},{"type":"Feature","geometry":{"type":"LineString","coordinates":[[7.382,39.9],[7.4,39.882],[7.6,39.712],[7.8,39.785],[7.957,39.9],[7.8,39.997],[7.6,40.084],[7.4,39.96],[7.382,39.9]]},"properties":{"probabilityThreshold":0.0715,"lengthKm":130.7,"diagnosticOnly":true}},{"type":"Feature","geometry":{"type":"LineString","coordinates":[[7.15,40.1],[7.2,40.064],[7.296,40.1],[7.4,40.207],[7.6,40.174],[7.652,40.3],[7.6,40.334],[7.4,40.341],[7.249,40.3],[7.2,40.254],[7.191,40.3],[7.2,40.341],[7.25,40.5],[7.2,40.541],[7.073,40.7],[7.0,40.829],[6.911,40.9],[6.8,40.956],[6.744,40.9],[6.8,40.772],[6.856,40.7],[6.991,40.5],[6.874,40.3],[7.0,40.162],[7.15,40.1]]},"properties":{"probabilityThreshold":0.0715,"lengthKm":311.0,"diagnosticOnly":true}},{"type":"Feature","geometry":{"type":"LineString","coordinates":[[10.749,40.5],[10.8,40.474],[10.821,40.5],[10.938,40.7],[11.0,40.831],[11.069,40.9],[11.135,41.1],[11.138,41.3],[11.042,41.5],[11.0,41.542],[10.906,41.5],[10.829,41.3],[10.8,41.182],[10.6,41.272],[10.4,41.262],[10.278,41.1],[10.4,40.975],[10.6,40.902],[10.611,40.9],[10.6,40.897],[10.4,40.772],[10.36,40.7],[10.4,40.567],[10.6,40.55],[10.749,40.5]]},"properties":{"probabilityThreshold":0.0715,"lengthKm":348.6,"diagnosticOnly":true}},{"type":"Feature","geometry":{"type":"LineString","coordinates":[[12.312,40.5],[12.4,40.412],[12.6,40.363],[12.8,40.449],[12.851,40.5],[12.809,40.7],[12.8,40.709],[12.684,40.9],[12.6,40.984],[12.424,41.1],[12.6,41.168],[12.732,41.3],[12.6,41.432],[12.479,41.5],[12.4,41.579],[12.321,41.5],[12.2,41.342],[12.0,41.374],[11.8,41.372],[11.6,41.429],[11.471,41.3],[11.6,41.171],[11.8,41.228],[12.0,41.226],[12.2,41.258],[12.376,41.1],[12.287,40.9],[12.325,40.7],[12.312,40.5]]},"properties":{"probabilityThreshold":0.0715,"lengthKm":472.3,"diagnosticOnly":true}},{"type":"Feature","geometry":{"type":"LineString","coordinates":[[7.73,40.9],[7.8,40.85],[8.0,40.747],[8.2,40.807],[8.4,40.769],[8.6,40.859],[8.629,40.9],[8.6,41.078],[8.565,41.1],[8.4,41.124],[8.366,41.1],[8.2,40.99],[8.0,41.048],[7.8,40.95],[7.73,40.9]]},"properties":{"probabilityThreshold":0.0715,"lengthKm":194.9,"diagnosticOnly":true}},{"type":"Feature","geometry":{"type":"LineString","coordinates":[[11.67,40.9],[11.8,40.77],[12.0,40.783],[12.117,40.9],[12.0,41.017],[11.8,41.03],[11.67,40.9]]},"properties":{"probabilityThreshold":0.0715,"lengthKm":102.6,"diagnosticOnly":true}},{"type":"Feature","geometry":{"type":"LineString","coordinates":[[12.977,40.9],[13.0,40.877],[13.023,40.9],[13.2,40.968],[13.4,41.06],[13.44,41.1],[13.4,41.14],[13.2,41.232],[13.101,41.3],[13.0,41.401],[12.899,41.3],[13.0,41.199],[13.068,41.1],[13.0,40.923],[12.977,40.9]]},"properties":{"probabilityThreshold":0.0715,"lengthKm":162.7,"diagnosticOnly":true}},{"type":"Feature","geometry":{"type":"LineString","coordinates":[[3.793,43.9],[3.8,43.893],[4.0,43.891],[4.009,43.9],[4.2,44.083],[4.4,44.051],[4.578,43.9],[4.6,43.878],[4.622,43.9],[4.8,44.082],[4.818,44.1],[4.8,44.118],[4.6,44.11],[4.406,44.3],[4.452,44.5],[4.6,44.645],[4.8,44.677],[4.823,44.7],[5.0,44.797],[5.2,44.858],[5.4,44.841],[5.6,44.786],[5.8,44.821],[5.879,44.9],[5.8,44.979],[5.693,45.1],[5.611,45.3],[5.6,45.302],[5.595,45.3],[5.4,45.169],[5.2,45.11],[5.19,45.1],[5.0,45.003],[4.8,44.919],[4.781,44.9],[4.6,44.755],[4.4,44.776],[4.324,44.7],[4.348,44.5],[4.2,44.321],[4.179,44.3],[4.0,44.176],[3.924,44.1],[3.8,43.907],[3.793,43.9]]},"properties":{"probabilityThreshold":0.0715,"lengthKm":596.2,"diagnosticOnly":true}},{"type":"Feature","geometry":{"type":"LineString","coordinates":[[21.76,44.5],[21.8,44.46],[21.84,44.5],[21.897,44.7],[21.901,44.9],[21.935,45.1],[21.951,45.3],[21.954,45.5],[21.96,45.7],[21.963,45.9],[21.96,46.1],[21.953,46.3],[21.951,46.5],[21.948,46.7],[21.954,46.9],[21.952,47.1],[21.94,47.3],[21.931,47.5],[21.907,47.7],[21.8,47.807],[21.693,47.7],[21.669,47.5],[21.66,47.3],[21.6,47.234],[21.4,47.239],[21.2,47.216],[21.085,47.3],[21.0,47.385],[20.8,47.38],[20.612,47.5],[20.602,47.7],[20.6,47.702],[20.4,47.718],[20.2,47.742],[20.015,47.9],[20.0,47.915],[19.8,47.983],[19.6,47.98],[19.4,47.99],[19.31,47.9],[19.2,47.76],[19.14,47.7],[19.0,47.616],[18.8,47.639],[18.606,47.7],[18.6,47.704],[18.596,47.7],[18.541,47.5],[18.4,47.418],[18.2,47.339],[18.161,47.3],[18.0,47.191],[17.8,47.157],[17.6,47.158],[17.542,47.1],[17.4,46.967],[17.333,46.9],[17.2,46.763],[17.0,46.759],[16.941,46.7],[16.8,46.605],[16.6,46.603],[16.497,46.5],[16.4,46.416],[16.284,46.3],[16.4,46.184],[16.6,46.201],[16.699,46.3],[16.8,46.395],[17.0,46.475],[17.2,46.497],[17.248,46.5],[17.4,46.523],[17.458,46.5],[17.4,46.451],[17.372,46.3],[17.4,46.272],[17.561,46.1],[17.6,46.061],[17.639,46.1],[17.8,46.299],[18.0,46.202],[18.097,46.1],[18.18,45.9],[18.2,45.88],[18.22,45.9],[18.4,46.004],[18.467,45.9],[18.4,45.788],[18.312,45.7],[18.4,45.612],[18.488,45.7],[18.6,45.767],[18.8,45.755],[19.0,45.767],[19.066,45.7],[19.2,45.566],[19.4,45.553],[19.6,45.562],[19.765,45.5],[19.8,45.465],[20.0,45.373],[20.2,45.379],[20.4,45.357],[20.6,45.36],[20.8,45.361],[20.855,45.3],[21.0,45.155],[21.2,45.149],[21.353,45.1],[21.4,45.053],[21.6,44.991],[21.699,44.9],[21.703,44.7],[21.76,44.5]]},"properties":{"probabilityThreshold":0.0715,"lengthKm":1677.4,"diagnosticOnly":true}},{"type":"Feature","geometry":{"type":"LineString","coordinates":[[9.524,46.3],[9.6,46.185],[9.676,46.3],[9.636,46.5],[9.8,46.557],[9.857,46.5],[10.0,46.405],[10.2,46.425],[10.4,46.422],[10.478,46.5],[10.4,46.578],[10.234,46.7],[10.2,46.734],[10.166,46.7],[10.0,46.595],[9.895,46.7],[10.0,46.84],[10.06,46.9],[10.0,46.978],[9.87,46.9],[9.8,46.859],[9.739,46.9],[9.6,46.969],[9.531,46.9],[9.4,46.792],[9.308,46.7],[9.2,46.631],[9.069,46.5],[9.2,46.369],[9.331,46.5],[9.4,46.608],[9.585,46.5],[9.524,46.3]]},"properties":{"probabilityThreshold":0.0715,"lengthKm":428.6,"diagnosticOnly":true}},{"type":"Feature","geometry":{"type":"LineString","coordinates":[[13.321,46.5],[13.4,46.421],[13.479,46.5],[13.6,46.657],[13.696,46.5],[13.8,46.396],[14.0,46.448],[14.052,46.5],[14.2,46.602],[14.325,46.5],[14.4,46.425],[14.475,46.5],[14.453,46.7],[14.6,46.817],[14.78,46.7],[14.8,46.68],[15.0,46.697],[15.003,46.7],[15.104,46.9],[15.099,47.1],[15.0,47.199],[14.901,47.3],[14.8,47.401],[14.6,47.377],[14.421,47.3],[14.4,47.285],[14.2,47.261],[14.19,47.3],[14.0,47.323],[13.8,47.333],[13.6,47.413],[13.423,47.5],[13.4,47.523],[13.377,47.5],[13.2,47.4],[13.0,47.416],[12.876,47.5],[12.8,47.576],[12.724,47.5],[12.6,47.337],[12.4,47.404],[12.2,47.312],[12.188,47.3],[12.2,47.288],[12.4,47.196],[12.536,47.1],[12.6,47.036],[12.664,47.1],[12.8,47.167],[12.86,47.1],[13.0,46.96],[13.166,46.9],[13.0,46.743],[12.8,46.787],[12.6,46.767],[12.533,46.7],[12.6,46.633],[12.8,46.573],[13.0,46.657],[13.2,46.699],[13.321,46.5]]},"properties":{"probabilityThreshold":0.0715,"lengthKm":807.9,"diagnosticOnly":true}},{"type":"Feature","geometry":{"type":"LineString","coordinates":[[18.8,46.446],[18.739,46.5],[18.708,46.7],[18.724,46.9],[18.8,46.958],[18.893,46.9],[19.0,46.793],[19.2,46.823],[19.308,46.7],[19.4,46.608],[19.507,46.5],[19.4,46.443],[19.2,46.431],[19.0,46.458],[18.8,46.446]]},"properties":{"probabilityThreshold":0.0715,"lengthKm":199.4,"diagnosticOnly":true}},{"type":"Feature","geometry":{"type":"LineString","coordinates":[[13.4,46.748],[13.234,46.9],[13.2,46.934],[13.14,47.1],[13.2,47.2],[13.392,47.1],[13.4,47.092],[13.485,46.9],[13.4,46.748]]},"properties":{"probabilityThreshold":0.0715,"lengthKm":116.0,"diagnosticOnly":true}},{"type":"Feature","geometry":{"type":"LineString","coordinates":[[3.515,47.3],[3.6,47.215],[3.8,47.298],[3.802,47.3],[3.8,47.302],[3.656,47.5],[3.6,47.556],[3.401,47.7],[3.478,47.9],[3.4,47.978],[3.322,47.9],[3.399,47.7],[3.348,47.5],[3.4,47.448],[3.515,47.3]]},"properties":{"probabilityThreshold":0.0715,"lengthKm":197.6,"diagnosticOnly":true}},{"type":"Feature","geometry":{"type":"LineString","coordinates":[[17.358,47.7],[17.4,47.658],[17.6,47.693],[17.8,47.653],[18.0,47.621],[18.2,47.637],[18.263,47.7],[18.313,47.9],[18.2,48.013],[18.0,47.935],[17.965,47.9],[17.8,47.747],[17.6,47.707],[17.4,47.742],[17.358,47.7]]},"properties":{"probabilityThreshold":0.0715,"lengthKm":192.6,"diagnosticOnly":true}},{"type":"Feature","geometry":{"type":"LineString","coordinates":[[5.176,48.1],[5.2,48.076],[5.4,48.058],[5.6,48.037],[5.663,48.1],[5.8,48.228],[6.0,48.258],[6.042,48.3],[6.2,48.347],[6.4,48.472],[6.428,48.5],[6.6,48.54],[6.8,48.543],[7.0,48.557],[7.2,48.563],[7.4,48.601],[7.595,48.5],[7.6,48.495],[7.608,48.5],[7.8,48.588],[7.973,48.5],[8.0,48.484],[8.016,48.5],[8.2,48.58],[8.4,48.589],[8.6,48.608],[8.8,48.591],[9.0,48.585],[9.2,48.6],[9.4,48.57],[9.6,48.566],[9.8,48.587],[10.0,48.576],[10.2,48.601],[10.4,48.604],[10.6,48.606],[10.8,48.623],[11.0,48.62],[11.2,48.627],[11.4,48.623],[11.6,48.624],[11.8,48.632],[12.0,48.647],[12.2,48.647],[12.4,48.629],[12.6,48.61],[12.8,48.594],[13.0,48.586],[13.2,48.574],[13.4,48.583],[13.6,48.642],[13.721,48.7],[13.6,48.758],[13.4,48.817],[13.2,48.826],[13.0,48.814],[12.8,48.806],[12.6,48.79],[12.4,48.771],[12.2,48.753],[12.0,48.753],[11.8,48.768],[11.6,48.776],[11.4,48.777],[11.2,48.773],[11.0,48.78],[10.8,48.777],[10.6,48.794],[10.4,48.796],[10.2,48.799],[10.0,48.824],[9.8,48.813],[9.6,48.802],[9.4,48.83],[9.2,48.8],[9.0,48.815],[8.8,48.809],[8.6,48.792],[8.4,48.811],[8.2,48.82],[8.0,48.82],[7.8,48.784],[7.6,48.767],[7.4,48.799],[7.2,48.837],[7.0,48.843],[6.8,48.857],[6.6,48.86],[6.4,48.85],[6.2,48.863],[6.0,48.853],[5.8,48.852],[5.6,48.847],[5.4,48.843],[5.2,48.847],[5.0,48.851],[4.8,48.836],[4.6,48.832],[4.4,48.815],[4.2,48.821],[4.0,48.826],[3.8,48.808],[3.6,48.76],[3.4,48.747],[3.2,48.765],[3.135,48.7],[3.2,48.635],[3.4,48.653],[3.6,48.64],[3.8,48.592],[4.0,48.574],[4.067,48.5],[4.0,48.381],[3.919,48.3],[4.0,48.219],[4.2,48.162],[4.4,48.195],[4.6,48.156],[4.744,48.3],[4.8,48.347],[5.0,48.358],[5.161,48.3],[5.176,48.1]]},"properties":{"probabilityThreshold":0.0715,"lengthKm":1702.8,"diagnosticOnly":true}},{"type":"Feature","geometry":{"type":"LineString","coordinates":[[5.4,48.142],[5.239,48.3],[5.2,48.339],[5.142,48.5],[5.2,48.553],[5.32,48.5],[5.4,48.42],[5.48,48.5],[5.6,48.553],[5.8,48.548],[5.917,48.5],[5.8,48.372],[5.6,48.359],[5.541,48.3],[5.4,48.142]]},"properties":{"probabilityThreshold":0.0715,"lengthKm":178.9,"diagnosticOnly":true}},{"type":"Feature","geometry":{"type":"LineString","coordinates":[[16.149,48.7],[16.2,48.685],[16.4,48.683],[16.6,48.669],[16.8,48.671],[17.0,48.664],[17.2,48.648],[17.4,48.638],[17.6,48.648],[17.8,48.66],[18.0,48.618],[18.2,48.61],[18.29,48.7],[18.2,48.79],[18.0,48.782],[17.8,48.74],[17.6,48.752],[17.4,48.762],[17.2,48.752],[17.0,48.736],[16.8,48.729],[16.6,48.731],[16.4,48.717],[16.2,48.715],[16.149,48.7]]},"properties":{"probabilityThreshold":0.0715,"lengthKm":328.3,"diagnosticOnly":true}}],"properties":{"forecastHour":3,"method":"xgboost-dwd-era5-icon2i-v1","threshold":0.07145121517771291,"temporalConfirmation":"2-of-3 adjacent hours","diagnosticOnly":true}}