{"type":"FeatureCollection","features":[{"type":"Feature","geometry":{"type":"LineString","coordinates":[[9.344,36.5],[9.4,36.444],[9.6,36.492],[9.8,36.445],[10.0,36.446],[10.054,36.5],[10.2,36.643],[10.257,36.7],[10.2,36.757],[10.0,36.748],[9.8,36.769],[9.731,36.7],[9.6,36.508],[9.4,36.556],[9.344,36.5]]},"properties":{"probabilityThreshold":0.0715,"lengthKm":204.4,"diagnosticOnly":true}},{"type":"Feature","geometry":{"type":"LineString","coordinates":[[4.441,36.7],[4.6,36.541],[4.8,36.609],[4.891,36.7],[4.8,36.791],[4.6,36.859],[4.441,36.7]]},"properties":{"probabilityThreshold":0.0715,"lengthKm":109.7,"diagnosticOnly":true}},{"type":"Feature","geometry":{"type":"LineString","coordinates":[[7.768,36.7],[7.8,36.668],[8.0,36.661],[8.039,36.7],[8.2,36.806],[8.391,36.7],[8.4,36.691],[8.409,36.7],[8.6,36.808],[8.8,36.778],[9.0,36.812],[9.115,36.7],[9.2,36.615],[9.285,36.7],[9.302,36.9],[9.2,37.002],[9.0,36.988],[8.917,37.1],[8.8,37.217],[8.6,37.191],[8.509,37.1],[8.4,37.014],[8.265,37.1],[8.2,37.165],[8.0,37.195],[7.8,37.226],[7.6,37.206],[7.4,37.238],[7.2,37.207],[7.0,37.168],[6.8,37.172],[6.6,37.179],[6.4,37.212],[6.2,37.177],[6.0,37.133],[5.967,37.1],[6.0,37.067],[6.2,37.046],[6.4,37.015],[6.496,36.9],[6.6,36.796],[6.8,36.815],[7.0,36.795],[7.105,36.9],[7.2,37.02],[7.265,36.9],[7.4,36.765],[7.6,36.762],[7.768,36.7]]},"properties":{"probabilityThreshold":0.0715,"lengthKm":730.3,"diagnosticOnly":true}},{"type":"Feature","geometry":{"type":"LineString","coordinates":[[4.376,37.1],[4.4,37.076],[4.6,37.084],[4.8,37.064],[5.0,37.062],[5.2,37.07],[5.4,37.065],[5.435,37.1],[5.6,37.268],[5.632,37.3],[5.8,37.397],[6.0,37.393],[6.2,37.359],[6.4,37.364],[6.6,37.4],[6.8,37.383],[7.0,37.356],[7.2,37.381],[7.4,37.389],[7.468,37.5],[7.4,37.568],[7.2,37.591],[7.0,37.622],[6.8,37.617],[6.6,37.583],[6.495,37.7],[6.4,37.795],[6.2,37.814],[6.0,37.826],[5.8,37.827],[5.6,37.806],[5.4,37.744],[5.356,37.7],[5.395,37.5],[5.2,37.347],[5.0,37.352],[4.874,37.5],[4.8,37.574],[4.6,37.584],[4.4,37.554],[4.263,37.7],[4.293,37.9],[4.236,38.1],[4.2,38.136],[4.164,38.1],[4.0,37.977],[3.8,37.96],[3.74,37.9],[3.6,37.705],[3.595,37.7],[3.6,37.695],[3.798,37.5],[3.8,37.498],[4.0,37.457],[4.187,37.3],[4.2,37.287],[4.376,37.1]]},"properties":{"probabilityThreshold":0.0715,"lengthKm":882.3,"diagnosticOnly":true}},{"type":"Feature","geometry":{"type":"LineString","coordinates":[[21.674,40.5],[21.8,40.374],[21.926,40.5],[21.942,40.7],[21.9,40.9],[21.93,41.1],[21.923,41.3],[21.877,41.5],[21.871,41.7],[21.891,41.9],[21.802,42.1],[21.945,42.3],[21.948,42.5],[21.935,42.7],[21.911,42.9],[21.826,43.1],[21.8,43.126],[21.6,43.158],[21.542,43.1],[21.4,42.976],[21.275,43.1],[21.244,43.3],[21.2,43.344],[21.156,43.3],[21.125,43.1],[21.0,42.94],[20.837,42.9],[20.8,42.857],[20.762,42.9],[20.6,42.938],[20.474,42.9],[20.59,42.7],[20.4,42.558],[20.2,42.614],[20.044,42.7],[20.0,42.744],[19.8,42.73],[19.77,42.7],[19.8,42.67],[19.946,42.5],[19.8,42.369],[19.6,42.441],[19.4,42.424],[19.276,42.3],[19.2,42.216],[19.084,42.1],[19.16,41.9],[19.2,41.86],[19.4,41.829],[19.6,41.763],[19.696,41.9],[19.766,42.1],[19.8,42.158],[20.0,42.272],[20.028,42.3],[20.2,42.386],[20.383,42.3],[20.4,42.283],[20.417,42.3],[20.6,42.453],[20.722,42.3],[20.749,42.1],[20.8,41.99],[21.0,42.081],[21.019,42.1],[21.2,42.223],[21.4,42.212],[21.564,42.1],[21.493,41.9],[21.4,41.806],[21.267,41.9],[21.2,41.967],[21.133,41.9],[21.077,41.7],[21.196,41.5],[21.2,41.498],[21.297,41.3],[21.2,41.115],[21.185,41.1],[21.2,41.085],[21.4,41.094],[21.6,41.057],[21.7,40.9],[21.658,40.7],[21.674,40.5]]},"properties":{"probabilityThreshold":0.0715,"lengthKm":1344.1,"diagnosticOnly":true}},{"type":"Feature","geometry":{"type":"LineString","coordinates":[[20.619,41.1],[20.8,41.043],[20.857,41.1],[21.0,41.291],[21.009,41.3],[21.0,41.317],[20.822,41.5],[20.8,41.511],[20.6,41.581],[20.519,41.5],[20.4,41.388],[20.312,41.3],[20.4,41.212],[20.573,41.3],[20.6,41.331],[20.704,41.3],[20.619,41.1]]},"properties":{"probabilityThreshold":0.0715,"lengthKm":203.3,"diagnosticOnly":true}},{"type":"Feature","geometry":{"type":"LineString","coordinates":[[20.048,41.5],[20.2,41.444],[20.256,41.5],[20.2,41.556],[20.103,41.7],[20.0,41.833],[19.8,41.722],[19.754,41.7],[19.8,41.637],[20.0,41.521],[20.048,41.5]]},"properties":{"probabilityThreshold":0.0715,"lengthKm":123.3,"diagnosticOnly":true}},{"type":"Feature","geometry":{"type":"LineString","coordinates":[[14.277,41.9],[14.4,41.777],[14.523,41.9],[14.432,42.1],[14.6,42.219],[14.681,42.3],[14.749,42.5],[14.6,42.649],[14.451,42.5],[14.4,42.36],[14.34,42.3],[14.2,42.214],[14.1,42.3],[14.2,42.472],[14.228,42.5],[14.243,42.7],[14.2,42.775],[14.0,42.89],[13.8,42.886],[13.781,42.9],[13.6,43.082],[13.546,43.1],[13.6,43.16],[13.8,43.275],[14.0,43.166],[14.2,43.186],[14.4,43.132],[14.454,43.1],[14.6,43.013],[14.758,43.1],[14.8,43.154],[15.0,43.261],[15.135,43.1],[15.2,43.035],[15.4,43.079],[15.6,43.038],[15.606,43.1],[15.6,43.107],[15.4,43.15],[15.335,43.3],[15.4,43.462],[15.6,43.42],[15.8,43.387],[15.926,43.3],[16.0,43.226],[16.137,43.3],[16.062,43.5],[16.0,43.547],[15.8,43.653],[15.693,43.7],[15.707,43.9],[15.726,44.1],[15.6,44.226],[15.426,44.3],[15.6,44.421],[15.8,44.438],[16.0,44.481],[16.031,44.5],[16.0,44.519],[15.8,44.562],[15.714,44.7],[15.8,44.78],[16.0,44.752],[16.099,44.7],[16.2,44.572],[16.304,44.5],[16.4,44.43],[16.6,44.486],[16.614,44.5],[16.8,44.585],[16.915,44.7],[17.0,44.761],[17.2,44.777],[17.4,44.823],[17.6,44.897],[17.603,44.9],[17.6,44.903],[17.4,44.977],[17.282,45.1],[17.2,45.182],[17.0,45.149],[16.8,45.22],[16.6,45.231],[16.497,45.3],[16.4,45.468],[16.281,45.5],[16.2,45.521],[16.0,45.592],[15.87,45.7],[15.844,45.9],[15.855,46.1],[15.8,46.116],[15.651,46.3],[15.8,46.395],[15.995,46.3],[16.0,46.281],[16.005,46.3],[16.2,46.454],[16.246,46.5],[16.2,46.572],[16.0,46.639],[15.8,46.605],[15.639,46.7],[15.6,46.801],[15.539,46.9],[15.6,46.996],[15.688,47.1],[15.6,47.197],[15.4,47.197],[15.208,47.3],[15.311,47.5],[15.2,47.611],[15.0,47.546],[14.954,47.5],[14.8,47.424],[14.62,47.5],[14.6,47.52],[14.58,47.5],[14.461,47.3],[14.4,47.186],[14.2,47.196],[14.104,47.1],[14.0,47.025],[13.898,47.1],[13.8,47.198],[13.702,47.1],[13.6,47.023],[13.4,47.043],[13.257,46.9],[13.2,46.829],[13.0,46.849],[12.905,46.7],[12.8,46.622],[12.647,46.5],[12.6,46.455],[12.546,46.5],[12.4,46.684],[12.257,46.5],[12.2,46.464],[12.095,46.5],[12.0,46.564],[11.8,46.516],[11.6,46.649],[11.451,46.5],[11.43,46.3],[11.4,46.219],[11.339,46.1],[11.265,45.9],[11.2,45.812],[11.0,45.813],[10.8,45.796],[10.6,45.867],[10.4,45.861],[10.216,45.7],[10.4,45.519],[10.474,45.5],[10.6,45.414],[10.769,45.3],[10.8,45.248],[11.0,45.26],[11.069,45.3],[11.2,45.313],[11.244,45.3],[11.4,45.192],[11.532,45.3],[11.6,45.384],[11.8,45.456],[11.947,45.5],[12.0,45.558],[12.011,45.5],[12.164,45.3],[12.0,45.162],[11.938,45.1],[11.8,44.966],[11.613,44.9],[11.6,44.898],[11.564,44.9],[11.4,44.97],[11.2,44.978],[11.0,44.995],[10.969,44.9],[10.912,44.7],[10.897,44.5],[10.8,44.397],[10.6,44.463],[10.578,44.5],[10.4,44.692],[10.2,44.597],[10.096,44.5],[10.0,44.441],[9.8,44.391],[9.709,44.3],[9.78,44.1],[9.8,44.08],[10.0,44.006],[10.181,43.9],[10.2,43.881],[10.4,43.807],[10.6,43.795],[10.705,43.9],[10.6,44.005],[10.449,44.1],[10.6,44.187],[10.8,44.12],[10.817,44.1],[11.0,43.993],[11.183,43.9],[11.2,43.864],[11.284,43.7],[11.365,43.5],[11.2,43.401],[11.099,43.3],[11.2,43.199],[11.4,43.24],[11.6,43.195],[11.8,43.183],[12.0,43.121],[12.036,43.1],[12.068,42.9],[12.2,42.814],[12.328,42.9],[12.4,42.945],[12.428,42.9],[12.4,42.818],[12.324,42.7],[12.4,42.624],[12.6,42.646],[12.654,42.7],[12.8,42.749],[12.976,42.7],[12.952,42.5],[12.8,42.324],[12.776,42.3],[12.8,42.276],[13.0,42.236],[13.064,42.3],[13.048,42.5],[13.055,42.7],[13.0,42.724],[12.951,42.9],[13.0,43.008],[13.2,42.919],[13.239,42.9],[13.311,42.7],[13.4,42.656],[13.538,42.5],[13.6,42.438],[13.8,42.397],[13.9,42.3],[13.875,42.1],[14.0,41.975],[14.2,41.986],[14.277,41.9]]},"properties":{"probabilityThreshold":0.0715,"lengthKm":3585.5,"diagnosticOnly":true}},{"type":"Feature","geometry":{"type":"LineString","coordinates":[[17.781,42.1],[17.8,42.081],[18.0,42.089],[18.011,42.1],[18.0,42.117],[17.926,42.3],[17.8,42.403],[17.6,42.359],[17.541,42.3],[17.6,42.241],[17.781,42.1]]},"properties":{"probabilityThreshold":0.0715,"lengthKm":114.2,"diagnosticOnly":true}},{"type":"Feature","geometry":{"type":"LineString","coordinates":[[18.379,42.3],[18.4,42.279],[18.6,42.183],[18.8,42.177],[19.0,42.278],[19.022,42.3],[19.0,42.322],[18.8,42.423],[18.6,42.41],[18.544,42.5],[18.4,42.644],[18.209,42.5],[18.379,42.3]]},"properties":{"probabilityThreshold":0.0715,"lengthKm":180.6,"diagnosticOnly":true}},{"type":"Feature","geometry":{"type":"LineString","coordinates":[[15.2,44.317],[15.084,44.5],[15.0,44.584],[14.8,44.689],[14.782,44.7],[14.8,44.704],[14.853,44.9],[14.874,45.1],[14.8,45.174],[14.646,45.3],[14.6,45.346],[14.417,45.5],[14.4,45.517],[14.2,45.549],[14.088,45.5],[14.0,45.47],[13.972,45.5],[14.0,45.65],[14.016,45.7],[14.0,45.716],[13.874,45.9],[14.0,46.011],[14.171,45.9],[14.2,45.871],[14.4,45.826],[14.6,45.774],[14.717,45.7],[14.728,45.5],[14.8,45.428],[14.919,45.3],[15.0,45.219],[15.2,45.18],[15.284,45.1],[15.4,44.924],[15.536,44.9],[15.486,44.7],[15.4,44.533],[15.367,44.5],[15.2,44.317]]},"properties":{"probabilityThreshold":0.0715,"lengthKm":518.6,"diagnosticOnly":true}},{"type":"Feature","geometry":{"type":"LineString","coordinates":[[7.507,45.5],[7.6,45.407],[7.693,45.5],[7.8,45.575],[7.99,45.5],[8.0,45.49],[8.01,45.5],[8.2,45.567],[8.333,45.7],[8.4,45.836],[8.464,45.9],[8.4,45.964],[8.312,46.1],[8.2,46.212],[8.088,46.1],[8.0,46.037],[7.863,45.9],[7.8,45.825],[7.675,45.7],[7.6,45.593],[7.507,45.5]]},"properties":{"probabilityThreshold":0.0715,"lengthKm":251.6,"diagnosticOnly":true}},{"type":"Feature","geometry":{"type":"LineString","coordinates":[[9.805,45.7],[10.0,45.55],[10.173,45.7],[10.123,45.9],[10.0,46.023],[9.803,45.9],[9.805,45.7]]},"properties":{"probabilityThreshold":0.0715,"lengthKm":125.5,"diagnosticOnly":true}},{"type":"Feature","geometry":{"type":"LineString","coordinates":[[8.998,45.9],[9.0,45.898],[9.2,45.799],[9.4,45.815],[9.6,45.75],[9.795,45.9],[9.6,46.013],[9.565,46.1],[9.6,46.143],[9.8,46.113],[9.913,46.3],[10.0,46.413],[10.2,46.41],[10.4,46.36],[10.497,46.3],[10.6,46.1],[10.6,46.1],[10.8,46.049],[11.0,46.082],[11.018,46.1],[11.0,46.118],[10.8,46.163],[10.718,46.3],[10.8,46.354],[11.0,46.359],[11.141,46.5],[11.0,46.641],[10.8,46.634],[10.6,46.602],[10.479,46.7],[10.4,46.779],[10.2,46.714],[10.186,46.7],[10.0,46.587],[9.8,46.548],[9.752,46.5],[9.6,46.439],[9.472,46.5],[9.4,46.572],[9.328,46.5],[9.4,46.428],[9.461,46.3],[9.4,46.249],[9.2,46.25],[9.0,46.191],[8.8,46.169],[8.6,46.196],[8.504,46.1],[8.6,46.004],[8.8,46.031],[8.998,45.9]]},"properties":{"probabilityThreshold":0.0715,"lengthKm":677.6,"diagnosticOnly":true}},{"type":"Feature","geometry":{"type":"LineString","coordinates":[[15.864,47.1],[16.0,46.921],[16.115,47.1],[16.2,47.251],[16.228,47.3],[16.2,47.328],[16.0,47.351],[15.8,47.334],[15.713,47.3],[15.8,47.222],[15.864,47.1]]},"properties":{"probabilityThreshold":0.0715,"lengthKm":134.6,"diagnosticOnly":true}},{"type":"Feature","geometry":{"type":"LineString","coordinates":[[12.597,48.7],[12.6,48.697],[12.8,48.634],[13.0,48.644],[13.2,48.616],[13.4,48.623],[13.477,48.7],[13.4,48.777],[13.2,48.784],[13.0,48.756],[12.8,48.766],[12.6,48.703],[12.597,48.7]]},"properties":{"probabilityThreshold":0.0715,"lengthKm":142.9,"diagnosticOnly":true}}],"properties":{"forecastHour":60,"method":"xgboost-dwd-era5-icon2i-v1","threshold":0.07145121517771291,"temporalConfirmation":"2-of-3 adjacent hours","diagnosticOnly":true}}