{"type":"FeatureCollection","features":[{"type":"Feature","geometry":{"type":"LineString","coordinates":[[3.0,40.475],[3.025,40.5],[3.2,40.628],[3.272,40.7],[3.4,40.809],[3.491,40.9],[3.508,41.1],[3.502,41.3],[3.4,41.402],[3.263,41.5],[3.2,41.563],[3.137,41.5],[3.0,41.425]]},"properties":{"probabilityThreshold":0.0715,"lengthKm":168.5,"diagnosticOnly":true}}],"properties":{"forecastHour":21,"method":"xgboost-dwd-era5-icon2i-v1","threshold":0.07145121517771291,"temporalConfirmation":"2-of-3 adjacent hours","diagnosticOnly":true}}